HIERARCHY
ROOT Hips
{
	OFFSET 0.00000 0.00000 0.00000
	CHANNELS 6 Xposition Yposition Zposition Zrotation Yrotation Xrotation 
	JOINT LHipJoint
	{
		OFFSET 0 0 0
		CHANNELS 3 Zrotation Yrotation Xrotation
		JOINT LeftUpLeg
		{
			OFFSET 2.05677 -1.58049 1.10403
			CHANNELS 3 Zrotation Yrotation Xrotation
			JOINT LeftLeg
			{
				OFFSET 2.02748 -5.57047 0.00000
				CHANNELS 3 Zrotation Yrotation Xrotation
				JOINT LeftFoot
				{
					OFFSET 2.69552 -7.40589 0.00000
					CHANNELS 3 Zrotation Yrotation Xrotation
					JOINT LeftToeBase
					{
						OFFSET 0.09402 -0.25831 1.95424
						CHANNELS 3 Zrotation Yrotation Xrotation
						End Site
						{
							OFFSET 0.00000 -0.00000 0.99937
						}
					}
				}
			}
		}
	}
	JOINT RHipJoint
	{
		OFFSET 0 0 0
		CHANNELS 3 Zrotation Yrotation Xrotation
		JOINT RightUpLeg
		{
			OFFSET -1.90113 -1.58050 1.10403
			CHANNELS 3 Zrotation Yrotation Xrotation
			JOINT RightLeg
			{
				OFFSET -2.04535 -5.61956 0.00000
				CHANNELS 3 Zrotation Yrotation Xrotation
				JOINT RightFoot
				{
					OFFSET -2.62202 -7.20394 0.00000
					CHANNELS 3 Zrotation Yrotation Xrotation
					JOINT RightToeBase
					{
						OFFSET -0.10393 -0.28555 1.99081
						CHANNELS 3 Zrotation Yrotation Xrotation
						End Site
						{
							OFFSET -0.00000 -0.00000 1.01862
						}
					}
				}
			}
		}
	}
	JOINT LowerBack
	{
		OFFSET 0 0 0
		CHANNELS 3 Zrotation Yrotation Xrotation
		JOINT Spine
		{
			OFFSET -0.08023 1.81443 -0.26993
			CHANNELS 3 Zrotation Yrotation Xrotation
			JOINT Spine1
			{
				OFFSET 0.04312 1.79960 0.09924
				CHANNELS 3 Zrotation Yrotation Xrotation
				JOINT Neck
				{
					OFFSET 0 0 0
					CHANNELS 3 Zrotation Yrotation Xrotation
					JOINT Neck1
					{
						OFFSET -0.04205 1.79103 0.11343
						CHANNELS 3 Zrotation Yrotation Xrotation
						JOINT Head
						{
							OFFSET 0.06228 1.77547 -0.31107
							CHANNELS 3 Zrotation Yrotation Xrotation
							End Site
							{
								OFFSET 0.01771 1.81538 -0.11931
							}
						}
					}
				}
				JOINT LeftShoulder
				{
					OFFSET 0 0 0
					CHANNELS 3 Zrotation Yrotation Xrotation
					JOINT LeftArm
					{
						OFFSET 3.63907 0.79660 -0.40306
						CHANNELS 3 Zrotation Yrotation Xrotation
						JOINT LeftForeArm
						{
							OFFSET 4.83799 -0.00000 0.00000
							CHANNELS 3 Zrotation Yrotation Xrotation
							JOINT LeftHand
							{
								OFFSET 2.68259 -0.00000 0.00000
								CHANNELS 3 Zrotation Yrotation Xrotation
								JOINT LeftFingerBase
								{
									OFFSET 0 0 0
									CHANNELS 3 Zrotation Yrotation Xrotation
									JOINT LeftHandIndex1
									{
										OFFSET 0.72476 -0.00000 0.00000
										CHANNELS 3 Zrotation Yrotation Xrotation
										End Site
										{
											OFFSET 0.58432 -0.00000 0.00000
										}
									}
								}
								JOINT LThumb
								{
									OFFSET 0 0 0
									CHANNELS 3 Zrotation Yrotation Xrotation
									End Site
									{
										OFFSET 0.59325 -0.00000 0.59325
									}
								}
							}
						}
					}
				}
				JOINT RightShoulder
				{
					OFFSET 0 0 0
					CHANNELS 3 Zrotation Yrotation Xrotation
					JOINT RightArm
					{
						OFFSET -3.79008 0.56049 -0.20494
						CHANNELS 3 Zrotation Yrotation Xrotation
						JOINT RightForeArm
						{
							OFFSET -4.61639 -0.00000 -0.00000
							CHANNELS 3 Zrotation Yrotation Xrotation
							JOINT RightHand
							{
								OFFSET -2.86915 -0.00000 0.00000
								CHANNELS 3 Zrotation Yrotation Xrotation
								JOINT RightFingerBase
								{
									OFFSET 0 0 0
									CHANNELS 3 Zrotation Yrotation Xrotation
									JOINT RightHandIndex1
									{
										OFFSET -0.72601 -0.00000 0.00000
										CHANNELS 3 Zrotation Yrotation Xrotation
										End Site
										{
											OFFSET -0.58533 -0.00000 0.00000
										}
									}
								}
								JOINT RThumb
								{
									OFFSET 0 0 0
									CHANNELS 3 Zrotation Yrotation Xrotation
									End Site
									{
										OFFSET -0.59426 -0.00000 0.59426
									}
								}
							}
						}
					}
				}
			}
		}
	}
}
MOTION
Frames: 80
Frame Time: 0.0166666
-2.6178 16.1768 -27.894 0 0 0 0 0 0 -21 0 0 0 0 0 0 0 0 0 0 0 0 0 0 21 0 0 0 0 0 0 0 0 0 0 0 0 0 0 0 0 0 0 0 0 0 0 -16 0 0 21 0 0 11 0 0 0 -8 0 0 0 0 0 0 0 0 0 0 0 0 0 0 0 0 0 0 0 0 8 0 0 0 0 0 0 0 0 0 0 0 0 0 0 0 0 0
-2.7391 16.3816 -15.0261 -0.1708 2.1590 0.9563 0.0000 0.0000 0.0000 -15.5884 -2.7032 -23.6574 14.1845 19.1690 72.7672 0.1334 2.0515 6.4909 2.0131 8.8933 25.4621 0.0000 0.0000 0.0000 26.0344 17.0271 -5.9924 -1.5495 -7.8568 22.2801 -0.4454 -4.2363 -14.8777 -3.1398 -10.9180 32.0038 -5.6501 0.5066 12.8157 1.9547 -0.0941 -4.1995 5.3790 0.4720 -11.8508 -4.6948 -5.4574 -9.3829 5.0785 -7.6986 17.9278 1.7054 -3.5663 7.4273 0.0000 0.0000 0.0000 -88.4768 4.8251 25.5145 13.2256 -21.6168 -2.5358 -0.0000 0.0000 -0.1976 4.3915 20.9150 1.5704 -7.1250 0.0000 -0.0000 -23.6460 49.4123 -2.7092 0.0000 0.0000 0.0000 86.6501 -8.4949 23.5253 -11.1349 18.4948 -1.8185 0.0000 0.0000 9.7446 -9.6356 22.5718 -3.7285 7.1250 -0.0000 -0.0000 12.0722 -7.5289 10.6313
-2.7624 16.3731 -14.8250 -0.1256 2.3202 1.0339 0.0000 0.0000 0.0000 -15.6765 -3.3994 -25.8948 14.3364 19.2129 73.2293 0.0297 0.3403 3.1533 1.3163 7.2668 20.5083 0.0000 0.0000 0.0000 26.3313 16.5650 -5.1586 -1.5187 -7.7820 22.0539 -0.4977 -3.9454 -15.3570 -3.2565 -11.0992 32.6151 -5.5917 0.5789 12.7055 1.8266 0.0053 -4.2021 5.1785 0.5066 -11.7996 -4.7292 -5.6041 -9.1795 5.1026 -7.9061 17.9050 1.7035 -3.6696 7.3971 0.0000 -0.0000 0.0000 -88.3927 4.9562 25.6152 13.1965 -21.5744 -2.5251 -0.0000 0.0000 -0.7038 4.6967 22.2288 1.7802 -7.1250 0.0000 -0.0000 -24.0392 50.6582 -3.5282 0.0000 -0.0000 0.0000 86.7559 -7.6638 22.8040 -10.8747 18.0959 -1.7368 0.0000 0.0000 10.6603 -9.4239 21.2499 -3.4425 7.1250 -0.0000 -0.0000 12.1894 -8.8514 10.4135
-2.7859 16.3665 -14.6246 -0.1335 2.3786 1.1308 0.0000 0.0000 0.0000 -15.6703 -4.2107 -28.0012 14.2226 19.1802 72.8832 0.0047 0.2526 1.2261 1.9108 8.6778 24.7927 0.0000 0.0000 0.0000 26.6989 16.2958 -4.3357 -1.5063 -7.7516 21.9621 -0.5819 -3.5471 -16.1368 -3.2720 -11.1228 32.6953 -5.6211 0.7238 12.7526 1.7740 0.1852 -4.2921 5.0980 0.5995 -11.9556 -4.9112 -5.7215 -9.1817 5.2971 -8.0776 17.9445 1.7782 -3.7459 7.4357 -0.0000 0.0000 0.0000 -88.3586 5.2351 25.5959 13.0790 -21.4029 -2.4821 -0.0000 0.0000 -1.0917 5.2838 21.5850 1.9486 -7.1250 0.0000 -0.0000 -23.1631 50.1608 -3.0924 -0.0000 0.0000 0.0000 86.8378 -7.0438 21.8839 -10.6639 17.7712 -1.6719 0.0000 0.0000 11.6323 -10.3875 22.1789 -3.9585 7.1250 -0.0000 -0.0000 11.5970 -7.8405 10.1216
-2.7923 16.3493 -14.4099 -0.0839 2.1989 1.1223 0.0000 0.0000 0.0000 -15.9262 -4.8727 -29.5467 13.8711 19.0745 71.8105 0.0012 -0.1990 -0.6173 2.0645 8.9992 25.7929 0.0000 0.0000 0.0000 26.8868 15.6443 -3.5536 -1.5005 -7.7373 21.9189 -0.6656 -2.7445 -16.6470 -3.0775 -10.8195 31.6735 -5.4888 0.9224 12.6603 1.6425 0.4676 -4.2206 4.8098 0.7113 -11.8516 -5.0099 -5.8727 -8.9956 5.3646 -8.2851 17.8621 1.8008 -3.8501 7.3946 -0.0000 0.0000 0.0000 -88.3687 5.5803 25.6053 13.2576 -21.6635 -2.5476 -0.0000 0.0000 -1.7265 5.7674 21.5486 2.1245 -7.1250 0.0000 -0.0000 -22.6979 50.2016 -3.0480 -0.0000 0.0000 0.0000 86.8750 -6.2863 21.3442 -10.5915 17.6595 -1.6499 0.0000 0.0000 11.7033 -9.7395 21.0629 -3.5299 7.1250 -0.0000 -0.0000 11.9889 -9.0059 10.1963
-2.8104 16.3276 -14.2155 -0.1819 2.1849 1.1744 0.0000 0.0000 0.0000 -15.8595 -5.9023 -31.1706 13.3271 18.8971 70.1384 0.0178 -0.5147 -2.3899 2.2797 9.4258 27.1367 0.0000 0.0000 0.0000 27.3283 15.4132 -2.7866 -1.5006 -7.7375 21.9196 -0.7443 -2.3520 -17.3126 -3.0332 -10.7485 31.4364 -5.4412 1.0301 12.7594 1.6417 0.6155 -4.2083 4.7483 0.7796 -11.9153 -5.1237 -5.9371 -9.1035 5.4271 -8.3564 17.7589 1.8296 -3.8850 7.3920 -0.0000 -0.0000 0.0000 -88.3640 5.6814 24.9748 13.0379 -21.3427 -2.4670 -0.0000 0.0000 -1.5746 5.2862 21.1189 1.9094 -7.1250 0.0000 -0.0000 -22.9274 49.7330 -2.8069 -0.0000 -0.0000 0.0000 86.8161 -5.6270 21.3543 -10.4350 17.4171 -1.6027 0.0000 0.0000 12.6240 -11.2339 21.8125 -4.2209 7.1250 -0.0000 -0.0000 11.0593 -8.1155 9.5722
-2.8176 16.3129 -13.9963 -0.3903 2.0976 1.3013 0.0000 0.0000 0.0000 -15.7330 -6.9662 -32.3736 12.5415 18.6103 67.6954 0.0513 -0.9989 -4.0435 1.7439 8.3109 23.6625 0.0000 0.0000 0.0000 27.8192 15.0944 -1.8479 -1.4597 -7.6361 21.6141 -0.7989 -2.1394 -17.7884 -3.0404 -10.7602 31.4754 -5.0947 1.1521 12.7205 1.5687 0.8340 -4.2558 4.4193 0.8557 -11.9628 -4.9870 -6.1161 -9.0575 5.1910 -8.5904 17.9117 1.7074 -4.0071 7.4304 0.0000 0.0000 0.0000 -88.2080 5.9535 25.1686 13.0532 -21.3651 -2.4726 -0.0000 0.0000 -1.8096 4.7974 22.7599 1.8596 -7.1250 0.0000 -0.0000 -24.2311 51.1576 -3.8689 0.0000 0.0000 0.0000 86.8332 -4.9589 22.0560 -10.3947 17.3545 -1.5907 0.0000 0.0000 11.8969 -11.0803 21.2724 -4.0640 7.1250 -0.0000 -0.0000 11.1452 -8.6674 9.5252
-2.8206 16.2995 -13.7800 -0.3198 2.3202 1.2597 0.0000 0.0000 0.0000 -15.8827 -8.3777 -32.9483 11.5243 18.1822 64.4728 0.0854 -1.1310 -5.2398 2.0076 8.8819 25.4265 0.0000 0.0000 0.0000 28.0462 14.4982 -0.6825 -1.4027 -7.4917 21.1806 -0.8686 -2.0568 -18.4633 -2.8923 -10.5186 30.6730 -4.9759 1.1820 12.7406 1.4611 0.8833 -4.1476 4.2203 0.8590 -11.8511 -5.0107 -6.1175 -9.0037 5.2706 -8.5862 17.5890 1.7416 -4.0046 7.3200 0.0000 0.0000 0.0000 -88.1649 6.0632 25.7929 13.1927 -21.5690 -2.5237 -0.0000 0.0000 -2.3960 4.6089 22.7749 1.7874 -7.1250 0.0000 -0.0000 -24.4143 51.1410 -3.8909 0.0000 0.0000 0.0000 86.7845 -4.4599 22.6249 -10.6984 17.8244 -1.6824 0.0000 0.0000 11.4157 -12.2213 22.2492 -4.6884 7.1250 -0.0000 -0.0000 10.4516 -7.5745 9.1401
-2.8206 16.2793 -13.5657 -0.5649 2.3896 1.4354 0.0000 0.0000 0.0000 -15.5506 -9.7792 -33.4814 10.3840 17.6202 60.7644 0.1202 -1.5757 -6.1884 1.9619 8.7862 25.1287 0.0000 0.0000 0.0000 28.5508 14.2038 0.3040 -1.3329 -7.3107 20.6391 -0.9452 -1.8135 -19.1048 -2.8559 -10.4581 30.4734 -4.5879 1.2388 12.7348 1.4611 1.0267 -4.2678 3.9667 0.9040 -11.9896 -4.9983 -6.2488 -9.0291 5.2066 -8.7542 17.5573 1.7013 -4.0893 7.3202 0.0000 0.0000 0.0000 -88.2139 6.7240 26.3286 13.3962 -21.8650 -2.5990 -0.0000 0.0000 -2.3501 5.3758 23.5833 2.1561 -7.1250 0.0000 -0.0000 -24.1470 52.0015 -4.3732 0.0000 0.0000 0.0000 86.6823 -4.1515 23.5164 -10.9446 18.2033 -1.7586 0.0000 0.0000 10.2597 -11.9330 21.7219 -4.4723 7.1250 -0.0000 -0.0000 10.6176 -8.1312 9.1722
-2.8250 16.2709 -13.3518 -0.6335 2.7066 1.5635 0.0000 0.0000 0.0000 -15.3240 -11.5394 -33.4795 9.0886 16.8644 56.3961 0.1265 -1.6749 -6.3429 2.2806 9.4276 27.1424 0.0000 0.0000 0.0000 28.9141 13.6476 1.6567 -1.1923 -6.9290 19.5051 -0.9587 -2.4065 -19.5125 -2.7525 -10.2832 29.8988 -4.5705 1.2143 12.8151 1.5055 0.9979 -4.2970 4.0125 0.8940 -12.0688 -5.1126 -6.2149 -9.2514 5.1987 -8.6889 17.7677 1.7150 -4.0588 7.4296 0.0000 -0.0000 0.0000 -88.2464 6.8535 26.2414 13.0240 -21.3223 -2.4620 -0.0000 0.0000 -1.8531 5.0396 20.6730 1.7832 -7.1250 0.0000 -0.0000 -22.9351 49.2862 -2.5452 0.0000 -0.0000 0.0000 86.5400 -3.6049 24.1192 -11.1115 18.4589 -1.8111 0.0000 0.0000 10.2926 -10.9560 20.3184 -3.8456 7.1250 -0.0000 -0.0000 11.2098 -9.6262 9.3633
-2.8081 16.2848 -13.1117 -0.7780 2.6861 1.5142 0.0000 0.0000 0.0000 -15.0838 -13.1965 -32.8269 7.7214 15.9104 51.5528 0.1446 -1.5699 -6.8041 1.7317 8.2833 23.5778 0.0000 0.0000 0.0000 29.2581 12.8867 3.5897 -0.9903 -6.3337 17.7559 -0.9491 -2.6862 -19.5581 -2.5782 -9.9787 28.9078 -4.1477 1.2391 12.7307 1.4680 1.1056 -4.2553 3.7053 0.9075 -11.9676 -5.2934 -6.2780 -9.1372 5.4354 -8.7872 17.6020 1.8152 -4.1013 7.3801 0.0000 -0.0000 0.0000 -88.3573 7.1157 26.0213 12.7393 -20.9040 -2.3594 -0.0000 0.0000 -1.3542 5.0860 19.8502 1.7310 -7.1250 0.0000 -0.0000 -22.5026 48.5349 -2.0586 0.0000 -0.0000 0.0000 86.2981 -2.9883 25.4682 -11.3901 18.8838 -1.9003 0.0000 0.0000 8.8289 -11.7116 20.9526 -4.2396 7.1250 -0.0000 -0.0000 10.7396 -8.9203 9.1102
-2.8076 16.2853 -12.8956 -0.9396 3.1620 1.6810 0.0000 0.0000 0.0000 -14.5658 -15.3604 -32.4058 6.4497 14.8504 46.7609 0.1265 -1.0690 -6.4250 1.4972 7.7292 21.8946 0.0000 0.0000 0.0000 29.6570 12.0811 5.5611 -0.7469 -5.5205 15.3992 -0.9195 -3.4420 -19.6695 -2.3790 -9.6146 27.7375 -4.0672 1.0572 12.6930 1.6051 0.8918 -4.2414 3.8602 0.8052 -11.9081 -5.2867 -6.2068 -9.1277 5.2624 -8.6505 17.5016 1.7735 -4.0516 7.3296 -0.0000 -0.0000 0.0000 -88.7542 7.1551 25.2718 12.7084 -20.8585 -2.3484 -0.0000 0.0000 -0.7721 4.5734 20.2371 1.5849 -7.1250 0.0000 -0.0000 -23.1503 48.8179 -2.2928 -0.0000 -0.0000 0.0000 85.9509 -2.5900 27.1190 -11.8286 19.5471 -2.0446 0.0000 0.0000 7.6647 -10.1965 19.6291 -3.4577 7.1250 -0.0000 -0.0000 11.6898 -10.3799 9.5996
-2.7807 16.2994 -12.6545 -1.0364 2.8347 1.9574 0.0000 0.0000 0.0000 -14.0099 -17.2938 -31.7347 5.2900 13.7031 42.0610 0.1351 -0.3642 -6.8200 1.4784 7.6825 21.7539 0.0000 0.0000 0.0000 29.6853 11.2340 7.5734 -0.5170 -4.6086 12.7956 -0.8515 -3.6691 -19.1323 -2.2547 -9.3776 26.9837 -3.8135 1.1819 12.3898 1.6075 1.1151 -4.2866 3.6678 0.8904 -11.7927 -5.2448 -6.2609 -9.3033 5.1429 -8.7008 17.4929 1.7175 -4.0796 7.3535 -0.0000 0.0000 0.0000 -89.0031 7.4896 24.8383 12.5980 -20.6953 -2.3093 -0.0000 0.0000 -0.3531 4.5697 20.4126 1.5968 -7.1250 0.0000 -0.0000 -23.2379 48.9784 -2.3984 -0.0000 0.0000 0.0000 85.7178 -2.5205 28.1842 -12.1382 20.0116 -2.1494 0.0000 0.0000 7.0947 -11.8495 21.1266 -4.3246 7.1250 -0.0000 -0.0000 10.6559 -8.7329 9.0772
-2.7601 16.3127 -12.4126 -1.1456 2.6351 2.1870 0.0000 0.0000 0.0000 -13.2024 -19.6814 -30.8794 4.2879 12.5340 37.6481 0.1478 0.9220 -7.6584 1.1675 6.8589 19.2980 0.0000 0.0000 0.0000 29.8451 10.6417 10.3246 -0.2742 -3.3679 9.3048 -0.7258 -4.7599 -18.5163 -1.9437 -8.7478 25.0095 -3.5936 1.2447 12.0436 1.5799 1.2458 -4.3110 3.4846 0.9316 -11.6171 -5.0216 -6.2771 -9.1638 4.9845 -8.7172 17.1642 1.6365 -4.0934 7.2053 0.0000 0.0000 0.0000 -89.3533 6.9869 23.1850 11.6744 -19.3145 -1.9933 -0.0000 -0.0000 1.0022 5.0180 20.9089 1.7949 -7.1250 0.0000 -0.0000 -23.0700 49.4999 -2.6883 0.0000 0.0000 0.0000 85.6037 -2.4049 29.1903 -12.3453 20.3205 -2.2207 0.0000 0.0000 7.4810 -12.9046 20.6436 -4.6181 7.1250 -0.0000 -0.0000 9.9740 -9.1030 8.4021
-2.7477 16.3152 -12.1870 -1.2980 2.7035 2.4405 0.0000 0.0000 0.0000 -12.1670 -22.2053 -30.3121 3.5172 11.4886 33.9460 0.1407 2.5988 -8.5397 1.0806 6.6073 18.5570 0.0000 0.0000 0.0000 29.6921 8.3819 14.7108 -0.0125 -0.7210 1.9813 -0.4114 -6.1368 -15.9119 -1.6720 -8.1467 23.1604 -3.5112 1.1908 12.0014 1.6634 1.1976 -4.3698 3.5405 0.9084 -11.6538 -5.0850 -6.2349 -9.4409 4.9959 -8.6503 17.3717 1.6465 -4.0565 7.3216 -0.0000 0.0000 0.0000 -89.4237 7.6920 23.4504 11.7720 -19.4619 -2.0257 -0.0000 -0.0000 0.6672 4.6098 19.3338 1.5291 -7.1250 0.0000 -0.0000 -22.6961 47.9920 -1.7608 -0.0000 0.0000 0.0000 85.4641 -1.9321 30.2573 -12.6868 20.8266 -2.3408 0.0000 0.0000 6.7285 -11.1344 19.6773 -3.7916 7.1250 -0.0000 -0.0000 11.0886 -10.2456 9.1164
-2.7103 16.3235 -11.9255 -1.5051 2.0621 2.4687 0.0000 0.0000 0.0000 -11.0659 -24.8901 -29.2382 2.9513 10.6158 30.9949 0.1292 5.4422 -10.8720 1.1399 6.7801 19.0654 0.0000 0.0000 0.0000 29.7292 7.7142 16.7016 0.0000 -0.0000 0.0000 -0.3737 -6.0685 -15.3601 -1.4589 -7.6340 21.6078 -3.2445 1.3314 11.5624 1.7400 1.4522 -4.3118 3.4197 1.0067 -11.3416 -5.0071 -6.1855 -9.2432 4.8862 -8.5672 17.0847 1.6159 -4.0283 7.1803 0.0000 -0.0000 0.0000 -89.6598 8.4499 23.7142 12.0018 -19.8074 -2.1029 -0.0000 -0.0000 0.2634 4.9363 19.9893 1.6911 -7.1250 0.0000 -0.0000 -22.7033 48.6419 -2.1413 0.0000 -0.0000 0.0000 85.2707 -1.6265 31.0313 -12.8491 21.0657 -2.3988 0.0000 0.0000 6.5222 -10.9064 20.1940 -3.8054 7.1250 -0.0000 -0.0000 11.2399 -9.7544 9.3598
-2.6729 16.3278 -11.6604 -1.4603 1.4545 2.5288 0.0000 0.0000 0.0000 -10.0494 -28.1913 -28.3218 2.5403 9.9109 28.6886 0.0130 9.0404 -13.1168 1.4167 7.5275 21.2879 0.0000 0.0000 0.0000 29.5690 7.3848 17.6457 0.0000 0.0000 -0.0000 -0.4286 -5.6253 -15.7086 -1.1245 -6.7357 18.9347 -3.1720 1.5284 11.2626 1.6646 1.7294 -4.3254 3.2399 1.1281 -11.1964 -5.0420 -6.1619 -9.4363 4.9012 -8.5406 17.4010 1.6202 -4.0092 7.3181 -0.0000 -0.0000 0.0000 -89.8473 8.8062 23.8731 11.9244 -19.6912 -2.0768 -0.0000 -0.0000 0.0187 5.2367 20.3657 1.8269 -7.1250 0.0000 -0.0000 -22.6074 49.0321 -2.3579 -0.0000 -0.0000 0.0000 85.2509 -1.5593 31.4450 -12.9919 21.2754 -2.4504 0.0000 0.0000 6.7213 -12.1639 21.2747 -4.4720 7.1250 -0.0000 -0.0000 10.4604 -8.5519 8.9430
-2.6455 16.3158 -11.4167 -1.6381 1.1987 2.5736 0.0000 0.0000 0.0000 -8.8333 -31.1039 -27.9001 2.2870 9.4398 27.1811 -0.0613 11.6711 -15.7271 1.7597 8.3464 23.7714 0.0000 0.0000 0.0000 29.6451 6.7804 18.3472 0.0000 0.0000 -0.0000 -0.4718 -5.1678 -15.9003 -0.8959 -6.0326 16.8790 -3.0968 1.5633 11.1406 1.7405 1.7994 -4.2618 3.2671 1.1563 -11.0580 -4.7729 -6.2009 -9.2558 4.6607 -8.5803 17.0120 1.5052 -4.0396 7.1389 -0.0000 -0.0000 0.0000 -89.9988 8.9979 23.2665 11.6585 -19.2906 -1.9880 -0.0000 -0.0000 0.6234 4.6360 18.4458 1.4697 -7.1250 0.0000 -0.0000 -22.2775 47.1756 -1.2561 -0.0000 -0.0000 0.0000 85.1470 -1.2619 32.0673 -13.2729 21.6857 -2.5532 0.0000 0.0000 6.4144 -13.3862 21.9480 -5.0830 7.1250 -0.0000 -0.0000 9.7103 -7.7427 8.4389
-2.6176 16.2953 -11.1697 -1.9493 1.0051 2.5683 0.0000 0.0000 0.0000 -7.7604 -33.2677 -27.6582 2.1499 9.1715 26.3334 -0.2882 14.1896 -16.4602 1.4132 7.5186 21.2611 0.0000 0.0000 0.0000 29.8275 6.0854 19.1261 0.0000 -0.0000 0.0000 -0.5336 -4.3846 -16.0988 -0.8726 -5.9559 16.6565 -2.9114 1.5636 11.0484 1.8624 1.8432 -4.2021 3.2869 1.1668 -10.9370 -4.7155 -6.1526 -9.3698 4.5922 -8.5036 16.9658 1.4786 -4.0036 7.1345 -0.0000 -0.0000 0.0000 -90.2125 9.2148 22.7999 11.5213 -19.0829 -1.9429 -0.0000 -0.0000 0.7733 4.0677 19.0790 1.3316 -7.1250 0.0000 -0.0000 -23.0679 47.6833 -1.6086 -0.0000 -0.0000 0.0000 85.1087 -0.9662 32.4882 -13.3214 21.7563 -2.5712 0.0000 0.0000 6.8087 -13.3252 21.8454 -5.0367 7.1250 -0.0000 -0.0000 9.7450 -7.8525 8.4486
-2.5797 16.2710 -10.9162 -1.8981 0.7700 2.5764 0.0000 0.0000 0.0000 -7.4828 -34.5928 -27.3779 2.0468 8.9630 25.6795 -0.1215 14.3896 -19.0332 2.0949 9.0609 25.9862 0.0000 0.0000 0.0000 29.5603 5.4373 19.9010 0.0000 -0.0000 0.0000 -0.5690 -3.7465 -16.1067 -0.6777 -5.2639 14.6627 -3.0496 1.5441 10.9389 1.9118 1.8035 -4.2232 3.4289 1.1596 -10.8996 -4.6282 -6.0860 -8.9814 4.4295 -8.3980 16.6951 1.4380 -3.9714 6.9623 0.0000 -0.0000 0.0000 -90.4380 9.7082 23.1030 11.7083 -19.3658 -2.0045 -0.0000 -0.0000 0.5018 3.9637 21.2852 1.4409 -7.1250 0.0000 -0.0000 -24.2229 49.6863 -2.9535 0.0000 -0.0000 0.0000 84.9305 -0.8972 33.4305 -13.5459 22.0818 -2.6550 0.0000 0.0000 5.8083 -12.5069 20.9933 -4.5437 7.1250 -0.0000 -0.0000 10.2360 -8.7960 8.6940
-2.5358 16.2405 -10.6533 -1.8786 0.5803 2.6221 0.0000 0.0000 0.0000 -7.4988 -35.2075 -27.2065 1.9890 8.8431 25.3056 -0.0395 14.2407 -19.7826 2.4538 9.7535 28.1821 0.0000 0.0000 0.0000 29.2612 4.7534 20.7031 0.0000 -0.0000 0.0000 -0.6108 -3.0328 -16.1753 -0.6103 -5.0001 13.9089 -3.1155 1.5634 10.7842 1.9195 1.8238 -4.1904 3.4724 1.1717 -10.7755 -4.5759 -5.9894 -9.3954 4.4188 -8.2733 17.0491 1.4221 -3.8980 7.1408 0.0000 0.0000 0.0000 -90.4984 9.8093 23.5022 11.4621 -18.9931 -1.9236 -0.0000 -0.0000 0.4308 3.8207 20.7290 1.3541 -7.1250 0.0000 -0.0000 -24.0737 49.1585 -2.6060 0.0000 0.0000 0.0000 84.9753 -0.8014 33.4277 -13.4935 22.0060 -2.6353 0.0000 0.0000 5.8897 -13.0533 21.7499 -4.9104 7.1250 -0.0000 -0.0000 9.9129 -7.9791 8.5737
-2.4988 16.2073 -10.4043 -2.1517 0.6545 2.6977 0.0000 0.0000 0.0000 -7.8726 -33.9066 -27.4466 1.9872 8.8393 25.2939 0.0035 12.8288 -18.2864 2.6894 10.1745 29.5435 0.0000 0.0000 0.0000 29.2646 3.8742 21.3398 0.0000 -0.0000 0.0000 -0.6309 -2.2800 -16.0020 -0.5713 -4.8407 13.4546 -2.9305 1.4898 10.8657 2.0040 1.7599 -4.2441 3.4716 1.1345 -10.8745 -4.3033 -5.9704 -10.1159 4.2135 -8.2459 17.3966 1.2898 -3.8687 7.3589 -0.0000 -0.0000 0.0000 -90.5026 9.9280 23.6893 11.1413 -18.5045 -1.8205 -0.0000 -0.0000 0.6756 4.3056 19.3172 1.4267 -7.1250 0.0000 -0.0000 -22.9626 47.9347 -1.7496 -0.0000 -0.0000 0.0000 85.1031 -0.8184 33.4389 -13.4641 21.9634 -2.6243 0.0000 0.0000 6.3223 -13.2985 21.3384 -4.9157 7.1250 -0.0000 -0.0000 9.7444 -8.3636 8.3483
-2.4451 16.1705 -10.1295 -2.3046 0.3701 2.5795 0.0000 0.0000 0.0000 -8.6916 -32.5624 -27.1628 2.0331 8.9347 25.5912 -0.0328 11.6985 -16.1858 3.1124 10.8748 31.8589 0.0000 0.0000 0.0000 29.0800 3.2279 22.3200 0.0000 0.0000 -0.0000 -0.6137 -1.8546 -15.5851 -0.3157 -3.6120 9.9876 -2.8361 1.4977 10.8979 2.1084 1.7949 -4.2391 3.5243 1.1494 -10.8918 -4.4715 -5.8938 -9.7739 4.3141 -8.1359 17.2467 1.3721 -3.8260 7.2561 0.0000 0.0000 0.0000 -90.6805 10.2783 23.7524 11.0919 -18.4290 -1.8049 -0.0000 -0.0000 0.9660 3.9662 19.7416 1.3416 -7.1250 0.0000 -0.0000 -23.4652 48.2771 -1.9998 0.0000 0.0000 0.0000 84.9828 -1.0624 33.7467 -13.6589 22.2449 -2.6976 0.0000 0.0000 5.9781 -12.9278 21.1321 -4.7307 7.1250 -0.0000 -0.0000 9.9728 -8.6115 8.5004
-2.3825 16.1411 -9.8397 -2.2626 -0.1367 2.4668 0.0000 0.0000 0.0000 -9.7369 -31.2147 -26.7874 2.1314 9.1345 26.2169 -0.1442 10.7922 -12.9310 3.4729 11.4239 33.7231 0.0000 0.0000 0.0000 28.6254 2.7662 23.4713 0.0000 -0.0000 0.0000 -0.6089 -1.4327 -15.3279 -0.0911 -1.9466 5.3581 -2.7960 1.6273 10.8602 2.0626 1.9727 -4.3756 3.4154 1.2342 -11.0347 -4.4755 -5.9379 -9.3418 4.2781 -8.2141 17.4043 1.3649 -3.8731 7.2332 -0.0000 -0.0000 0.0000 -90.6913 10.7682 23.9138 10.8347 -18.0344 -1.7244 -0.0000 -0.0000 1.6138 3.9889 20.1893 1.3786 -7.1250 0.0000 -0.0000 -23.6576 48.6902 -2.2705 -0.0000 -0.0000 0.0000 85.0491 -1.7695 33.6633 -13.6410 22.2191 -2.6908 0.0000 0.0000 5.9373 -13.1600 21.4544 -4.8880 7.1250 -0.0000 -0.0000 9.8357 -8.2630 8.4489
-2.3209 16.1272 -9.5513 -2.2882 -0.2478 2.3893 0.0000 0.0000 0.0000 -10.4769 -30.2794 -26.6087 2.2355 9.3403 26.8658 -0.2770 10.8074 -9.8751 3.6244 11.6431 34.4807 0.0000 0.0000 0.0000 28.1885 2.0123 24.3672 0.0000 0.0000 -0.0000 -0.5385 -0.9520 -14.2386 -0.1670 -2.6328 7.2580 -2.6660 1.6349 10.8297 1.9985 1.9969 -4.4014 3.2672 1.2341 -11.0388 -4.3341 -5.9989 -9.4198 4.2180 -8.3187 17.6130 1.3079 -3.9157 7.3109 -0.0000 -0.0000 0.0000 -90.5922 10.9433 23.9401 10.8570 -18.0688 -1.7313 -0.0000 -0.0000 1.6733 3.4842 20.6750 1.2315 -7.1250 0.0000 -0.0000 -24.3523 49.0602 -2.5778 -0.0000 -0.0000 0.0000 85.2925 -2.2185 33.1851 -13.8432 22.5101 -2.7678 0.0000 0.0000 5.5256 -11.8262 20.4172 -4.1778 7.1250 -0.0000 -0.0000 10.6564 -9.4417 8.9238
-2.2617 16.1259 -9.2508 -1.7494 -0.4596 2.3646 0.0000 0.0000 0.0000 -11.8101 -29.0886 -26.1821 2.3292 9.5205 27.4375 -0.2887 10.4827 -8.6427 4.4821 12.7757 38.5345 0.0000 0.0000 0.0000 27.1118 1.4002 25.1947 0.0000 -0.0000 0.0000 -0.4549 -0.6129 -12.9780 -0.2181 -3.0061 8.2958 -3.2603 1.6910 10.5541 1.8740 1.9755 -4.3092 3.4773 1.2550 -10.7895 -4.2892 -6.0451 -9.9881 4.0920 -8.3603 17.9042 1.2351 -3.9305 7.5013 -0.0000 -0.0000 0.0000 -90.6595 10.7740 23.4460 10.4404 -17.4254 -1.6043 -0.0000 -0.0000 2.6409 3.9621 18.8979 1.2851 -7.1250 0.0000 -0.0000 -23.0808 47.5026 -1.5017 -0.0000 -0.0000 0.0000 85.3338 -2.6513 32.7894 -13.8583 22.5318 -2.7736 0.0000 0.0000 5.7473 -12.6416 19.0870 -4.1948 7.1250 -0.0000 -0.0000 10.1095 -10.6886 8.1910
-2.1941 16.1132 -8.9595 -1.1245 -0.3913 2.1905 0.0000 0.0000 0.0000 -13.5217 -27.3032 -25.6835 2.4231 9.6967 27.9999 -0.2394 9.4812 -7.6528 4.8874 13.2558 40.3337 0.0000 0.0000 0.0000 25.9357 0.4468 26.1367 0.0000 0.0000 -0.0000 -0.3430 -0.7764 -11.3720 -0.1638 -2.6074 7.1876 -3.7210 1.6763 10.7166 1.6480 1.8582 -4.3710 3.5137 1.2252 -10.9553 -4.3213 -6.1305 -9.7203 4.1485 -8.4887 17.7950 1.2547 -3.9953 7.4279 0.0000 -0.0000 0.0000 -90.5921 10.8632 23.1954 10.2387 -17.1121 -1.5444 -0.0000 -0.0000 3.0424 3.6340 19.3589 1.2060 -7.1250 0.0000 -0.0000 -23.5855 47.8807 -1.7693 0.0000 -0.0000 0.0000 85.6748 -3.4644 31.3957 -13.5451 22.0807 -2.6547 0.0000 0.0000 7.3940 -13.2152 20.2163 -4.6393 7.1250 -0.0000 -0.0000 9.7643 -9.4978 8.1416
-2.1286 16.1136 -8.6631 -0.3884 -0.6605 2.3312 0.0000 0.0000 0.0000 -15.1062 -25.2985 -25.6499 2.5320 9.8958 28.6401 -0.1816 8.2496 -6.6112 5.2478 13.6575 41.8824 0.0000 0.0000 0.0000 24.6305 -0.0293 26.8603 0.0000 0.0000 -0.0000 -0.2157 -1.2887 -9.3413 -0.1338 -2.3574 6.4946 -4.3403 1.8383 10.5464 1.3754 1.9602 -4.5398 3.5482 1.3116 -11.0700 -4.4017 -6.2126 -9.7714 4.1517 -8.5956 17.9523 1.2542 -4.0487 7.4972 0.0000 0.0000 0.0000 -90.4009 11.1524 23.7384 10.0878 -16.8769 -1.5004 -0.0000 -0.0000 3.2876 4.4267 19.1318 1.4534 -7.1250 0.0000 -0.0000 -22.7693 47.7808 -1.6429 0.0000 0.0000 0.0000 85.8849 -4.3982 30.7589 -13.4705 21.9727 -2.6267 0.0000 0.0000 6.8887 -11.3358 20.5748 -4.0299 7.1250 -0.0000 -0.0000 10.9714 -9.3342 9.2219
-2.0599 16.1212 -8.3627 -0.0019 -0.5767 2.2270 0.0000 0.0000 0.0000 -16.4139 -23.7915 -25.2855 2.6609 10.1248 29.3819 -0.1365 7.0920 -5.5271 5.3942 13.8145 42.4992 0.0000 0.0000 0.0000 24.5574 0.7324 22.3549 -0.2689 -3.3356 9.2146 -0.3004 -0.1147 -10.3945 -0.0388 -1.2712 3.4953 -4.5602 1.8047 10.4113 1.2531 1.8750 -4.5671 3.5588 1.2806 -11.0159 -4.4825 -6.2015 -9.3899 4.1498 -8.5729 17.8005 1.2828 -4.0521 7.3824 0.0000 -0.0000 0.0000 -90.3021 11.1368 23.8718 9.9918 -16.7267 -1.4726 -0.0000 -0.0000 3.0998 4.0858 19.6797 1.3780 -7.1250 0.0000 -0.0000 -23.3283 48.2372 -1.9628 0.0000 -0.0000 0.0000 86.0737 -5.3152 29.7391 -13.3480 21.7950 -2.5811 0.0000 0.0000 7.2391 -12.7840 21.2787 -4.7073 7.1250 -0.0000 -0.0000 10.0682 -8.4808 8.6109
-1.9905 16.1141 -8.0696 0.2708 -0.4201 2.0965 0.0000 0.0000 0.0000 -17.6196 -22.5670 -24.8917 2.8158 10.3908 30.2516 -0.0910 5.9407 -4.9405 5.1542 13.5554 41.4846 0.0000 0.0000 0.0000 24.0418 0.7586 18.6440 -0.8740 -5.9605 16.6697 -0.2563 0.5387 -9.3863 -0.0043 -0.4235 1.1636 -4.6093 1.7500 10.4128 1.1588 1.7843 -4.5487 3.5024 1.2352 -10.9849 -4.5421 -6.2275 -9.6986 4.0619 -8.5852 18.1058 1.2493 -4.0609 7.5365 0.0000 0.0000 0.0000 -90.2086 10.9204 23.8626 9.7722 -16.3825 -1.4100 -0.0000 -0.0000 3.4449 3.5547 20.2751 1.2332 -7.1250 0.0000 -0.0000 -24.0919 48.7063 -2.3269 0.0000 0.0000 0.0000 86.2369 -6.1770 28.7303 -13.4551 21.9504 -2.6210 0.0000 0.0000 6.7501 -12.6365 21.0907 -4.6124 7.1250 -0.0000 -0.0000 10.1564 -8.6847 8.6470
-1.9321 16.1137 -7.8166 0.6071 0.5352 1.9561 0.0000 0.0000 0.0000 -18.8611 -22.0785 -24.3286 2.9291 10.5794 30.8742 -0.0680 5.0303 -3.9558 4.7245 13.0666 39.6184 0.0000 0.0000 0.0000 23.2226 -0.3537 14.9348 -1.6381 -8.0676 22.9197 -0.1522 0.6342 -7.1690 -0.0124 -0.7202 1.9791 -4.7081 1.4850 11.1717 1.0413 1.3607 -4.7342 3.5073 1.0521 -11.6066 -4.4944 -6.2675 -9.6962 3.8892 -8.6191 18.1880 1.1815 -4.0887 7.5546 -0.0000 0.0000 0.0000 -89.9145 10.8378 24.8406 9.6389 -16.1727 -1.3726 -0.0000 -0.0000 3.0651 3.8577 20.4628 1.3504 -7.1250 0.0000 -0.0000 -23.9091 48.9212 -2.4399 -0.0000 0.0000 0.0000 86.4803 -7.3197 27.7871 -13.3749 21.8340 -2.5911 0.0000 0.0000 7.4598 -11.9927 21.0160 -4.3565 7.1250 -0.0000 -0.0000 10.5627 -8.8279 8.9746
-1.8453 16.1464 -7.5081 1.1153 0.0923 1.7551 0.0000 0.0000 0.0000 -20.3462 -21.3427 -22.8687 2.9484 10.6110 30.9788 -0.0464 4.6892 -4.6068 4.5546 12.8640 38.8614 0.0000 0.0000 0.0000 21.7430 -0.4847 11.5019 -2.5738 -9.9710 28.8827 -0.0226 -0.1979 -2.9171 -0.1076 -2.1152 5.8241 -4.8880 1.6224 10.9214 0.8871 1.5144 -4.6720 3.4109 1.1254 -11.4032 -4.5687 -6.1940 -9.7143 3.7600 -8.4956 18.5547 1.1597 -4.0424 7.6703 -0.0000 -0.0000 0.0000 -89.8055 10.4323 25.3177 9.4860 -15.9316 -1.3304 -0.0000 -0.0000 3.3964 3.5499 20.3351 1.2350 -7.1250 0.0000 -0.0000 -24.1254 48.7603 -2.3642 -0.0000 -0.0000 0.0000 86.5848 -8.1318 26.9775 -13.2293 21.6222 -2.5371 0.0000 0.0000 7.7475 -11.3305 20.6812 -4.0478 7.1250 -0.0000 -0.0000 10.9765 -9.2290 9.2500
-1.7769 16.1755 -7.2379 1.4562 0.2770 1.5840 0.0000 0.0000 0.0000 -21.6080 -20.7850 -21.2812 2.8811 10.5001 30.6119 -0.0238 4.2920 -5.0846 4.1817 12.3984 37.1562 0.0000 0.0000 0.0000 20.8180 -0.4035 7.9598 -3.6959 -11.7444 34.8337 0.0036 -2.0868 1.1535 -0.2569 -3.2608 9.0056 -5.0382 1.4890 11.2541 0.8448 1.2875 -4.7262 3.4937 1.0333 -11.6458 -4.4602 -6.1432 -9.5999 3.4537 -8.3909 18.6221 1.0568 -4.0144 7.6488 0.0000 -0.0000 0.0000 -89.6852 10.4150 26.0836 9.5494 -16.0316 -1.3478 -0.0000 -0.0000 3.3465 3.4568 19.6802 1.1654 -7.1250 0.0000 -0.0000 -23.8950 48.1499 -1.9619 0.0000 -0.0000 0.0000 86.4872 -9.0022 26.8989 -13.0877 21.4155 -2.4852 0.0000 0.0000 7.7230 -10.7911 20.5059 -3.8198 7.1250 -0.0000 -0.0000 11.3169 -9.4561 9.4960
-1.6929 16.2092 -6.9411 2.1562 -0.3749 1.2299 0.0000 0.0000 0.0000 -23.3240 -19.8716 -19.1208 2.7339 10.2514 29.7946 -0.0014 4.3080 -6.0950 3.8785 11.9970 35.7213 0.0000 0.0000 0.0000 19.3209 0.2409 4.7197 -5.0231 -13.4097 40.9222 -0.0755 -2.3956 4.9127 -0.0108 -0.6717 1.8459 -5.3911 1.6305 11.1778 0.6762 1.4104 -4.5834 3.4839 1.1022 -11.4593 -4.5515 -6.1090 -9.6569 3.3593 -8.3087 18.6591 1.0471 -3.9890 7.6677 -0.0000 0.0000 0.0000 -89.6636 10.0707 26.5668 9.5638 -16.0544 -1.3518 -0.0000 -0.0000 3.5673 3.5185 19.7284 1.1890 -7.1250 0.0000 -0.0000 -23.8624 48.2026 -1.9914 -0.0000 0.0000 0.0000 86.3187 -9.6043 26.9008 -12.9202 21.1703 -2.4244 0.0000 0.0000 7.3767 -9.8011 19.9521 -3.3736 7.1250 -0.0000 -0.0000 11.9437 -10.0964 9.8880
-1.6346 16.2489 -6.6834 2.8657 -0.3768 1.1788 0.0000 0.0000 0.0000 -24.8239 -19.0307 -17.2662 2.5096 9.8553 28.5095 0.0152 4.0159 -6.3236 3.7687 11.8461 35.1898 0.0000 0.0000 0.0000 17.9522 0.7879 0.5904 -6.5352 -14.9277 47.0936 -0.3147 -5.2834 10.0885 -0.1719 -2.6712 7.3646 -5.9551 1.5277 11.3546 0.5380 1.1565 -4.5462 3.7044 1.0170 -11.5122 -4.5371 -5.9437 -9.8944 3.1729 -8.0408 18.7962 1.0031 -3.8728 7.7353 -0.0000 0.0000 0.0000 -89.4161 9.8056 28.3834 10.1202 -16.9274 -1.5098 -0.0000 -0.0000 2.0118 3.6586 20.5694 1.2870 -7.1250 0.0000 -0.0000 -24.1420 48.9896 -2.5090 -0.0000 0.0000 0.0000 86.1278 -9.9024 26.9705 -12.7987 20.9916 -2.3807 0.0000 0.0000 7.5839 -10.6465 21.9530 -4.0200 7.1250 -0.0000 -0.0000 11.4307 -8.0373 9.9250
-1.5809 16.2767 -6.4267 3.6353 -0.6205 1.0894 0.0000 0.0000 0.0000 -26.3198 -18.0794 -15.3840 2.2831 9.4325 27.1578 0.0415 3.8721 -7.0370 3.5398 11.5214 34.0593 0.0000 0.0000 0.0000 16.5087 1.5854 -3.1623 -8.1378 -16.2197 53.0576 -0.5853 -11.4723 14.7874 -1.1525 -6.8163 19.1723 -6.5686 1.5347 11.6454 0.3175 1.0162 -4.6973 3.8357 0.9997 -11.8597 -4.3700 -5.8352 -9.6210 3.0188 -7.8972 18.6909 0.9508 -3.8122 7.6319 -0.0000 0.0000 0.0000 -88.9604 9.8035 30.2830 10.5649 -17.6183 -1.6418 -0.0000 -0.0000 0.7515 3.7996 21.1699 1.3739 -7.1250 0.0000 -0.0000 -24.3141 49.5568 -2.8848 -0.0000 0.0000 0.0000 86.1285 -10.6913 27.2744 -12.6995 20.8454 -2.3453 0.0000 0.0000 7.3784 -8.7578 19.8472 -2.9940 7.1250 -0.0000 -0.0000 12.6095 -10.2906 10.4163
-1.5374 16.2944 -6.1650 4.3471 -1.4016 0.9085 0.0000 0.0000 0.0000 -27.6636 -16.9024 -13.5351 2.0795 9.0298 25.8887 0.0628 3.8787 -7.6811 3.5794 11.5786 34.2572 0.0000 0.0000 0.0000 15.2118 2.8586 -6.7737 -9.7618 -17.2737 58.6891 -0.4321 -19.1881 16.9726 -2.8422 -10.4351 30.3974 -7.3151 1.7335 11.5331 0.1462 1.1587 -4.4879 4.0405 1.1009 -11.5951 -4.3624 -5.7236 -9.7778 3.0593 -7.7423 18.6036 0.9749 -3.7324 7.6263 -0.0000 -0.0000 0.0000 -88.6897 9.1047 31.1951 10.6891 -17.8101 -1.6796 -0.0000 -0.0000 0.2989 4.1666 20.4798 1.4601 -7.1250 0.0000 -0.0000 -23.6369 48.9815 -2.4458 -0.0000 -0.0000 0.0000 86.1308 -10.6182 27.2489 -12.4820 20.5235 -2.2684 0.0000 0.0000 7.8574 -8.7465 19.9606 -3.0065 7.1250 -0.0000 -0.0000 12.6162 -10.1801 10.4511
-1.4964 16.3129 -5.9099 4.7968 -1.5690 0.7364 0.0000 0.0000 0.0000 -28.7228 -15.9427 -11.7731 1.9164 8.6897 24.8294 0.0792 3.5515 -7.8032 3.8083 11.9009 35.3822 0.0000 0.0000 0.0000 14.2941 3.4664 -10.4354 -11.2975 -18.0776 63.7439 -0.2285 -21.5607 16.8873 -3.0710 -10.8091 31.6388 -7.5976 1.6103 11.6037 0.0370 0.9328 -4.3880 4.1296 1.0031 -11.5009 -4.3615 -5.4773 -9.6698 2.9863 -7.3889 18.5230 0.9912 -3.5727 7.5633 -0.0000 0.0000 0.0000 -88.4298 8.5912 31.6783 10.9014 -18.1370 -1.7451 -0.0000 0.0000 -0.0366 4.2711 20.3878 1.4904 -7.1250 0.0000 -0.0000 -23.4974 48.9124 -2.3880 -0.0000 0.0000 0.0000 85.9957 -10.7752 27.6594 -12.3726 20.3611 -2.2302 0.0000 0.0000 8.1409 -8.6091 19.8766 -2.9467 7.1250 -0.0000 -0.0000 12.7042 -10.2742 10.5030
-1.4644 16.3183 -5.6695 4.9416 -2.0471 0.5578 0.0000 0.0000 0.0000 -29.3393 -15.1960 -10.3489 1.8270 8.4961 24.2315 0.1158 3.4659 -8.6564 3.7708 11.8490 35.1997 0.0000 0.0000 0.0000 13.9025 4.3371 -13.7838 -12.6174 -18.6396 67.9329 0.3592 -21.5449 12.2503 -3.7269 -11.7878 34.9855 -7.7670 1.6291 11.8732 0.0421 0.9070 -4.3627 4.2345 1.0076 -11.6369 -4.2063 -5.3303 -9.8968 2.7994 -7.1744 18.7181 0.9189 -3.4728 7.6463 0.0000 0.0000 0.0000 -88.2468 8.1603 31.7542 11.1247 -18.4792 -1.8153 -0.0000 0.0000 -0.0604 4.4526 20.3772 1.5531 -7.1250 0.0000 -0.0000 -23.3273 48.9290 -2.3789 0.0000 0.0000 0.0000 85.9196 -10.9320 28.0103 -12.2677 20.2050 -2.1939 0.0000 0.0000 8.2953 -8.9661 20.1636 -3.1130 7.1250 -0.0000 -0.0000 12.4759 -9.9617 10.3854
-1.4356 16.3178 -5.4274 5.1004 -2.1717 0.4297 0.0000 0.0000 0.0000 -29.9679 -14.5467 -8.9895 1.7595 8.3460 23.7701 0.1533 3.2072 -9.2962 3.8476 11.9548 35.5723 0.0000 0.0000 0.0000 13.5731 4.6417 -16.9662 -13.7683 -19.0423 71.4956 -0.0115 -14.9968 10.6586 -2.0499 -8.9693 25.6993 -7.9391 1.4558 11.9457 0.0541 0.6424 -4.3016 4.4039 0.8914 -11.5790 -4.0541 -5.0368 -9.7331 2.7635 -6.7896 18.5514 0.9277 -3.2854 7.5405 0.0000 -0.0000 0.0000 -88.0160 7.6466 32.0621 11.3053 -18.7547 -1.8729 -0.0000 0.0000 -0.5389 4.7394 20.3028 1.6478 -7.1250 0.0000 -0.0000 -23.0307 48.9021 -2.3295 0.0000 -0.0000 0.0000 85.8554 -11.0631 27.9379 -12.0906 19.9403 -2.1331 0.0000 0.0000 8.8469 -8.9282 20.8299 -3.1974 7.1250 -0.0000 -0.0000 12.5000 -9.3099 10.5748
-1.4049 16.3237 -5.1929 5.2955 -2.4162 0.2995 0.0000 0.0000 0.0000 -30.6179 -13.9148 -7.6107 1.6748 8.1531 23.1800 0.1914 3.1277 -10.0274 3.7385 11.8041 35.0424 0.0000 0.0000 0.0000 13.2134 5.4235 -20.2505 -14.6885 -19.3097 74.2966 -0.0472 -10.2017 7.9005 -1.5799 -7.9300 22.5018 -8.0946 1.3556 12.1967 0.0379 0.4609 -4.1901 4.5144 0.8126 -11.5803 -3.7805 -4.8517 -10.6922 2.5279 -6.5152 18.9591 0.8060 -3.1432 7.8184 0.0000 0.0000 0.0000 -87.8643 6.7872 31.9966 11.4010 -18.9003 -1.9038 -0.0000 0.0000 -0.7252 4.5407 20.8365 1.6181 -7.1250 0.0000 -0.0000 -23.4709 49.3627 -2.6570 0.0000 0.0000 0.0000 85.6953 -11.1360 28.5641 -12.2942 20.2443 -2.2030 0.0000 0.0000 9.0534 -8.5928 19.7794 -2.9273 7.1250 -0.0000 -0.0000 12.7151 -10.3710 10.4868
-1.3791 16.3235 -4.9599 5.2466 -2.4674 0.1142 0.0000 0.0000 0.0000 -30.9855 -13.4334 -6.2491 1.6147 8.0126 22.7522 0.2312 2.9869 -10.6897 3.6466 11.6746 34.5905 0.0000 0.0000 0.0000 13.2229 6.1457 -23.1942 -15.2106 -19.4409 75.8703 -0.0126 -6.4648 4.8478 -0.9917 -6.3379 17.7681 -8.1363 1.2277 12.4273 0.1993 0.2806 -4.1198 4.7575 0.7372 -11.6145 -3.8111 -4.7839 -10.2170 2.3455 -6.3885 18.7113 0.7788 -3.1092 7.6421 -0.0000 0.0000 0.0000 -87.9448 6.1601 31.7018 11.5564 -19.1360 -1.9544 -0.0000 0.0000 -0.5023 4.7191 21.0052 1.6949 -7.1250 0.0000 -0.0000 -23.3914 49.5437 -2.7558 -0.0000 0.0000 0.0000 85.4612 -11.2597 28.8368 -12.3910 20.3884 -2.2366 0.0000 0.0000 8.5917 -8.8363 20.0002 -3.0435 7.1250 -0.0000 -0.0000 12.5588 -10.1335 10.4133
-1.3545 16.3150 -4.7349 5.2467 -2.3922 0.1450 0.0000 0.0000 0.0000 -31.3712 -13.3358 -5.2614 1.6008 7.9797 22.6526 0.2737 2.9642 -11.4298 3.5868 11.5892 34.2939 0.0000 0.0000 0.0000 13.1690 6.7469 -25.9864 -15.3823 -19.4809 76.3856 0.0279 -3.8513 1.2206 -0.3712 -3.9136 10.8336 -8.1029 1.0443 12.5975 0.2518 0.0281 -4.1507 4.8545 0.6228 -11.7135 -3.6488 -4.6719 -10.4242 2.2065 -6.2374 18.9884 0.7147 -3.0355 7.7554 -0.0000 -0.0000 0.0000 -87.8053 5.4512 32.1463 11.5524 -19.1300 -1.9531 -0.0000 0.0000 -1.0108 5.6222 20.5880 1.9826 -7.1250 0.0000 -0.0000 -22.3608 49.2937 -2.4796 -0.0000 -0.0000 0.0000 85.5181 -11.4946 28.3034 -12.5310 20.5962 -2.2857 0.0000 0.0000 8.4858 -8.9618 19.8493 -3.0651 7.1250 -0.0000 -0.0000 12.4794 -10.2712 10.3083
-1.3207 16.2960 -4.4828 5.3031 -2.7514 0.0396 0.0000 0.0000 0.0000 -31.9367 -13.1118 -4.1579 1.6262 8.0396 22.8346 0.3541 3.0329 -12.7708 3.4822 11.4375 33.7698 0.0000 0.0000 0.0000 13.1036 7.7008 -28.1726 -15.2500 -19.4502 75.9886 0.0273 -2.9636 -1.5707 -0.6209 -5.0427 14.0303 -8.0047 0.9452 12.3450 0.2903 -0.0540 -4.0166 4.8578 0.5609 -11.3946 -3.7793 -4.5438 -10.0856 2.2663 -6.0617 18.9927 0.7815 -2.9596 7.6967 0.0000 -0.0000 0.0000 -87.8350 4.8621 31.8638 11.7462 -19.4229 -2.0171 -0.0000 0.0000 -0.9090 5.8852 20.2953 2.0477 -7.1250 0.0000 -0.0000 -21.9813 49.0614 -2.3030 0.0000 -0.0000 0.0000 85.4285 -11.4723 28.1212 -12.5137 20.5705 -2.2796 0.0000 0.0000 8.4860 -9.2714 20.2627 -3.2358 7.1250 -0.0000 -0.0000 12.2817 -9.8374 10.2474
-1.3103 16.2805 -4.2654 5.0976 -2.4460 0.2029 0.0000 0.0000 0.0000 -32.0254 -13.1962 -3.4910 1.6593 8.1171 23.0704 0.4058 2.8884 -13.4421 3.2298 11.0581 32.4762 0.0000 0.0000 0.0000 13.4630 8.2752 -30.4764 -14.8596 -19.3543 74.8135 -0.0158 -2.4077 -4.3651 -0.7374 -5.4860 15.3001 -7.9236 0.7169 12.6658 0.4570 -0.3660 -4.1885 5.0702 0.4348 -11.7349 -3.6439 -4.4193 -10.2853 2.1222 -5.8843 19.1823 0.7240 -2.8764 7.7805 0.0000 -0.0000 0.0000 -87.8569 4.5129 32.4694 11.9790 -19.7731 -2.0952 -0.0000 0.0000 -0.6746 6.8101 20.3767 2.3811 -7.1250 0.0000 -0.0000 -21.1702 49.2725 -2.3247 0.0000 -0.0000 0.0000 85.3854 -11.6395 27.9891 -12.7097 20.8604 -2.3489 0.0000 0.0000 7.9543 -8.0070 18.9799 -2.6194 7.1250 -0.0000 -0.0000 13.0980 -11.2024 10.5915
-1.2977 16.2557 -4.0290 5.0972 -2.3654 0.1790 0.0000 0.0000 0.0000 -32.4470 -13.0307 -2.3020 1.6483 8.0914 22.9921 0.4749 2.8939 -14.3976 3.0195 10.7265 31.3630 0.0000 0.0000 0.0000 13.4535 9.1561 -32.1783 -14.2427 -19.1860 72.9444 -0.1094 -1.8103 -7.1909 -0.9462 -6.1950 17.3511 -8.0132 0.5369 12.8522 0.5662 -0.6305 -4.2261 5.3054 0.3281 -11.8496 -3.6518 -4.2862 -10.3755 2.0553 -5.6897 19.4284 0.7191 -2.7893 7.8703 -0.0000 0.0000 0.0000 -87.9073 3.9994 31.9380 12.1325 -20.0030 -2.1474 -0.0000 0.0000 -0.7162 6.2648 20.1592 2.1667 -7.1250 0.0000 -0.0000 -21.5703 48.9902 -2.2168 -0.0000 0.0000 0.0000 85.2490 -11.8123 28.0207 -12.7120 20.8637 -2.3497 0.0000 0.0000 7.9173 -7.6459 18.8111 -2.4786 7.1250 -0.0000 -0.0000 13.3327 -11.3952 10.7379
-1.2876 16.2345 -3.7912 5.2447 -2.3153 0.1608 0.0000 0.0000 0.0000 -32.9758 -12.7581 -1.1072 1.6101 8.0017 22.7194 0.5415 2.8219 -15.2141 2.8973 10.5269 30.7003 0.0000 0.0000 0.0000 13.3159 10.0773 -33.4663 -13.3753 -18.9135 70.2871 -0.1978 -2.1186 -9.4582 -1.6582 -8.1145 23.0625 -8.3114 0.4036 12.9927 0.6621 -0.8625 -4.1689 5.6366 0.2429 -11.8320 -3.5954 -4.2007 -10.4828 1.9440 -5.5531 19.3446 0.6856 -2.7301 7.8526 -0.0000 -0.0000 0.0000 -87.9123 3.1909 32.2430 12.4068 -20.4119 -2.2421 -0.0000 0.0000 -1.5161 5.9391 20.7672 2.1124 -7.1250 0.0000 -0.0000 -22.1558 49.5063 -2.5753 -0.0000 -0.0000 0.0000 85.0418 -11.7762 28.3748 -12.6782 20.8140 -2.3377 0.0000 0.0000 7.5316 -8.0126 19.0265 -2.6275 7.1250 -0.0000 -0.0000 13.0939 -11.1563 10.6007
-1.2754 16.2139 -3.5372 5.0018 -2.5297 0.1114 0.0000 0.0000 0.0000 -33.1410 -12.5135 0.2505 1.5532 7.8659 22.3075 0.6098 3.0381 -16.1665 2.8025 10.3682 30.1775 0.0000 0.0000 0.0000 13.6353 11.2915 -34.1385 -12.2268 -18.4849 66.7058 -0.3014 -1.9235 -11.2560 -1.3423 -7.3354 20.7130 -8.0712 0.3826 12.9129 0.7377 -0.8279 -4.0763 5.5732 0.2348 -11.6814 -3.5609 -4.1537 -10.2193 2.0312 -5.5128 19.0099 0.7212 -2.7039 7.6947 0.0000 -0.0000 0.0000 -87.6570 2.5085 33.5934 12.7149 -20.8681 -2.3508 -0.0000 0.0000 -2.7123 6.3654 20.9096 2.2800 -7.1250 0.0000 -0.0000 -21.8315 49.7020 -2.6432 0.0000 -0.0000 0.0000 85.0622 -11.9239 28.5500 -12.9306 21.1854 -2.4281 0.0000 0.0000 6.9099 -8.2284 21.2782 -3.0040 7.1250 -0.0000 -0.0000 12.9409 -8.9321 11.0685
-1.2779 16.2019 -3.2927 5.0845 -2.4325 0.2200 0.0000 0.0000 0.0000 -33.5347 -12.3655 1.5791 1.4665 7.6531 21.6654 0.6583 3.1466 -16.7885 2.6654 10.1326 29.4073 0.0000 0.0000 0.0000 13.4879 12.4000 -34.7322 -10.9375 -17.9044 62.5784 -0.2903 -2.6916 -11.5312 -1.2735 -7.1522 20.1671 -8.3365 0.2574 12.8638 0.8275 -1.0277 -4.0609 5.8675 0.1594 -11.6011 -3.4571 -4.0346 -10.5312 1.9880 -5.3477 18.9989 0.7002 -2.6188 7.7377 -0.0000 0.0000 0.0000 -87.6588 2.0537 33.8469 12.9746 -21.2500 -2.4441 -0.0000 0.0000 -2.5803 6.5308 19.5861 2.1977 -7.1250 0.0000 -0.0000 -21.0668 48.4945 -1.8938 -0.0000 0.0000 0.0000 84.9323 -11.8596 28.6543 -12.8224 21.0264 -2.3892 0.0000 0.0000 6.9400 -7.0701 18.4779 -2.2511 7.1250 -0.0000 -0.0000 13.7097 -11.7628 10.9530
-1.2823 16.1889 -3.0407 5.0328 -2.6320 0.3755 0.0000 0.0000 0.0000 -33.7111 -11.8085 2.9582 1.3411 7.3324 20.7038 0.7066 3.2517 -17.3859 2.5156 9.8661 28.5444 0.0000 0.0000 0.0000 13.3866 13.8887 -34.8914 -9.5222 -17.1323 57.8792 -0.2009 -3.7188 -10.6737 -1.5429 -7.8409 22.2319 -8.5972 0.2731 12.6803 0.9538 -1.0227 -4.0986 6.1518 0.1846 -11.5340 -3.5148 -4.3403 -10.0102 1.5584 -5.7023 19.3912 0.5412 -2.8367 7.7736 -0.0000 -0.0000 0.0000 -87.7205 1.7126 34.0752 13.0742 -21.3958 -2.4803 -0.0000 0.0000 -1.8859 6.8381 18.3650 2.1637 -7.1250 0.0000 -0.0000 -20.2620 47.3932 -1.2454 -0.0000 -0.0000 0.0000 84.8970 -12.3073 28.8819 -13.0601 21.3752 -2.4752 0.0000 0.0000 6.7430 -8.1615 19.4519 -2.7344 7.1250 -0.0000 -0.0000 12.9932 -10.7276 10.6318
-1.2949 16.1764 -2.8041 5.2254 -2.3653 0.6774 0.0000 0.0000 0.0000 -34.0337 -11.4582 4.4042 1.1716 6.8705 19.3323 0.7219 3.1825 -17.5126 2.4515 9.7492 28.1684 0.0000 0.0000 0.0000 12.8158 15.1714 -34.8858 -8.0710 -16.1712 52.8181 -0.1652 -3.8500 -10.0807 -1.8194 -8.4794 24.1800 -8.9646 0.2021 12.7156 0.9293 -1.1898 -4.1294 6.3722 0.1336 -11.5615 -3.3880 -4.1185 -10.9184 2.1792 -5.5008 18.9211 0.7282 -2.6652 7.7894 0.0000 -0.0000 0.0000 -87.5393 1.1114 35.1103 13.3198 -21.7540 -2.5706 -0.0000 0.0000 -2.4893 7.6330 17.4318 2.2990 -7.1250 0.0000 -0.0000 -19.1699 46.6167 -0.7934 0.0000 -0.0000 0.0000 85.1106 -12.2727 28.5316 -12.9831 21.2624 -2.4471 0.0000 0.0000 6.9855 -8.1046 19.6879 -2.7467 7.1250 -0.0000 -0.0000 13.0271 -10.5009 10.7230
-1.2962 16.1668 -2.5461 5.4547 -2.2016 0.8528 0.0000 0.0000 0.0000 -34.4665 -10.7140 6.4313 0.9444 6.1893 17.3347 0.6974 3.5262 -17.4429 2.1011 9.0736 26.0258 0.0000 0.0000 0.0000 12.1054 16.5827 -34.4566 -6.6716 -15.0490 47.6212 -0.1311 -4.4812 -9.9445 -1.3559 -7.3711 20.8194 -9.1589 0.1191 12.7223 0.8747 -1.3437 -4.1627 6.4564 0.0743 -11.5763 -3.3531 -4.0664 -10.9225 2.3059 -5.4522 18.6273 0.7712 -2.6287 7.6942 -0.0000 0.0000 0.0000 -87.3827 0.6738 36.0945 14.0456 -22.7999 -2.8458 -0.0000 0.0000 -4.0271 7.2943 18.7802 2.3598 -7.1250 0.0000 -0.0000 -20.0218 47.8455 -1.4609 -0.0000 0.0000 0.0000 85.2329 -12.3068 28.4620 -12.7986 20.9913 -2.3806 0.0000 0.0000 7.0664 -8.2406 19.7079 -2.7960 7.1250 -0.0000 -0.0000 12.9402 -10.4703 10.6558
-1.3049 16.1648 -2.2821 5.6952 -1.9847 0.9274 0.0000 0.0000 0.0000 -34.7830 -9.8358 8.6777 0.7065 5.3721 14.9730 0.6846 3.4541 -17.2597 2.0499 8.9693 25.6995 0.0000 0.0000 0.0000 11.2997 18.0791 -33.4661 -5.3356 -13.7521 42.2532 -0.1070 -5.3336 -10.3046 -1.1310 -6.7546 18.9904 -9.4393 0.1048 12.6928 0.7901 -1.4225 -4.2428 6.5394 0.0598 -11.6372 -3.4048 -4.2170 -10.4442 2.4049 -5.6815 18.4699 0.8001 -2.7386 7.5684 -0.0000 -0.0000 0.0000 -87.3827 0.4414 36.5951 14.2418 -23.0794 -2.9222 -0.0000 0.0000 -4.4433 8.0964 18.2035 2.5446 -7.1250 0.0000 -0.0000 -19.0556 47.4092 -1.1735 -0.0000 -0.0000 0.0000 85.4909 -12.7747 28.0393 -12.8206 21.0238 -2.3885 0.0000 0.0000 7.4751 -7.5451 19.0262 -2.4725 7.1250 -0.0000 -0.0000 13.3937 -11.1923 10.8474
-1.3079 16.1572 -2.0102 5.8261 -1.9533 1.1984 0.0000 0.0000 0.0000 -35.1049 -9.3858 11.0318 0.4839 4.4609 12.3770 0.6431 3.9836 -17.1179 1.9630 8.7886 25.1362 0.0000 0.0000 0.0000 10.3312 20.1393 -32.3744 -4.1330 -12.3353 36.9288 -0.0721 -6.4153 -10.8104 -1.0505 -6.5174 18.2933 -9.3656 0.0744 12.2804 0.6827 -1.4159 -4.2107 6.3619 0.0348 -11.3565 -3.2889 -4.2814 -11.2098 2.4697 -5.7924 18.8228 0.7714 -2.7666 7.8237 0.0000 0.0000 0.0000 -87.4386 -0.1476 36.3563 14.3317 -23.2069 -2.9575 -0.0000 0.0000 -4.1797 8.2223 16.8712 2.4014 -7.1250 0.0000 -0.0000 -18.4272 46.1587 -0.5453 0.0000 0.0000 0.0000 85.7772 -12.9120 27.6477 -12.8393 21.0513 -2.3953 0.0000 0.0000 7.6178 -6.9029 18.7380 -2.2272 7.1250 -0.0000 -0.0000 13.8112 -11.5211 11.1103
-1.3262 16.1420 -1.7508 6.0152 -1.8117 1.4474 0.0000 0.0000 0.0000 -35.1653 -8.1762 13.6053 0.2561 3.2561 8.9924 0.5826 4.0633 -16.4716 1.7541 8.3339 23.7329 0.0000 0.0000 0.0000 8.8834 22.9427 -31.1528 -3.1756 -10.9741 32.1925 -0.0477 -7.6197 -11.8382 -1.2366 -7.0518 19.8689 -9.6737 0.0788 12.0725 0.6646 -1.4461 -4.3002 6.5185 0.0434 -11.3284 -3.4493 -4.2032 -10.7147 2.8344 -5.7294 18.4346 0.9370 -2.7216 7.6209 -0.0000 0.0000 0.0000 -87.6031 -0.3729 36.5883 14.4567 -23.3838 -3.0070 -0.0000 0.0000 -4.7567 9.2025 16.2008 2.5881 -7.1250 0.0000 -0.0000 -17.3058 45.6378 -0.2809 -0.0000 0.0000 0.0000 86.0747 -13.2036 27.0975 -12.7287 20.8884 -2.3557 0.0000 0.0000 7.7816 -6.5731 18.2811 -2.0700 7.1250 -0.0000 -0.0000 14.0347 -11.9894 11.1615
-1.3462 16.1351 -1.4833 6.3490 -1.5708 1.7243 0.0000 0.0000 0.0000 -34.9796 -6.0550 17.9629 0.0152 0.7973 2.1912 0.3537 4.5048 -13.8051 1.5139 7.7702 22.0183 0.0000 0.0000 0.0000 7.0677 25.9333 -30.0787 -2.4584 -9.7618 28.2089 0.0678 -9.4654 -12.2354 -1.1359 -6.7685 19.0314 -9.9812 0.0414 11.8649 0.5619 -1.5361 -4.3204 6.5911 0.0117 -11.2114 -3.4889 -4.3620 -10.8828 2.7982 -5.9249 18.3401 0.9087 -2.8192 7.6268 0.0000 0.0000 0.0000 -87.6042 -0.5332 37.7297 14.7034 -23.7313 -3.1056 -0.0000 0.0000 -5.6302 11.9170 13.6946 2.8603 -7.1250 0.0000 -0.0000 -14.0979 43.5078 0.5304 0.0000 0.0000 0.0000 86.3111 -13.2900 26.9415 -12.6091 20.7118 -2.3132 0.0000 0.0000 7.6420 -6.1700 17.9046 -1.9035 7.1250 -0.0000 -0.0000 14.3058 -12.3826 11.2706
-1.3717 16.1313 -1.2068 6.3588 -0.9122 1.7501 0.0000 0.0000 0.0000 -34.6210 -5.0982 20.1235 0.0000 0.0000 0.0000 0.3256 4.0144 -13.0161 1.3397 7.3287 20.6928 0.0000 0.0000 0.0000 5.6326 29.0279 -28.5515 -1.9503 -8.7617 25.0527 0.0900 -10.9218 -14.1213 -1.1215 -6.7271 18.9094 -10.0545 -0.0887 11.7886 0.6130 -1.7071 -4.2953 6.7213 -0.0697 -11.1020 -3.5763 -4.3890 -10.7364 2.8426 -5.9610 18.3958 0.9366 -2.8396 7.6244 -0.0000 -0.0000 0.0000 -87.8850 -0.8656 36.9735 15.0098 -24.1598 -3.2300 -0.0000 0.0000 -5.1665 9.5392 15.6595 2.5971 -7.1250 0.0000 -0.0000 -16.8187 45.1568 -0.0670 -0.0000 -0.0000 0.0000 86.4939 -13.5993 26.5391 -12.4778 20.5174 -2.2670 0.0000 0.0000 7.8601 -6.2905 18.1519 -1.9669 7.1250 -0.0000 -0.0000 14.2204 -12.1341 11.2748
-1.3901 16.1100 -0.9171 6.4917 -0.2926 1.8518 0.0000 0.0000 0.0000 -34.5609 -4.5255 21.1149 0.0000 -0.0000 -0.0000 0.3726 3.1971 -13.1543 1.1518 6.8144 19.1666 0.0000 0.0000 0.0000 4.2644 31.5662 -27.5611 -1.6390 -8.0697 22.9260 0.0523 -11.8334 -16.1016 -0.9780 -6.2953 17.6436 -10.0351 -0.2408 11.6874 0.5628 -1.9048 -4.3501 6.6912 -0.1679 -11.0669 -3.6604 -4.4676 -10.8890 2.8689 -6.0607 18.5909 0.9437 -2.8874 7.7231 -0.0000 -0.0000 0.0000 -88.1758 -1.2045 35.9669 15.2384 -24.4771 -3.3241 -0.0000 0.0000 -4.8560 7.5440 18.0581 2.3508 -7.1250 0.0000 -0.0000 -19.4980 47.1979 -1.0977 -0.0000 -0.0000 0.0000 86.6557 -13.9628 26.6052 -12.4269 20.4418 -2.2492 0.0000 0.0000 7.8650 -7.6918 19.1193 -2.5329 7.1250 -0.0000 -0.0000 13.2982 -11.0902 10.7942
-1.4196 16.0865 -0.6351 6.4423 0.4630 1.9947 0.0000 0.0000 0.0000 -34.2141 -4.1662 21.9955 0.0000 -0.0000 -0.0000 0.4017 2.4487 -13.1212 0.8598 5.9132 16.5327 0.0000 0.0000 0.0000 3.6916 33.0651 -26.7115 -1.4395 -7.5854 21.4616 -0.0412 -12.2968 -18.0209 -0.9559 -6.2259 17.4413 -9.9231 -0.3977 11.7084 0.5745 -2.1040 -4.4457 6.6831 -0.2619 -11.1512 -3.7679 -4.5025 -10.7790 3.0136 -6.1222 18.6124 1.0045 -2.9118 7.7209 0.0000 -0.0000 0.0000 -88.3555 -1.2704 36.5985 14.7312 -23.7704 -3.1168 -0.0000 0.0000 -4.4001 12.6547 8.4855 1.8976 -7.1250 0.0000 -0.0000 -12.2150 38.4016 2.0209 0.0000 -0.0000 0.0000 86.9216 -14.2991 26.1608 -12.1820 20.0771 -2.1644 0.0000 0.0000 8.7427 -7.0681 18.2313 -2.2214 7.1250 -0.0000 -0.0000 13.7169 -12.0037 10.8886
-1.4489 16.0543 -0.3484 6.4938 0.8387 2.2216 0.0000 0.0000 0.0000 -33.8791 -3.5673 22.5908 0.0000 -0.0000 -0.0000 0.4054 1.4942 -12.6633 1.1524 6.8160 19.1713 0.0000 0.0000 0.0000 3.6040 33.3606 -26.2927 -1.3274 -7.2962 20.5959 -0.1896 -11.9143 -19.2963 -0.9749 -6.2858 17.6159 -9.9609 -0.4123 11.3957 0.5925 -2.0919 -4.4499 6.7094 -0.2639 -10.9696 -3.9002 -4.7106 -10.5116 3.0990 -6.3979 18.2586 1.0344 -3.0498 7.5744 0.0000 -0.0000 0.0000 -88.6651 -1.4974 36.6398 14.2806 -23.1344 -2.9375 -0.0000 0.0000 -3.5792 10.4546 14.2617 2.6027 -7.1250 0.0000 -0.0000 -15.5574 43.9053 0.4313 0.0000 -0.0000 0.0000 87.1744 -14.3299 25.3817 -11.9029 19.6588 -2.0695 0.0000 0.0000 9.3975 -7.6124 19.4173 -2.5441 7.1250 -0.0000 -0.0000 13.3445 -10.8047 10.9143
-1.4825 16.0202 -0.0552 6.6837 1.2712 2.3609 0.0000 0.0000 0.0000 -33.6495 -2.9602 23.3566 0.0000 0.0000 0.0000 0.3595 0.9028 -11.6898 1.1179 6.7167 18.8788 0.0000 0.0000 0.0000 4.0596 32.4185 -25.9086 -1.3155 -7.2648 20.5022 -0.3045 -10.6155 -19.0705 -1.4080 -7.5054 21.2217 -10.1671 -0.4928 11.4411 0.5803 -2.2526 -4.6541 6.8511 -0.3045 -11.1969 -4.0973 -4.7681 -10.6835 3.1744 -6.4747 18.9032 1.0740 -3.0870 7.8302 -0.0000 0.0000 0.0000 -88.8959 -1.2943 36.4277 14.1578 -22.9599 -2.8894 -0.0000 0.0000 -3.5501 10.1130 15.1349 2.6663 -7.1250 0.0000 -0.0000 -16.1341 44.7161 0.1162 -0.0000 0.0000 0.0000 87.2252 -14.7684 25.3289 -11.7555 19.4370 -2.0202 0.0000 0.0000 9.8863 -7.4803 19.5767 -2.5191 7.1250 -0.0000 -0.0000 13.4265 -10.6592 11.0264
-1.5210 15.9795 0.2451 6.7302 1.6159 2.3204 0.0000 0.0000 0.0000 -33.2274 -2.1801 24.2667 0.0000 -0.0000 -0.0000 0.3545 0.0936 -11.2821 0.8784 5.9749 16.7115 0.0000 0.0000 0.0000 5.0860 31.2180 -25.4349 -1.3815 -7.4373 21.0177 -0.3046 -9.7031 -18.0637 -2.2333 -9.3359 26.8519 -10.1366 -0.5074 11.4284 0.5466 -2.2700 -4.6685 6.7995 -0.3156 -11.2041 -4.1491 -4.8438 -10.3942 3.2538 -6.5779 18.4247 1.1083 -3.1391 7.6292 -0.0000 -0.0000 0.0000 -89.1592 -1.0763 35.7311 14.0702 -22.8349 -2.8553 -0.0000 0.0000 -2.3896 9.6051 15.4232 2.5769 -7.1250 0.0000 -0.0000 -16.6808 44.9362 0.0270 -0.0000 -0.0000 0.0000 87.4746 -14.7876 24.9561 -11.4226 18.9332 -1.9108 0.0000 0.0000 10.4326 -8.9290 21.2561 -3.2600 7.1250 -0.0000 -0.0000 12.5007 -8.8910 10.6828
-1.5590 15.9614 0.5705 6.7908 2.0378 2.1516 0.0000 0.0000 0.0000 -32.8246 -1.4176 25.2832 0.0000 0.0000 0.0000 0.3241 -0.7311 -10.5202 0.4951 4.5111 12.5192 0.0000 0.0000 0.0000 6.0221 30.4738 -24.6789 -1.4946 -7.7227 21.8749 -0.1935 -9.5926 -16.5501 -3.0132 -10.7163 31.3290 -10.0254 -0.5606 11.2730 0.4739 -2.3075 -4.5851 6.6536 -0.3602 -11.0122 -4.2316 -4.9237 -10.6370 3.3497 -6.6919 18.6527 1.1334 -3.1852 7.7587 0.0000 0.0000 0.0000 -89.2472 -0.9785 34.9553 14.3497 -23.2324 -2.9646 -0.0000 0.0000 -3.8445 7.2991 18.5086 2.3284 -7.1250 0.0000 -0.0000 -19.9040 47.5903 -1.3219 0.0000 0.0000 0.0000 87.7206 -14.8534 24.4335 -11.1540 18.5239 -1.8245 0.0000 0.0000 11.2819 -11.6674 24.3334 -4.8634 7.1250 -0.0000 -0.0000 10.8667 -5.5664 9.9461
-1.6100 15.9645 0.8934 6.6540 2.4448 2.0152 0.0000 0.0000 0.0000 -32.0698 -0.7051 26.2792 0.0000 0.0000 0.0000 0.2611 -1.3442 -9.2738 0.5145 4.5975 12.7640 0.0000 0.0000 0.0000 6.7898 30.4474 -24.2102 -1.6518 -8.0997 23.0175 -0.0267 -10.5236 -15.3905 -3.7361 -11.8007 35.0305 -9.8911 -0.6087 11.3819 0.5261 -2.3602 -4.6267 6.6515 -0.3847 -11.1152 -4.4297 -5.0060 -10.6139 3.3784 -6.7794 18.7481 1.1656 -3.2377 7.7982 0.0000 0.0000 0.0000 -89.4588 -0.5673 34.5557 13.8523 -22.5231 -2.7713 -0.0000 0.0000 -2.3695 8.3451 16.4866 2.3838 -7.1250 0.0000 -0.0000 -18.1758 45.8069 -0.3743 0.0000 0.0000 0.0000 87.7868 -15.0821 24.3083 -10.9886 18.2708 -1.7724 0.0000 0.0000 11.6411 -13.6146 27.9396 -6.4741 7.1250 -0.0000 -0.0000 9.8923 -1.7284 9.7370
-1.6644 15.9554 1.2121 6.3064 2.6164 1.9786 0.0000 0.0000 0.0000 -31.0398 0.1606 27.1635 0.0000 -0.0000 -0.0000 0.2021 -1.7433 -8.0629 0.4328 4.2219 11.7017 0.0000 0.0000 0.0000 7.8841 29.7250 -24.2804 -1.8657 -8.5805 24.4917 0.1476 -11.3404 -13.8001 -3.6106 -11.6233 34.4121 -9.6722 -0.6415 11.3804 0.6777 -2.3572 -4.6998 6.6973 -0.3848 -11.1964 -4.4518 -5.0139 -10.5993 3.2872 -6.7658 18.6866 1.1416 -3.2418 7.7723 -0.0000 0.0000 0.0000 -89.5844 0.0695 34.0943 13.5388 -22.0715 -2.6523 -0.0000 0.0000 -1.2359 8.2249 16.9407 2.4118 -7.1250 0.0000 -0.0000 -18.4507 46.2252 -0.5773 -0.0000 0.0000 0.0000 87.7214 -15.3656 24.5665 -10.9500 18.2116 -1.7603 0.0000 0.0000 11.5617 -13.2042 26.9700 -6.0739 7.1250 -0.0000 -0.0000 10.0712 -2.7508 9.7298
-1.7093 15.9465 1.5312 5.6790 2.6647 1.9757 0.0000 0.0000 0.0000 -29.8246 1.1294 27.9264 0.0000 -0.0000 -0.0000 0.1170 -1.4455 -6.1156 0.2038 2.9065 8.0184 0.0000 0.0000 0.0000 9.5411 27.7916 -24.5679 -2.0987 -9.0688 26.0106 0.2246 -11.0866 -11.8131 -3.3407 -11.2271 33.0497 -9.0597 -0.6865 11.3280 0.8926 -2.2973 -4.8249 6.5778 -0.3799 -11.3217 -4.4179 -4.9886 -10.5148 3.1276 -6.7098 18.7151 1.0917 -3.2288 7.7574 0.0000 0.0000 0.0000 -89.8733 0.7370 32.5397 13.8073 -22.4586 -2.7541 -0.0000 0.0000 -2.3263 6.4740 18.7445 2.0884 -7.1250 0.0000 -0.0000 -20.7513 47.7000 -1.4413 0.0000 0.0000 0.0000 87.6133 -15.5292 24.6997 -10.6664 17.7751 -1.6726 0.0000 0.0000 11.7614 -11.6588 25.3074 -5.0407 7.1250 -0.0000 -0.0000 10.9119 -4.6019 10.1916
-1.7534 15.9323 1.8529 5.1025 2.5618 1.6940 0.0000 0.0000 0.0000 -29.4498 0.5267 23.0569 0.3065 3.5593 9.8401 0.1474 -2.8420 -6.8256 0.3702 3.9080 10.8179 0.0000 0.0000 0.0000 11.1492 26.4572 -24.2812 -2.3276 -9.5175 27.4280 0.1919 -10.3339 -11.0770 -3.5941 -11.5997 34.3301 -8.5570 -0.6575 11.2979 1.0972 -2.1473 -4.7265 6.4857 -0.3454 -11.2190 -4.4561 -5.0154 -10.6902 3.0791 -6.7326 18.9809 1.0730 -3.2431 7.8775 0.0000 0.0000 0.0000 -90.0864 1.3581 31.7162 13.7518 -22.3788 -2.7329 -0.0000 0.0000 -2.2402 5.4098 20.9670 1.9408 -7.1250 0.0000 -0.0000 -22.7392 49.6118 -2.7111 0.0000 0.0000 0.0000 87.5789 -15.2942 24.1684 -10.3316 17.2566 -1.5719 0.0000 0.0000 12.6211 -10.2172 23.2481 -4.0693 7.1250 -0.0000 -0.0000 11.7251 -6.8024 10.4813
-1.8058 15.9348 2.1657 4.8680 2.5694 1.4104 0.0000 0.0000 0.0000 -28.3736 1.4973 20.1944 0.7309 5.4622 15.2317 0.0551 -4.2896 -4.8035 0.1904 2.8104 7.7512 0.0000 0.0000 0.0000 12.3534 25.3505 -24.0540 -2.6038 -10.0243 29.0554 0.1741 -9.6257 -10.1108 -3.6859 -11.7303 34.7845 -8.5963 -0.6687 11.6010 1.2633 -2.1790 -4.6955 6.7122 -0.3426 -11.3538 -4.5126 -4.9244 -11.1728 3.1056 -6.5954 19.3693 1.0905 -3.1710 8.0910 0.0000 0.0000 0.0000 -90.3431 2.1793 30.5364 13.3968 -21.8658 -2.5992 -0.0000 0.0000 -1.5452 5.8101 19.6698 1.9616 -7.1250 0.0000 -0.0000 -21.7614 48.4705 -1.9485 0.0000 0.0000 0.0000 87.3380 -14.9533 24.2020 -9.9443 16.6524 -1.4589 0.0000 0.0000 12.9876 -9.6228 22.4951 -3.7115 7.1250 -0.0000 -0.0000 12.0790 -7.6059 10.6189
-1.8571 15.9354 2.4776 5.2189 2.6877 1.1882 0.0000 0.0000 0.0000 -27.6754 2.5710 17.2586 1.2963 7.2135 20.3495 -0.0622 -5.3062 -1.1925 0.1679 2.6401 7.2783 0.0000 0.0000 0.0000 12.8636 24.3889 -23.6153 -2.8621 -10.4684 30.5072 0.0947 -8.3462 -9.7742 -3.7503 -11.8205 35.0998 -9.1126 -0.6450 11.6319 1.2124 -2.2391 -4.6631 6.9625 -0.3383 -11.3174 -4.5663 -5.1758 -11.2142 2.9043 -6.9023 19.6852 0.9952 -3.3379 8.2119 -0.0000 -0.0000 0.0000 -90.4868 3.1045 29.7014 13.0611 -21.3767 -2.4755 -0.0000 0.0000 -0.4936 5.4511 19.7314 1.8453 -7.1250 0.0000 -0.0000 -22.1159 48.4768 -1.9869 -0.0000 -0.0000 0.0000 87.2641 -14.6020 23.6394 -9.6049 16.1192 -1.3632 0.0000 0.0000 13.9491 -9.3994 22.5850 -3.6377 7.1250 -0.0000 -0.0000 12.2191 -7.5395 10.7643
-1.9146 15.9476 2.7858 4.7840 2.7586 0.8634 0.0000 0.0000 0.0000 -26.0375 3.3980 14.0284 2.0898 9.0508 25.9543 -0.1119 -5.9459 2.7343 0.2041 2.9089 8.0252 0.0000 0.0000 0.0000 14.3518 24.3814 -22.2887 -3.0144 -10.7182 31.3354 0.0726 -8.2561 -10.1764 -3.4335 -11.3657 33.5234 -8.8173 -0.5604 11.9650 1.2416 -2.1057 -4.6509 6.8148 -0.2825 -11.5328 -4.5444 -5.0527 -11.2868 3.1466 -6.7922 19.8971 1.0806 -3.2584 8.2994 0.0000 -0.0000 0.0000 -90.3045 3.9720 29.1370 12.9151 -21.1627 -2.4225 -0.0000 0.0000 -0.4224 4.8267 20.0642 1.6594 -7.1250 0.0000 -0.0000 -22.8381 48.6952 -2.1866 0.0000 -0.0000 0.0000 87.4970 -14.3278 22.8420 -9.4598 15.8902 -1.3232 0.0000 0.0000 14.5756 -9.1208 22.1919 -3.4702 7.1250 -0.0000 -0.0000 12.3875 -7.9534 10.8170
-1.9694 15.9810 3.0930 4.2229 3.0186 0.7609 0.0000 0.0000 0.0000 -24.5216 3.1224 10.3304 3.1835 10.9864 32.2341 -0.0553 -6.0364 6.8476 0.1735 2.6833 7.3981 0.0000 0.0000 0.0000 15.9147 23.8558 -20.7742 -3.0055 -10.7040 31.2878 0.0593 -8.3140 -10.5880 -3.2310 -11.0600 32.4825 -8.3533 -0.6218 11.9395 1.3350 -2.0961 -4.6224 6.6500 -0.3119 -11.4903 -4.6426 -5.0585 -11.1988 3.5733 -6.8689 19.7128 1.2331 -3.2626 8.2439 0.0000 -0.0000 0.0000 -90.1342 4.6596 28.5342 12.6968 -20.8414 -2.3443 -0.0000 0.0000 -0.0251 4.5437 20.2208 1.5734 -7.1250 0.0000 -0.0000 -23.1694 48.7987 -2.2834 0.0000 -0.0000 0.0000 87.5835 -13.7585 22.4682 -9.2932 15.6265 -1.2780 0.0000 0.0000 14.9057 -7.5603 20.5330 -2.6653 7.1250 -0.0000 -0.0000 13.3649 -9.7181 11.2354
-2.0222 16.0123 3.3882 3.2857 3.4012 0.7266 0.0000 0.0000 0.0000 -22.7065 2.3423 6.6351 4.4839 12.7779 38.5426 0.1563 -5.4424 11.3947 0.2788 3.3963 9.3840 0.0000 0.0000 0.0000 17.7961 23.1576 -19.1664 -2.9142 -10.5548 30.7928 -0.0082 -7.8414 -11.3521 -3.3059 -11.1744 32.8704 -7.5873 -0.7022 12.0314 1.5764 -2.0570 -4.6307 6.4780 -0.3349 -11.5665 -4.5948 -5.2332 -11.6273 3.4347 -7.0961 20.2446 1.1387 -3.3698 8.5044 -0.0000 0.0000 0.0000 -90.0868 5.1681 27.8828 12.5216 -20.5822 -2.2823 -0.0000 -0.0000 0.6043 4.3936 20.2849 1.5259 -7.1250 0.0000 -0.0000 -23.3365 48.8358 -2.3239 -0.0000 0.0000 0.0000 87.5518 -13.3647 22.3440 -9.3712 15.7501 -1.2990 0.0000 0.0000 15.0825 -7.2649 19.8312 -2.4764 7.1250 -0.0000 -0.0000 13.5599 -10.4273 11.2087
-2.0604 16.0462 3.6805 2.7726 3.6623 0.8396 0.0000 0.0000 0.0000 -21.6240 1.3503 3.1008 5.8768 14.3078 44.4851 0.6560 -3.2674 16.8320 0.5425 4.7192 13.1093 0.0000 0.0000 0.0000 19.0391 22.1315 -17.8592 -2.8145 -10.3885 30.2441 -0.0580 -7.2875 -11.6103 -3.1746 -10.9724 32.1869 -7.0707 -0.7139 11.8396 1.6330 -1.9635 -4.6050 6.2169 -0.3340 -11.4441 -4.8130 -5.3213 -11.3210 4.0057 -7.2955 19.8706 1.3521 -3.4310 8.3622 0.0000 0.0000 0.0000 -89.8623 5.5269 27.8930 12.2875 -20.2344 -2.2007 -0.0000 -0.0000 0.6374 4.1783 20.5273 1.4674 -7.1250 0.0000 -0.0000 -23.6494 49.0266 -2.4747 0.0000 0.0000 0.0000 87.5647 -12.7645 22.2496 -9.4053 15.8040 -1.3083 0.0000 0.0000 14.8616 -8.8745 21.4816 -3.2725 7.1250 -0.0000 -0.0000 12.5361 -8.6744 10.7700
-2.1088 16.0741 3.9569 2.0530 4.2164 0.8325 0.0000 0.0000 0.0000 -20.1678 0.1227 -0.5190 7.3469 15.6172 50.1745 1.4910 0.1424 23.0595 0.6669 5.2226 14.5445 0.0000 0.0000 0.0000 20.5603 21.2571 -16.2960 -2.6643 -10.1308 29.4013 -0.0626 -7.4571 -11.9157 -2.8016 -10.3667 30.1725 -6.5826 -0.8535 11.9286 1.8553 -2.0536 -4.6525 6.2092 -0.3968 -11.5391 -4.6033 -5.2926 -11.3604 3.8432 -7.2610 19.8934 1.2668 -3.4142 8.3606 0.0000 0.0000 0.0000 -89.8353 5.9282 27.0504 11.8673 -19.6053 -2.0575 -0.0000 -0.0000 1.6276 3.8508 19.6204 1.2948 -7.1250 0.0000 -0.0000 -23.5124 48.1501 -1.9271 0.0000 0.0000 0.0000 87.3832 -12.1211 22.4187 -9.4524 15.8785 -1.3212 0.0000 0.0000 14.5850 -8.5567 21.1007 -3.1006 7.1250 -0.0000 -0.0000 12.7345 -9.0771 10.8446
-2.1424 16.1293 4.2345 1.8083 4.6310 0.9634 0.0000 0.0000 0.0000 -19.4134 -1.1348 -4.5259 8.8182 16.6893 55.4593 2.0576 0.5022 27.0119 0.8878 6.0062 16.8023 0.0000 0.0000 0.0000 21.4012 20.1267 -14.8688 -2.4972 -9.8329 28.4372 -0.1324 -6.9143 -12.5374 -2.8583 -10.4620 30.4863 -6.4181 -0.8560 11.8794 1.9237 -2.0188 -4.6646 6.1822 -0.3896 -11.5297 -4.6280 -5.4441 -11.3197 3.8287 -7.4659 19.9200 1.2436 -3.5143 8.3723 0.0000 -0.0000 0.0000 -89.6824 6.1045 27.7217 11.6061 -19.2113 -1.9708 -0.0000 -0.0000 1.1946 4.1532 19.9568 1.4197 -7.1250 0.0000 -0.0000 -23.3979 48.5008 -2.1285 0.0000 -0.0000 0.0000 87.0933 -11.3706 22.7990 -9.4543 15.8815 -1.3217 0.0000 0.0000 13.7537 -8.9325 21.6144 -3.3136 7.1250 -0.0000 -0.0000 12.5004 -8.5386 10.7724
-2.1721 16.1444 4.4866 1.7049 4.8527 0.8800 0.0000 0.0000 0.0000 -18.8486 -2.2139 -7.7781 10.1501 17.4934 59.9888 2.3272 4.5825 27.8129 1.6240 8.0347 22.8194 0.0000 0.0000 0.0000 22.0531 19.2671 -13.6507 -2.4312 -9.7117 28.0480 -0.1920 -6.2837 -12.8759 -2.9321 -10.5844 30.8906 -6.4211 -0.7173 11.9929 1.8981 -1.8390 -4.5293 6.1188 -0.3111 -11.4725 -4.6129 -5.7105 -11.0291 3.9102 -7.8584 19.7147 1.2334 -3.6969 8.2716 0.0000 -0.0000 0.0000 -89.4855 6.1171 28.1158 11.3640 -18.8441 -1.8918 -0.0000 -0.0000 1.5867 4.4539 19.7948 1.5110 -7.1250 0.0000 -0.0000 -23.0496 48.3945 -2.0304 0.0000 -0.0000 0.0000 87.0451 -10.7302 22.5381 -9.9077 16.5951 -1.4485 0.0000 0.0000 13.7046 -8.8574 21.2302 -3.2298 7.1250 -0.0000 -0.0000 12.5457 -8.9230 10.7150
-2.1891 16.1485 4.7202 1.4928 4.5329 0.9401 0.0000 0.0000 0.0000 -18.2900 -2.5900 -11.1689 11.3423 18.0986 63.8883 2.0174 6.0724 25.6261 2.0216 8.9110 25.5174 0.0000 0.0000 0.0000 22.7096 18.7457 -12.9710 -2.4417 -9.7312 28.1105 -0.2120 -5.8411 -12.7662 -2.5983 -10.0144 29.0235 -6.1957 -0.4592 12.2092 1.8806 -1.4686 -4.5216 5.9016 -0.1438 -11.6542 -4.7038 -5.7850 -10.8100 4.0909 -7.9805 19.5099 1.3021 -3.7492 8.1807 0.0000 0.0000 0.0000 -89.2752 6.1250 28.7866 11.2031 -18.5989 -1.8402 -0.0000 -0.0000 1.4463 4.6301 19.8678 1.5766 -7.1250 0.0000 -0.0000 -22.9242 48.4865 -2.0725 0.0000 0.0000 0.0000 86.7860 -9.9280 23.2641 -10.1327 16.9470 -1.5134 0.0000 0.0000 12.5091 -9.2708 21.1536 -3.3712 7.1250 -0.0000 -0.0000 12.2851 -8.9603 10.4719
-2.2021 16.1576 4.9660 1.5764 4.5374 0.7961 0.0000 0.0000 0.0000 -18.1621 -3.1647 -14.0531 12.3951 18.5527 67.2358 1.3243 3.1842 20.9411 1.1530 6.8178 19.1766 0.0000 0.0000 0.0000 23.0793 17.7472 -11.7269 -2.3772 -9.6111 27.7263 -0.2782 -5.0230 -13.0865 -2.6245 -10.0608 29.1739 -6.3062 -0.2429 12.5422 1.8038 -1.2267 -4.5418 5.8402 -0.0112 -11.9153 -4.7750 -5.9466 -10.7377 3.9934 -8.2004 20.0581 1.2542 -3.8633 8.3613 -0.0000 0.0000 0.0000 -89.2017 6.4909 28.9477 11.1534 -18.5231 -1.8244 -0.0000 -0.0000 2.0262 4.5178 19.8268 1.5351 -7.1250 0.0000 -0.0000 -23.0068 48.4329 -2.0490 -0.0000 0.0000 0.0000 86.5223 -9.3968 23.8200 -10.4120 17.3814 -1.5958 0.0000 0.0000 11.6807 -9.9661 21.4167 -3.6712 7.1250 -0.0000 -0.0000 11.8497 -8.6352 10.1619
-2.2135 16.1726 5.2190 1.2152 4.1439 0.5803 0.0000 0.0000 0.0000 -17.4711 -3.2107 -17.0430 13.2793 18.8807 69.9908 0.7346 -0.9856 16.5775 0.9132 6.0890 17.0429 0.0000 0.0000 0.0000 24.0554 17.4096 -9.9977 -2.2558 -9.3797 26.9904 -0.3540 -4.4934 -13.8010 -2.6396 -10.0875 29.2605 -6.0580 -0.0025 12.6641 1.9032 -0.8529 -4.4212 5.7271 0.1485 -11.9061 -4.7969 -5.9284 -10.7229 4.0739 -8.1819 19.9442 1.2879 -3.8493 8.3239 0.0000 0.0000 0.0000 -89.2265 6.6360 29.0164 10.9021 -18.1381 -1.7453 -0.0000 -0.0000 2.2350 5.1923 18.6114 1.6612 -7.1250 0.0000 -0.0000 -21.8504 47.4031 -1.3578 0.0000 0.0000 0.0000 86.0782 -8.6464 24.7419 -10.6508 17.7510 -1.6679 0.0000 0.0000 10.4706 -10.7509 22.0680 -4.0804 7.1250 -0.0000 -0.0000 11.3675 -7.9127 9.8964
-2.2207 16.1815 5.4732 1.0390 3.9888 0.5030 0.0000 0.0000 0.0000 -17.1882 -3.5676 -19.6042 13.7676 19.0420 71.4934 0.2475 -3.3913 11.2747 0.9547 6.2221 17.4302 0.0000 0.0000 0.0000 24.6949 16.6896 -8.5345 -2.1344 -9.1406 26.2362 -0.4062 -4.0279 -14.1992 -2.5333 -9.8982 28.6478 -5.7999 0.2317 12.7311 1.8264 -0.5027 -4.3392 5.4153 0.2888 -11.9030 -4.8527 -6.1157 -10.6666 4.2687 -8.4748 19.9290 1.3300 -3.9735 8.3344 0.0000 0.0000 0.0000 -89.0574 6.7626 29.0830 10.9770 -18.2530 -1.7687 -0.0000 -0.0000 1.9705 4.9332 19.1984 1.6258 -7.1250 0.0000 -0.0000 -22.3430 47.9116 -1.6843 0.0000 0.0000 0.0000 85.8874 -8.0905 25.6561 -11.0179 18.3157 -1.7815 0.0000 0.0000 8.3932 -10.6168 21.5708 -3.9423 7.1250 -0.0000 -0.0000 11.4425 -8.4185 9.8478
