HIERARCHY
ROOT Hips
{
	OFFSET 0.00000 0.00000 0.00000
	CHANNELS 6 Xposition Yposition Zposition Zrotation Yrotation Xrotation 
	JOINT LHipJoint
	{
		OFFSET 0 0 0
		CHANNELS 3 Zrotation Yrotation Xrotation
		JOINT LeftUpLeg
		{
			OFFSET 1.53139 -1.83434 0.76626
			CHANNELS 3 Zrotation Yrotation Xrotation
			JOINT LeftLeg
			{
				OFFSET 2.56112 -7.03663 0.00000
				CHANNELS 3 Zrotation Yrotation Xrotation
				JOINT LeftFoot
				{
					OFFSET 2.59983 -7.14299 0.00000
					CHANNELS 3 Zrotation Yrotation Xrotation
					JOINT LeftToeBase
					{
						OFFSET 0.13742 -0.37757 2.00054
						CHANNELS 3 Zrotation Yrotation Xrotation
						End Site
						{
							OFFSET 0.00000 -0.00000 1.02897
						}
					}
				}
			}
		}
	}
	JOINT RHipJoint
	{
		OFFSET 0 0 0
		CHANNELS 3 Zrotation Yrotation Xrotation
		JOINT RightUpLeg
		{
			OFFSET -1.40122 -1.83435 0.76627
			CHANNELS 3 Zrotation Yrotation Xrotation
			JOINT RightLeg
			{
				OFFSET -2.54052 -6.98003 0.00000
				CHANNELS 3 Zrotation Yrotation Xrotation
				JOINT RightFoot
				{
					OFFSET -2.63179 -7.23079 0.00000
					CHANNELS 3 Zrotation Yrotation Xrotation
					JOINT RightToeBase
					{
						OFFSET -0.24131 -0.66299 2.03908
						CHANNELS 3 Zrotation Yrotation Xrotation
						End Site
						{
							OFFSET -0.00000 -0.00000 1.07391
						}
					}
				}
			}
		}
	}
	JOINT LowerBack
	{
		OFFSET 0 0 0
		CHANNELS 3 Zrotation Yrotation Xrotation
		JOINT Spine
		{
			OFFSET 0.01174 2.10302 -0.29778
			CHANNELS 3 Zrotation Yrotation Xrotation
			JOINT Spine1
			{
				OFFSET 0.00772 2.13227 -0.01247
				CHANNELS 3 Zrotation Yrotation Xrotation
				JOINT Neck
				{
					OFFSET 0 0 0
					CHANNELS 3 Zrotation Yrotation Xrotation
					JOINT Neck1
					{
						OFFSET -0.09219 1.60848 0.31481
						CHANNELS 3 Zrotation Yrotation Xrotation
						JOINT Head
						{
							OFFSET 0.13974 1.65456 -0.31134
							CHANNELS 3 Zrotation Yrotation Xrotation
							End Site
							{
								OFFSET 0.04742 1.69515 -0.14578
							}
						}
					}
				}
				JOINT LeftShoulder
				{
					OFFSET 0 0 0
					CHANNELS 3 Zrotation Yrotation Xrotation
					JOINT LeftArm
					{
						OFFSET 3.24909 1.02882 -0.23993
						CHANNELS 3 Zrotation Yrotation Xrotation
						JOINT LeftForeArm
						{
							OFFSET 5.32955 -0.00000 -0.00000
							CHANNELS 3 Zrotation Yrotation Xrotation
							JOINT LeftHand
							{
								OFFSET 3.69232 -0.00000 -0.00000
								CHANNELS 3 Zrotation Yrotation Xrotation
								JOINT LeftFingerBase
								{
									OFFSET 0 0 0
									CHANNELS 3 Zrotation Yrotation Xrotation
									JOINT LeftHandIndex1
									{
										OFFSET 0.53660 -0.00000 -0.00000
										CHANNELS 3 Zrotation Yrotation Xrotation
										End Site
										{
											OFFSET 0.43262 -0.00000 -0.00000
										}
									}
								}
								JOINT LThumb
								{
									OFFSET 0 0 0
									CHANNELS 3 Zrotation Yrotation Xrotation
									End Site
									{
										OFFSET 0.43922 -0.00000 0.43922
									}
								}
							}
						}
					}
				}
				JOINT RightShoulder
				{
					OFFSET 0 0 0
					CHANNELS 3 Zrotation Yrotation Xrotation
					JOINT RightArm
					{
						OFFSET -3.21387 0.93002 -0.34594
						CHANNELS 3 Zrotation Yrotation Xrotation
						JOINT RightForeArm
						{
							OFFSET -5.23431 -0.00000 0.00000
							CHANNELS 3 Zrotation Yrotation Xrotation
							JOINT RightHand
							{
								OFFSET -3.55301 -0.00000 -0.00000
								CHANNELS 3 Zrotation Yrotation Xrotation
								JOINT RightFingerBase
								{
									OFFSET 0 0 0
									CHANNELS 3 Zrotation Yrotation Xrotation
									JOINT RightHandIndex1
									{
										OFFSET -0.77252 -0.00000 -0.00000
										CHANNELS 3 Zrotation Yrotation Xrotation
										End Site
										{
											OFFSET -0.62283 -0.00000 -0.00000
										}
									}
								}
								JOINT RThumb
								{
									OFFSET 0 0 0
									CHANNELS 3 Zrotation Yrotation Xrotation
									End Site
									{
										OFFSET -0.63234 -0.00000 0.63234
									}
								}
							}
						}
					}
				}
			}
		}
	}
}
MOTION
Frames: 76
Frame Time: 0.0166666
-13.6941 17.792 -12.5121 0 0 0 0 0 0 -21 0 0 0 0 0 0 0 0 0 0 0 0 0 0 21 0 0 0 0 0 0 0 0 0 0 0 0 0 0 0 0 0 0 0 0 0 0 -16 0 0 21 0 0 11 0 0 0 -8 0 0 0 0 0 0 0 0 0 0 0 0 0 0 0 0 0 0 0 0 8 0 0 0 0 0 0 0 0 0 0 0 0 0 0 0 0 0
4.1756 17.8671 9.5939 0.1907 22.8798 -5.7667 0.0000 0.0000 0.0000 -19.7775 -2.8510 -1.9115 1.7193 8.2550 23.4914 0.3943 -1.1565 -11.5132 0.1252 -2.2811 -6.2831 0.0000 0.0000 0.0000 15.7592 -1.3559 -4.0358 -2.2209 -9.3119 26.7759 -0.6312 1.0169 -14.6956 -0.0205 0.9236 -2.5385 -3.3270 0.3806 8.9269 -0.0144 0.1642 0.0237 1.8360 0.1639 -4.9972 -13.1059 -8.8454 -20.4582 12.7820 -11.9661 24.2919 4.9842 -4.9361 13.2055 0.0000 0.0000 0.0000 -83.0500 0.6708 58.1838 74.4482 -59.0661 -46.5740 -0.0000 0.0000 -53.9884 20.0992 48.5016 15.3269 -7.1250 0.0000 -0.0000 -44.4571 76.9362 -34.4801 0.0000 0.0000 0.0000 79.5429 -1.1026 58.3424 -83.8997 59.8589 -54.7195 0.0000 0.0000 22.3958 -26.9654 20.4823 -10.0944 7.1250 -0.0000 -0.0000 0.9830 -7.2441 0.8513
4.1807 17.8628 9.6156 -1.9841 21.9534 -7.4098 0.0000 0.0000 0.0000 -17.4757 -2.2911 -1.0720 1.7407 8.3037 23.6403 0.4143 -0.8694 -11.8860 0.1191 -2.2248 -6.1272 0.0000 0.0000 0.0000 18.2065 -0.8035 -2.7907 -2.1794 -9.2302 26.5181 -0.6248 0.6030 -14.7396 -0.0247 1.0143 -2.7880 -1.5584 0.2444 9.3738 0.6327 0.1941 0.1884 1.5104 0.1429 -5.0724 -12.8860 -8.7904 -20.2445 12.7056 -11.9620 24.2524 4.9203 -4.9329 13.1221 -0.0000 -0.0000 0.0000 -82.8802 1.2690 58.8548 76.4814 -59.2981 -48.3201 -0.0000 0.0000 -54.1384 19.8745 49.0882 15.2796 -7.1250 0.0000 -0.0000 -46.8190 77.1833 -36.6628 -0.0000 -0.0000 0.0000 79.4790 -1.4738 58.8487 -84.4314 59.8825 -55.1793 0.0000 0.0000 22.9612 -26.1460 21.1718 -10.0536 7.1250 -0.0000 -0.0000 1.5830 -6.6492 1.3896
4.2120 17.8661 9.6111 -0.7250 21.1441 -6.4059 0.0000 0.0000 0.0000 -18.8248 -2.0102 -1.5871 1.7457 8.3149 23.6746 0.4176 -0.3041 -12.1054 0.1385 -2.3982 -6.6075 0.0000 0.0000 0.0000 16.7849 -0.4671 -3.4044 -2.1671 -9.2058 26.4412 -0.6130 1.4213 -14.3715 -0.0238 0.9960 -2.7379 -2.6376 0.2531 8.5587 0.3141 0.0931 0.0509 1.7993 0.1120 -4.7560 -12.7084 -8.7445 -20.2373 12.7255 -11.9610 24.2099 4.8974 -4.9151 13.0918 -0.0000 0.0000 0.0000 -82.7886 1.8254 59.0033 77.2911 -59.3808 -49.0166 -0.0000 0.0000 -52.2974 19.5555 49.0491 15.0177 -7.1250 0.0000 -0.0000 -46.9481 77.0325 -36.6407 -0.0000 0.0000 0.0000 79.5102 -1.8403 59.5695 -84.7717 59.8965 -55.4737 0.0000 0.0000 22.7924 -26.9056 21.3700 -10.4762 7.1250 -0.0000 -0.0000 1.1278 -6.2923 0.9976
4.2333 17.8665 9.6097 -0.9356 20.0911 -6.4148 0.0000 0.0000 0.0000 -18.6169 -1.5878 -1.5384 1.7255 8.2692 23.5349 0.4161 0.2439 -12.2772 0.1136 -2.1733 -5.9848 0.0000 0.0000 0.0000 17.0326 0.2032 -3.4793 -2.1922 -9.2555 26.5979 -0.6100 1.8084 -14.2447 -0.0288 1.0963 -3.0138 -2.4312 0.2959 8.3816 0.3890 0.1770 -0.0793 1.7505 0.1511 -4.7961 -12.6511 -8.7913 -20.0751 12.8522 -12.1322 24.3652 4.9132 -4.9745 13.1562 -0.0000 0.0000 0.0000 -82.6846 2.4492 59.4140 77.1574 -59.3675 -48.9016 -0.0000 0.0000 -49.2182 18.3225 48.0370 13.8332 -7.1250 0.0000 -0.0000 -44.5157 75.9505 -33.7001 -0.0000 0.0000 0.0000 79.6106 -2.4008 59.9908 -85.1990 59.9127 -55.8435 0.0000 0.0000 22.6382 -26.7935 21.4897 -10.4810 7.1250 -0.0000 -0.0000 1.2129 -6.1841 1.0754
4.2509 17.8663 9.6146 -1.0790 19.5161 -6.5216 0.0000 0.0000 0.0000 -18.5574 -1.5422 -1.3864 1.7326 8.2853 23.5841 0.4088 0.9032 -12.4393 0.1583 -2.5637 -7.0663 0.0000 0.0000 0.0000 17.2024 0.6454 -3.2900 -2.1848 -9.2408 26.5515 -0.5997 1.8305 -14.1160 -0.0299 1.1158 -3.0674 -2.4678 0.1738 8.3285 0.5592 0.0191 -0.1724 1.9680 0.0776 -4.8560 -12.5284 -9.1575 -20.4330 12.2892 -12.5739 24.9558 4.5835 -5.2032 13.4837 0.0000 -0.0000 0.0000 -82.6755 3.1925 59.8739 77.7042 -59.4210 -49.3722 -0.0000 0.0000 -47.0206 18.4778 47.4277 13.8251 -7.1250 0.0000 -0.0000 -42.4070 75.6323 -31.7292 0.0000 -0.0000 0.0000 79.4804 -3.0048 60.8992 -85.4743 59.9225 -56.0816 0.0000 0.0000 21.4335 -27.7229 20.1775 -10.2743 7.1250 -0.0000 -0.0000 0.4649 -7.4352 0.4008
4.2669 17.8629 9.6133 -0.8957 19.2340 -6.5141 0.0000 0.0000 0.0000 -18.8418 -1.5051 -1.2957 1.7381 8.2978 23.6223 0.3966 1.2704 -12.4251 0.1682 -2.6423 -7.2845 0.0000 0.0000 0.0000 16.9866 0.8625 -3.2114 -2.1920 -9.2551 26.5966 -0.5934 1.8279 -14.0399 -0.0538 1.4973 -4.1183 -2.7561 -0.0385 8.2219 0.5303 -0.2903 -0.1636 2.1378 -0.0701 -4.7695 -12.5311 -9.2627 -20.2220 12.4997 -12.8236 24.9352 4.6215 -5.2960 13.4908 -0.0000 0.0000 0.0000 -82.3447 3.8319 60.4260 78.5945 -59.5027 -50.1391 -0.0000 0.0000 -45.8345 20.5937 47.0395 15.3753 -7.1250 0.0000 -0.0000 -39.0188 76.2076 -29.4694 -0.0000 0.0000 0.0000 79.6497 -3.3383 61.0402 -85.6694 59.9290 -56.2505 0.0000 0.0000 20.9336 -27.0810 20.3339 -10.0749 7.1250 -0.0000 -0.0000 0.8920 -7.3841 0.7701
4.2824 17.8613 9.6015 -1.0704 18.7449 -6.6436 0.0000 0.0000 0.0000 -18.7530 -1.5365 -1.1637 1.7446 8.3125 23.6673 0.3892 1.7862 -12.5715 0.1427 -2.4343 -6.7074 0.0000 0.0000 0.0000 17.1782 1.2396 -3.1501 -2.2004 -9.2717 26.6489 -0.5917 1.8337 -14.0171 -0.0565 1.5332 -4.2173 -2.7201 -0.1367 8.2904 0.7001 -0.4107 -0.1238 2.3094 -0.1292 -4.7586 -12.8799 -9.6064 -19.8679 12.7075 -13.2903 24.6647 4.6646 -5.5268 13.4280 -0.0000 -0.0000 0.0000 -82.4877 4.2855 60.9887 78.9275 -59.5316 -50.4261 -0.0000 0.0000 -44.6989 22.4815 47.1277 16.8720 -7.1250 0.0000 -0.0000 -37.2584 77.0195 -28.6568 -0.0000 -0.0000 0.0000 79.6363 -3.7523 60.7908 -85.9351 59.9375 -56.4805 0.0000 0.0000 20.5929 -26.2567 21.0387 -10.0424 7.1250 -0.0000 -0.0000 1.4975 -6.7723 1.3110
4.2948 17.8640 9.5968 -0.9438 18.3588 -6.6257 0.0000 0.0000 0.0000 -18.9589 -1.5143 -1.0449 1.7346 8.2899 23.5982 0.3810 2.1159 -12.6267 0.1293 -2.3177 -6.3846 0.0000 0.0000 0.0000 17.0392 1.4762 -3.1729 -2.2174 -9.3050 26.7540 -0.5854 1.9384 -13.9183 -0.0585 1.5606 -4.2929 -2.9369 -0.2332 8.2054 0.6575 -0.5591 -0.0629 2.4038 -0.2008 -4.6369 -13.2703 -9.9220 -19.2904 13.3366 -13.8532 24.2974 4.8680 -5.7648 13.3449 0.0000 -0.0000 0.0000 -82.2477 4.5700 61.6928 78.9935 -59.5373 -50.4829 -0.0000 0.0000 -44.6533 23.7027 46.0619 17.5437 -7.1250 0.0000 -0.0000 -32.4302 76.7498 -24.6198 0.0000 -0.0000 0.0000 80.0051 -4.3814 60.4471 -86.1157 59.9429 -56.6367 0.0000 0.0000 20.6875 -25.9263 21.3522 -10.0376 7.1250 -0.0000 -0.0000 1.7427 -6.4952 1.5351
4.3026 17.8629 9.5875 -0.7007 18.0080 -6.6023 0.0000 0.0000 0.0000 -19.2449 -1.2995 -0.9846 1.7225 8.2623 23.5137 0.3648 2.4101 -12.5496 0.1587 -2.5668 -7.0750 0.0000 0.0000 0.0000 16.7982 1.7793 -3.1900 -2.2435 -9.3558 26.9147 -0.5814 1.8910 -13.8792 -0.0890 1.9246 -5.2974 -3.4288 -0.3451 8.1296 0.7128 -0.7476 0.0940 2.7586 -0.2888 -4.4122 -13.9066 -10.3599 -18.9155 13.9409 -14.4973 24.0074 5.0800 -6.0558 13.3772 -0.0000 0.0000 0.0000 -82.2567 5.1234 62.0226 79.6025 -59.5875 -51.0080 -0.0000 0.0000 -44.8557 24.6671 46.1433 18.3226 -7.1250 0.0000 -0.0000 -31.4845 77.1960 -24.1540 -0.0000 0.0000 0.0000 79.9418 -4.6954 60.2992 -85.9188 59.9370 -56.4663 0.0000 0.0000 21.0910 -25.5423 20.6036 -9.5459 7.1250 -0.0000 -0.0000 1.9015 -7.3701 1.6428
4.3174 17.8685 9.5642 -0.8378 17.8109 -6.5926 0.0000 0.0000 0.0000 -19.1661 -1.3312 -1.1677 1.7308 8.2812 23.5716 0.3524 2.5543 -12.4451 0.1647 -2.6147 -7.2079 0.0000 0.0000 0.0000 16.9226 1.9657 -3.3672 -2.2599 -9.3877 27.0158 -0.5800 1.7909 -13.8827 -0.1451 2.4549 -6.7647 -3.3783 -0.5614 8.1993 0.7324 -1.0320 0.1223 2.7843 -0.4311 -4.4016 -14.1944 -10.8458 -18.1949 14.2635 -15.2575 23.5307 5.0980 -6.4202 13.2288 0.0000 -0.0000 0.0000 -82.3417 5.5970 62.0111 79.9128 -59.6120 -51.2756 -0.0000 0.0000 -45.2482 25.2022 46.0440 18.7154 -7.1250 0.0000 -0.0000 -30.4924 77.3368 -23.4525 0.0000 -0.0000 0.0000 80.1208 -5.1478 60.3002 -85.6387 59.9280 -56.2239 0.0000 0.0000 20.4937 -25.2926 20.1251 -9.2348 7.1250 -0.0000 -0.0000 2.0093 -7.9284 1.7140
4.3342 17.8726 9.5372 -0.8741 17.7457 -6.5165 0.0000 0.0000 0.0000 -19.2678 -1.6758 -1.2729 1.7503 8.3255 23.7071 0.3407 2.8783 -12.4655 0.1781 -2.7181 -7.4948 0.0000 0.0000 0.0000 16.8961 2.1097 -3.5676 -2.2580 -9.3840 27.0041 -0.5572 1.6993 -13.6185 -0.1216 2.2477 -6.1908 -3.3703 -0.7772 8.3604 0.7122 -1.3262 0.0614 2.7975 -0.5736 -4.5349 -14.6100 -11.3338 -17.1262 14.7080 -16.0623 23.0147 5.1885 -6.8231 13.0350 0.0000 -0.0000 0.0000 -82.4763 6.2438 62.0400 79.6808 -59.5938 -51.0755 -0.0000 0.0000 -45.7266 25.3389 45.2204 18.5786 -7.1250 0.0000 -0.0000 -27.8608 76.7548 -21.0451 0.0000 -0.0000 0.0000 80.3045 -5.6064 60.1832 -85.2054 59.9130 -55.8490 0.0000 0.0000 19.1603 -24.8744 19.5214 -8.8068 7.1250 -0.0000 -0.0000 2.2159 -8.6476 1.8589
4.3476 17.8739 9.5016 -0.8969 17.5993 -6.4300 0.0000 0.0000 0.0000 -19.3427 -1.8117 -1.5077 1.7643 8.3568 23.8031 0.3292 3.0387 -12.3886 0.1406 -2.4165 -6.6583 0.0000 0.0000 0.0000 16.8479 2.3884 -3.7519 -2.2544 -9.3769 26.9817 -0.5324 1.6305 -13.3170 -0.0919 1.9548 -5.3807 -3.4415 -0.9945 8.4734 0.7463 -1.6239 0.1162 2.9103 -0.7201 -4.5167 -15.2796 -11.8163 -15.8083 15.4465 -16.8644 22.1788 5.4385 -7.2396 12.7344 0.0000 0.0000 0.0000 -82.6622 6.8731 61.7986 80.4770 -59.6545 -51.7624 -0.0000 0.0000 -45.5260 26.2482 44.9752 19.2148 -7.1250 0.0000 -0.0000 -25.9333 76.9187 -19.6370 0.0000 0.0000 0.0000 80.2817 -5.8712 60.3268 -84.6020 59.8896 -55.3269 0.0000 0.0000 17.0522 -24.9766 19.0378 -8.6396 7.1250 -0.0000 -0.0000 2.1023 -9.1510 1.7424
4.3552 17.8777 9.4666 -0.8207 17.1899 -6.2044 0.0000 0.0000 0.0000 -19.4987 -1.8437 -1.8020 1.7667 8.3621 23.8195 0.3104 3.4177 -12.3482 0.1516 -2.5091 -6.9148 0.0000 0.0000 0.0000 16.7239 2.7008 -4.0789 -2.2643 -9.3962 27.0429 -0.5194 1.7066 -13.1319 -0.1180 2.2145 -6.0988 -3.6657 -1.0646 8.6033 0.7292 -1.7465 0.0357 3.0386 -0.7716 -4.6589 -15.3519 -12.3655 -14.9138 15.3793 -17.6846 21.6787 5.2666 -7.6746 12.5081 -0.0000 -0.0000 0.0000 -82.7745 7.5817 61.6182 80.6424 -59.6665 -51.9052 -0.0000 0.0000 -45.2464 27.9687 46.7758 21.1532 -7.1250 0.0000 -0.0000 -29.2626 79.0271 -23.4519 -0.0000 -0.0000 0.0000 80.2386 -6.1576 60.3669 -83.9378 59.8607 -54.7524 0.0000 0.0000 16.5755 -24.9385 18.3566 -8.3313 7.1250 -0.0000 -0.0000 2.0620 -9.8908 1.6783
4.3684 17.8778 9.4179 -0.4517 17.4068 -5.9446 0.0000 0.0000 0.0000 -20.0498 -2.2307 -1.9867 1.7603 8.3478 23.7755 0.2918 3.6017 -12.1797 0.1438 -2.4438 -6.7339 0.0000 0.0000 0.0000 16.1564 2.5142 -4.5206 -2.2795 -9.4255 27.1358 -0.5100 1.8169 -12.9860 -0.1200 2.2333 -6.1509 -4.0512 -1.3489 8.7857 0.6005 -2.1752 0.1336 3.1766 -0.9787 -4.6165 -15.7435 -12.8796 -13.9883 15.7583 -18.4593 20.8995 5.3263 -8.0801 12.2537 -0.0000 -0.0000 0.0000 -82.9809 7.9386 61.2764 80.6967 -59.6704 -51.9520 -0.0000 0.0000 -44.9770 27.4566 46.2612 20.5769 -7.1250 0.0000 -0.0000 -28.1773 78.4226 -22.2273 -0.0000 -0.0000 0.0000 80.3091 -6.4767 60.0579 -84.0733 59.8669 -54.8696 0.0000 0.0000 16.3821 -24.7441 18.0820 -8.1408 7.1250 -0.0000 -0.0000 2.1635 -10.2170 1.7467
4.3733 17.8891 9.3758 -0.4688 17.2626 -5.7589 0.0000 0.0000 0.0000 -20.0415 -2.1502 -2.3843 1.7482 8.3207 23.6926 0.2880 3.4984 -12.0425 0.1119 -2.1572 -5.9402 0.0000 0.0000 0.0000 16.1187 2.7777 -4.8305 -2.2835 -9.4332 27.1601 -0.5068 1.8510 -12.9363 -0.1197 2.2303 -6.1426 -4.2221 -1.4629 8.8627 0.5726 -2.3455 0.2777 3.2635 -1.0650 -4.4893 -16.0055 -13.4311 -13.2654 16.3105 -19.3700 20.2741 5.3966 -8.5069 12.1439 -0.0000 0.0000 0.0000 -83.1654 8.0257 61.0027 80.7061 -59.6711 -51.9602 -0.0000 0.0000 -44.9595 28.8763 46.9357 21.9451 -7.1250 0.0000 -0.0000 -28.5776 79.5311 -23.1702 -0.0000 0.0000 0.0000 80.4615 -6.5990 59.8199 -83.7342 59.8511 -54.5764 0.0000 0.0000 15.6269 -24.6716 17.8038 -7.9949 7.1250 -0.0000 -0.0000 2.1859 -10.5276 1.7510
4.3864 17.8897 9.3229 -0.3760 17.2723 -5.5309 0.0000 0.0000 0.0000 -20.2313 -2.2983 -2.7480 1.7438 8.3108 23.6622 0.2844 3.4597 -11.9547 0.1116 -2.1539 -5.9311 0.0000 0.0000 0.0000 15.8878 2.9617 -5.1738 -2.2737 -9.4143 27.1002 -0.4921 1.8571 -12.7407 -0.1140 2.1766 -5.9940 -4.3529 -1.6209 8.9817 0.4873 -2.5773 0.3225 3.2791 -1.1784 -4.4876 -16.0040 -13.8980 -12.2021 16.4694 -20.1329 19.5818 5.3301 -8.9140 11.8364 -0.0000 0.0000 0.0000 -83.2335 8.4025 60.7453 81.0586 -59.6957 -52.2644 -0.0000 0.0000 -44.4013 30.9535 47.1903 23.7490 -7.1250 0.0000 -0.0000 -26.4653 80.6179 -21.9815 -0.0000 0.0000 0.0000 80.7940 -7.3104 59.3512 -84.0717 59.8668 -54.8682 0.0000 0.0000 14.3825 -24.0266 16.9599 -7.4090 7.1250 -0.0000 -0.0000 2.5394 -11.5299 1.9826
4.3926 17.8945 9.2627 -0.3904 17.2260 -5.3250 0.0000 0.0000 0.0000 -20.2758 -2.3461 -3.2457 1.7492 8.3230 23.6995 0.2715 3.4532 -11.7340 0.0749 -1.7650 -4.8568 0.0000 0.0000 0.0000 15.7992 3.1245 -5.5719 -2.2701 -9.4074 27.0783 -0.4835 1.8560 -12.6252 -0.1225 2.2564 -6.2148 -4.4201 -1.7618 9.3444 0.4724 -2.7886 0.3541 3.3417 -1.2776 -4.6372 -16.2458 -14.3700 -11.5704 16.7595 -20.8865 19.2287 5.3347 -9.2891 11.7931 0.0000 0.0000 0.0000 -83.3639 8.5746 60.5102 81.3356 -59.7144 -52.5036 -0.0000 0.0000 -44.0415 30.8996 46.2346 23.3744 -7.1250 0.0000 -0.0000 -22.8656 79.8432 -18.6050 0.0000 0.0000 0.0000 80.6659 -7.1182 59.3219 -83.5281 59.8411 -54.3982 0.0000 0.0000 13.5000 -23.2144 15.9854 -6.7363 7.1250 -0.0000 -0.0000 3.0070 -12.6850 2.2765
4.3999 17.8975 9.2034 -0.3832 17.1943 -5.1268 0.0000 0.0000 0.0000 -20.3088 -2.2658 -3.7902 1.7594 8.3459 23.7698 0.2693 3.2411 -11.5459 0.0506 -1.4512 -3.9913 0.0000 0.0000 0.0000 15.6828 3.3022 -5.9442 -2.2727 -9.4124 27.0940 -0.4730 1.8527 -12.4827 -0.0909 1.9450 -5.3537 -4.5959 -1.8979 9.6613 0.5333 -2.9995 0.3960 3.5440 -1.3749 -4.7401 -16.5213 -14.7432 -10.9319 16.9434 -21.4611 18.8901 5.3454 -9.5977 11.7122 -0.0000 -0.0000 0.0000 -83.6306 8.7317 60.2378 81.9968 -59.7566 -53.0747 -0.0000 0.0000 -43.7562 28.3719 43.3320 20.3350 -7.1250 0.0000 -0.0000 -18.6602 76.3587 -13.8289 -0.0000 -0.0000 0.0000 80.6326 -7.3973 59.0835 -83.5228 59.8409 -54.3935 0.0000 0.0000 11.8490 -22.3188 15.1512 -6.1241 7.1250 -0.0000 -0.0000 3.5554 -13.6874 2.6183
4.4117 17.8965 9.1335 -0.2028 17.2932 -4.8647 0.0000 0.0000 0.0000 -20.5991 -2.4377 -4.2371 1.7682 8.3657 23.8303 0.2699 3.0086 -11.3934 0.0325 -1.1641 -3.2004 0.0000 0.0000 0.0000 15.3156 3.3487 -6.4247 -2.2854 -9.4369 27.1719 -0.4639 1.9445 -12.3416 -0.0855 1.8864 -5.1918 -4.7510 -2.0062 10.1599 0.4448 -3.1934 0.2958 3.5915 -1.4543 -5.1039 -16.8038 -15.0337 -10.1346 17.2513 -21.9892 18.6294 5.4263 -9.8846 11.6443 0.0000 -0.0000 0.0000 -83.6182 9.0088 60.1467 81.8124 -59.7452 -52.9154 -0.0000 0.0000 -42.4852 31.8920 46.0287 24.1241 -7.1250 0.0000 -0.0000 -20.4384 80.0948 -16.7084 0.0000 -0.0000 0.0000 80.9710 -8.1058 58.4102 -83.5665 59.8430 -54.4314 0.0000 0.0000 10.4299 -21.4029 13.8046 -5.3430 7.1250 -0.0000 -0.0000 4.1083 -15.2222 2.8931
4.4170 17.8957 9.0705 -0.1241 17.2406 -4.6421 0.0000 0.0000 0.0000 -20.7410 -2.6305 -4.6971 1.7826 8.3977 23.9286 0.2610 3.0051 -11.2368 0.0177 -0.8581 -2.3586 0.0000 0.0000 0.0000 15.0924 3.5260 -6.8489 -2.2880 -9.4419 27.1876 -0.4486 2.0790 -12.1051 -0.0595 1.5738 -4.3291 -4.8426 -2.0399 10.4005 0.3603 -3.2639 0.3588 3.5741 -1.4865 -5.1659 -16.9839 -15.3656 -9.5290 17.4746 -22.5528 18.4056 5.4408 -10.1757 11.6120 0.0000 0.0000 0.0000 -83.5326 9.0119 60.2542 82.1100 -59.7635 -53.1725 -0.0000 0.0000 -41.7201 31.3078 45.2236 23.3515 -7.1250 0.0000 -0.0000 -18.8384 79.1718 -15.0418 0.0000 0.0000 0.0000 81.1894 -8.4296 57.8825 -83.7183 59.8504 -54.5627 0.0000 0.0000 8.8794 -20.3034 12.3997 -4.5424 7.1250 -0.0000 -0.0000 4.8142 -16.8161 3.2271
4.4254 17.8952 9.0061 -0.1909 17.1795 -4.4704 0.0000 0.0000 0.0000 -20.7339 -2.7548 -5.1755 1.8020 8.4408 24.0613 0.2488 3.0456 -11.0504 0.0127 -0.7286 -2.0022 0.0000 0.0000 0.0000 15.0048 3.6379 -7.2617 -2.2799 -9.4263 27.1382 -0.4280 2.2305 -11.7889 -0.0421 1.3243 -3.6416 -4.7739 -2.1123 10.7077 0.3326 -3.3664 0.4456 3.5339 -1.5376 -5.2423 -17.0577 -15.6201 -9.1412 17.6687 -22.9634 18.0946 5.4483 -10.3835 11.5422 -0.0000 -0.0000 0.0000 -83.3452 8.8777 60.2149 82.8130 -59.8039 -53.7800 -0.0000 0.0000 -40.5919 29.8366 42.7025 21.2550 -7.1250 0.0000 -0.0000 -14.9696 76.3551 -11.0653 -0.0000 -0.0000 0.0000 81.3696 -8.5207 57.5958 -83.5247 59.8410 -54.3953 0.0000 0.0000 7.3378 -19.6578 10.6003 -3.7597 7.1250 -0.0000 -0.0000 5.2270 -18.7658 3.2813
4.4368 17.8947 8.9316 -0.0973 17.1952 -4.2258 0.0000 0.0000 0.0000 -20.9104 -2.8525 -5.7176 1.8110 8.4608 24.1228 0.2474 2.9157 -10.9350 0.0053 -0.4715 -1.2956 0.0000 0.0000 0.0000 14.7351 3.6872 -7.7837 -2.2851 -9.4363 27.1700 -0.4137 2.1569 -11.5960 -0.0506 1.4510 -3.9908 -4.9145 -2.2074 11.0597 0.3478 -3.5241 0.5475 3.6667 -1.6108 -5.3078 -17.2563 -15.8605 -8.8962 17.7203 -23.2783 17.8312 5.4332 -10.5572 11.4938 0.0000 0.0000 0.0000 -83.3325 8.6553 60.1554 83.2762 -59.8285 -54.1804 -0.0000 0.0000 -39.5007 30.8485 41.6815 21.6618 -7.1250 0.0000 -0.0000 -11.3243 75.7886 -8.2200 0.0000 0.0000 0.0000 81.3333 -8.4107 57.4316 -83.3891 59.8342 -54.2780 0.0000 0.0000 5.2667 -18.5783 9.4551 -3.1604 7.1250 -0.0000 -0.0000 5.9864 -20.0418 3.5917
4.4386 17.8999 8.8565 -0.0961 17.0947 -4.0303 0.0000 0.0000 0.0000 -20.9348 -2.8072 -6.2458 1.8132 8.4657 24.1378 0.2485 2.6907 -10.8017 0.0027 -0.3381 -0.9291 0.0000 0.0000 0.0000 14.6301 3.8757 -8.2860 -2.2955 -9.4563 27.2333 -0.3973 2.1803 -11.3519 -0.0430 1.3390 -3.6821 -4.9483 -2.1535 11.5279 0.3015 -3.4842 0.5505 3.6572 -1.5813 -5.5715 -17.3928 -16.0383 -8.0811 18.1399 -23.6298 17.2250 5.5733 -10.7646 11.2692 -0.0000 0.0000 0.0000 -83.1761 8.5750 60.3237 83.7146 -59.8502 -54.5594 -0.0000 0.0000 -38.4572 29.1839 40.7357 20.0252 -7.1250 0.0000 -0.0000 -12.3901 74.2850 -8.6032 -0.0000 0.0000 0.0000 81.5842 -8.5974 56.7876 -83.2133 59.8252 -54.1260 0.0000 0.0000 3.6764 -17.7982 8.2884 -2.6497 7.1250 -0.0000 -0.0000 6.5548 -21.3042 3.7495
4.4503 17.9027 8.7799 -0.0895 17.0633 -3.8302 0.0000 0.0000 0.0000 -21.0066 -2.6789 -6.8175 1.8120 8.4631 24.1297 0.2333 2.5450 -10.4265 0.0020 -0.2909 -0.7993 0.0000 0.0000 0.0000 14.4269 3.7392 -8.8328 -2.2849 -9.4359 27.1686 -0.3745 2.5034 -10.9661 -0.0218 0.9537 -2.6215 -4.9793 -2.1989 11.8596 0.3381 -3.5596 0.6735 3.7387 -1.6172 -5.6151 -17.5461 -16.2280 -7.9125 18.2941 -23.9022 16.9987 5.5936 -10.9026 11.2543 -0.0000 -0.0000 0.0000 -83.1063 8.2644 60.4324 84.1140 -59.8687 -54.9048 -0.0000 0.0000 -37.4020 29.6349 39.5191 19.9004 -7.1250 0.0000 -0.0000 -9.8730 73.2802 -6.6324 -0.0000 -0.0000 0.0000 81.5204 -8.3366 56.5777 -83.0154 59.8149 -53.9550 0.0000 0.0000 1.6306 -16.2890 7.1942 -2.0958 7.1250 -0.0000 -0.0000 7.6748 -22.5083 4.1888
4.4584 17.9108 8.7204 -0.3182 16.8798 -3.7107 0.0000 0.0000 0.0000 -20.8078 -2.7040 -7.2419 1.8098 8.4581 24.1145 0.2195 2.7786 -10.3231 0.0083 -0.5892 -1.6191 0.0000 0.0000 0.0000 14.6057 4.0936 -9.0674 -2.2591 -9.3861 27.0108 -0.3525 2.1974 -10.6691 -0.0215 0.9462 -2.6009 -4.8195 -2.1808 12.0453 0.4091 -3.5153 0.7990 3.7230 -1.6012 -5.5950 -17.6697 -16.4254 -7.7696 18.4600 -24.1924 16.7807 5.6075 -11.0441 11.2499 -0.0000 0.0000 0.0000 -82.9842 7.8749 60.5207 83.8141 -59.8549 -54.6454 -0.0000 0.0000 -36.2197 29.4189 39.4341 19.7069 -7.1250 0.0000 -0.0000 -10.0874 73.1223 -6.7427 -0.0000 0.0000 0.0000 81.2855 -8.0091 56.6909 -82.6105 59.7927 -53.6049 0.0000 -0.0000 -0.9913 -15.1674 6.5677 -1.7759 7.1250 -0.0000 -0.0000 8.5183 -23.1940 4.5234
4.4605 17.9139 8.6491 -0.3287 16.9422 -3.4988 0.0000 0.0000 0.0000 -20.8282 -2.7230 -7.7566 1.8127 8.4645 24.1342 0.2179 2.5697 -10.1511 0.0024 -0.3178 -0.8733 0.0000 0.0000 0.0000 14.4764 4.2391 -9.3604 -2.2220 -9.3140 26.7826 -0.3334 1.9626 -10.4014 -0.0075 0.5577 -1.5326 -4.9225 -2.2188 12.3507 0.4363 -3.5911 0.8754 3.8360 -1.6338 -5.6690 -17.7279 -16.4617 -7.1964 18.8965 -24.3161 16.1972 5.7791 -11.1304 11.0331 -0.0000 0.0000 0.0000 -82.7977 7.3052 60.7301 83.5275 -59.8411 -54.3977 -0.0000 0.0000 -35.5150 29.3142 39.0298 19.4731 -7.1250 0.0000 -0.0000 -9.7049 72.6936 -6.3953 -0.0000 0.0000 0.0000 81.3030 -7.8955 56.7708 -82.3579 59.7782 -53.3867 0.0000 -0.0000 -3.9917 -15.5565 6.5599 -1.8216 7.1250 -0.0000 -0.0000 8.2331 -23.1885 4.3699
4.4635 17.9236 8.5862 -0.4233 16.8305 -3.3314 0.0000 0.0000 0.0000 -20.7402 -2.6114 -8.3049 1.8258 8.4935 24.2232 0.2124 2.3637 -9.9079 0.0003 -0.1140 -0.3132 0.0000 0.0000 0.0000 14.4779 4.5204 -9.6439 -2.2031 -9.2769 26.6654 -0.3369 1.6690 -10.5097 -0.0020 0.2918 -0.8018 -4.9254 -2.1723 12.5428 0.4621 -3.5331 1.0177 3.8615 -1.6085 -5.6289 -17.7892 -16.6553 -7.1049 19.2162 -24.6517 16.0249 5.8243 -11.2736 11.0846 -0.0000 -0.0000 0.0000 -82.3250 6.6058 61.3413 83.0026 -59.8142 -53.9438 -0.0000 0.0000 -34.8168 29.1379 38.0123 18.9474 -7.1250 0.0000 -0.0000 -8.7117 71.6368 -5.5362 -0.0000 -0.0000 0.0000 81.4032 -7.6779 56.3849 -81.9834 59.7558 -53.0631 0.0000 -0.0000 -5.6302 -14.5292 6.7685 -1.7495 7.1250 -0.0000 -0.0000 8.9767 -23.0105 4.8108
4.4676 17.9219 8.5169 -0.4619 16.8026 -3.1368 0.0000 0.0000 0.0000 -20.7458 -2.6125 -8.9165 1.8509 8.5483 24.3921 0.2037 2.2839 -9.6837 0.0011 -0.2096 -0.5759 0.0000 0.0000 0.0000 14.3725 4.2911 -10.1208 -2.1948 -9.2605 26.6137 -0.3393 1.9154 -10.5037 -0.0052 0.4670 -1.2833 -4.9666 -2.1733 12.8113 0.5193 -3.5485 1.0773 3.9607 -1.6123 -5.7073 -17.7097 -16.7802 -6.7143 19.2691 -24.8201 15.5875 5.8188 -11.3851 10.8842 -0.0000 -0.0000 0.0000 -82.3198 6.3724 61.2156 83.0404 -59.8162 -53.9765 -0.0000 0.0000 -33.5878 28.2777 38.5261 18.5244 -7.1250 0.0000 -0.0000 -10.5954 71.8496 -6.7902 -0.0000 -0.0000 0.0000 81.1181 -7.4407 56.5387 -82.0280 59.7585 -53.1016 0.0000 -0.0000 -8.5599 -13.7779 6.7451 -1.6497 7.1250 -0.0000 -0.0000 9.5269 -23.0590 5.1028
4.4645 17.9276 8.4555 -0.7307 16.6137 -3.0199 0.0000 0.0000 0.0000 -20.4639 -2.6726 -9.3989 1.8650 8.5790 24.4870 0.1961 2.3535 -9.5740 0.0005 -0.1416 -0.3891 0.0000 0.0000 0.0000 14.5947 4.3883 -10.5159 -2.1994 -9.2696 26.6423 -0.3645 2.1335 -10.8639 -0.0063 0.5128 -1.4091 -4.9409 -2.1263 12.9918 0.7322 -3.4732 1.2424 4.1636 -1.5793 -5.6276 -17.7264 -17.0166 -6.7367 19.3175 -25.1213 15.3653 5.7600 -11.5240 10.8802 -0.0000 0.0000 0.0000 -82.2859 5.7625 61.2739 83.1593 -59.8224 -54.0793 -0.0000 0.0000 -33.3773 28.6797 37.9095 18.5775 -7.1250 0.0000 -0.0000 -9.2632 71.3822 -5.8365 -0.0000 0.0000 0.0000 80.7883 -7.0383 56.5801 -82.1313 59.7647 -53.1909 0.0000 -0.0000 -10.5013 -13.1254 6.7342 -1.5662 7.1250 -0.0000 -0.0000 10.0040 -23.0903 5.3586
4.4631 17.9346 8.3981 -0.8376 16.6558 -2.8502 0.0000 0.0000 0.0000 -20.3875 -2.7406 -9.8621 1.8695 8.5888 24.5172 0.1871 2.3597 -9.3938 0.0012 -0.2220 -0.6100 0.0000 0.0000 0.0000 14.6046 4.2618 -10.9579 -2.2163 -9.3029 26.7474 -0.3973 2.2802 -11.3360 -0.0171 0.8440 -2.3196 -4.8919 -2.1281 13.3112 0.7740 -3.4839 1.1734 4.2030 -1.5746 -5.8776 -17.8491 -17.1801 -6.3748 19.6061 -25.4368 15.1940 5.8282 -11.6846 10.8831 0.0000 -0.0000 0.0000 -82.1621 5.6351 61.2687 83.0983 -59.8192 -54.0266 -0.0000 0.0000 -32.4272 27.5325 37.0329 17.4301 -7.1250 0.0000 -0.0000 -9.9102 70.1430 -5.9745 0.0000 -0.0000 0.0000 80.6960 -7.2226 56.9223 -82.4882 59.7857 -53.4993 0.0000 -0.0000 -12.2053 -13.7439 6.7159 -1.6384 7.1250 -0.0000 -0.0000 9.5532 -23.0897 5.1105
4.4688 17.9364 8.3418 -0.8144 16.4173 -2.5424 0.0000 0.0000 0.0000 -20.4402 -2.7365 -10.3869 1.8668 8.5830 24.4993 0.1863 2.4276 -9.4230 0.0031 0.3573 0.9816 0.0000 0.0000 0.0000 14.4608 3.9401 -11.7004 -2.2607 -9.3892 27.0207 -0.4469 2.8155 -11.9738 -0.0085 0.5951 -1.6352 -4.8666 -2.0518 13.3609 0.7177 -3.3835 1.2165 4.1133 -1.5273 -5.8748 -17.5759 -17.3689 -6.2313 19.8348 -25.7623 14.9004 5.8033 -11.8239 10.8184 -0.0000 0.0000 0.0000 -81.8144 5.5397 61.2395 83.8325 -59.8558 -54.6614 -0.0000 0.0000 -31.4945 27.0337 36.8226 17.0048 -7.1250 0.0000 -0.0000 -10.3726 69.7757 -6.1703 -0.0000 0.0000 0.0000 80.7405 -7.1102 56.9099 -82.7901 59.8027 -53.7601 0.0000 -0.0000 -12.8210 -13.1504 6.9000 -1.6078 7.1250 -0.0000 -0.0000 9.9766 -22.9221 5.3826
4.4663 17.9388 8.2991 -0.8914 15.9190 -2.2488 0.0000 0.0000 0.0000 -20.3136 -2.5300 -10.9368 1.8636 8.5759 24.4774 0.1776 2.5920 -9.3540 0.0028 0.3396 0.9332 0.0000 0.0000 0.0000 14.5134 3.8581 -12.4870 -2.3311 -9.5241 27.4489 -0.4977 2.8885 -12.6487 -0.0023 0.3117 -0.8565 -4.9676 -1.8639 13.1385 0.7886 -3.1306 1.3187 4.1874 -1.4099 -5.6590 -17.5313 -17.5323 -6.0652 20.1602 -26.0362 14.5514 5.8536 -11.9490 10.7695 0.0000 -0.0000 0.0000 -81.5951 5.2866 61.2777 84.1602 -59.8707 -54.9448 -0.0000 0.0000 -30.5594 26.1562 37.4952 16.6433 -7.1250 0.0000 -0.0000 -12.3256 70.1479 -7.4455 0.0000 -0.0000 0.0000 80.6399 -6.8506 56.8850 -82.9971 59.8139 -53.9391 0.0000 -0.0000 -13.7108 -12.7891 7.0245 -1.5901 7.1250 -0.0000 -0.0000 10.2327 -22.8078 5.5524
4.4623 17.9400 8.2425 -1.0759 15.9457 -2.2417 0.0000 0.0000 0.0000 -20.1325 -2.7608 -11.0918 1.8469 8.5397 24.3657 0.1677 2.6422 -9.1776 0.0266 1.0535 2.8959 0.0000 0.0000 0.0000 14.6704 3.4788 -13.0484 -2.4238 -9.6981 28.0044 -0.5612 2.4591 -13.5226 -0.0000 -0.0222 0.0610 -4.7941 -1.8839 13.4758 0.8414 -3.1429 1.3811 4.1633 -1.4157 -5.7847 -17.4679 -17.6825 -5.7673 20.4823 -26.2858 14.0956 5.9168 -12.0784 10.6507 -0.0000 0.0000 0.0000 -81.3624 5.1158 61.1992 84.6721 -59.8925 -55.3876 -0.0000 0.0000 -29.8571 25.3622 37.4190 16.0684 -7.1250 0.0000 -0.0000 -13.3059 69.8182 -7.9468 -0.0000 0.0000 0.0000 80.5730 -6.6721 57.0488 -83.3695 59.8332 -54.2610 0.0000 -0.0000 -14.2679 -12.6067 6.7814 -1.5128 7.1250 -0.0000 -0.0000 10.3795 -23.0582 5.5740
4.4572 17.9501 8.1975 -1.0774 15.8750 -2.0663 0.0000 0.0000 0.0000 -20.1332 -2.7594 -11.3881 1.8251 8.4919 24.2183 0.1677 2.5564 -9.1164 0.0324 1.1627 3.1966 0.0000 0.0000 0.0000 14.6787 3.1795 -13.5612 -2.5370 -9.9049 28.6693 -0.5959 1.7154 -14.0952 -0.0018 0.2777 -0.7629 -4.8813 -1.8790 13.5001 0.9273 -3.1454 1.3702 4.3058 -1.4132 -5.7999 -17.6261 -17.7511 -5.2327 20.7987 -26.4229 13.6515 6.0544 -12.1860 10.5020 -0.0000 0.0000 0.0000 -81.3264 4.9915 61.0303 84.7649 -59.8962 -55.4679 -0.0000 0.0000 -28.8962 25.0449 36.9601 15.6924 -7.1250 0.0000 -0.0000 -13.1977 69.2756 -7.7215 -0.0000 0.0000 0.0000 80.3209 -6.4635 57.2890 -83.7205 59.8505 -54.5645 0.0000 -0.0000 -14.7594 -12.1447 6.4332 -1.3812 7.1250 -0.0000 -0.0000 10.7384 -23.4212 5.6821
4.4466 17.9522 8.1483 -0.9901 15.8801 -2.0082 0.0000 0.0000 0.0000 -20.2334 -2.8353 -11.4691 1.7870 8.4076 23.9591 0.1509 2.6630 -8.8213 0.0340 1.1903 3.2726 0.0000 0.0000 0.0000 14.5849 3.1678 -13.9468 -2.6827 -10.1628 29.5055 -0.6261 0.7879 -14.7000 -0.0031 0.3598 -0.9887 -5.0187 -1.9104 13.6086 0.9386 -3.2076 1.5148 4.4067 -1.4468 -5.6911 -17.6230 -17.8659 -5.1857 21.0191 -26.6100 13.4658 6.0849 -12.2682 10.5062 0.0000 -0.0000 0.0000 -81.1093 4.6485 60.7879 84.8906 -59.9011 -55.5766 -0.0000 0.0000 -27.6787 24.4065 37.7149 15.5135 -7.1250 0.0000 -0.0000 -14.9278 69.7935 -8.9214 0.0000 -0.0000 0.0000 80.2914 -6.1670 57.4512 -84.2096 59.8729 -54.9875 0.0000 -0.0000 -14.8929 -11.4489 6.1749 -1.2479 7.1250 -0.0000 -0.0000 11.2647 -23.6972 5.8980
4.4353 17.9605 8.1187 -0.8768 15.8410 -2.0821 0.0000 0.0000 0.0000 -20.3501 -2.7166 -11.3183 1.7465 8.3168 23.6805 0.1478 2.6321 -8.7276 0.0468 1.3954 3.8375 0.0000 0.0000 0.0000 14.5115 2.8805 -14.0725 -2.8743 -10.4888 30.5746 -0.6714 0.4204 -15.3457 -0.0020 0.2877 -0.7905 -5.1936 -1.8920 13.7394 0.9394 -3.2158 1.5231 4.5147 -1.4448 -5.7442 -17.6837 -17.8931 -4.8243 21.1092 -26.6902 13.3538 6.1355 -12.3343 10.4423 -0.0000 0.0000 0.0000 -80.9181 4.7930 60.6747 85.0552 -59.9074 -55.7190 -0.0000 0.0000 -26.0919 23.6124 37.2142 14.8093 -7.1250 0.0000 -0.0000 -15.3559 69.0661 -8.9320 -0.0000 0.0000 0.0000 80.2679 -6.0540 57.8202 -84.3428 59.8787 -55.1027 0.0000 -0.0000 -15.0515 -11.9998 6.1172 -1.2975 7.1250 -0.0000 -0.0000 10.8654 -23.7421 5.6699
4.4218 17.9646 8.0830 -0.9843 15.9251 -2.0911 0.0000 0.0000 0.0000 -20.2336 -2.9916 -11.2495 1.7074 8.2279 23.4086 0.1309 2.8598 -8.5081 0.0419 1.3211 3.6328 0.0000 0.0000 0.0000 14.6798 2.6014 -14.3255 -3.1157 -10.8801 31.8765 -0.6768 -0.0107 -15.5531 -0.0063 0.5118 -1.4063 -5.0556 -1.9443 13.8225 0.9558 -3.2656 1.5803 4.4652 -1.4737 -5.7304 -17.5916 -18.0791 -4.7799 21.1708 -26.9889 13.3390 6.0748 -12.4659 10.4899 -0.0000 0.0000 0.0000 -80.7078 4.6687 60.4702 85.0882 -59.9086 -55.7476 -0.0000 0.0000 -23.8249 23.1266 36.6877 14.3143 -7.1250 0.0000 -0.0000 -15.3668 68.4149 -8.7137 -0.0000 0.0000 0.0000 80.2727 -5.6370 58.1048 -84.5406 59.8871 -55.2738 0.0000 -0.0000 -15.4084 -12.3611 5.9609 -1.3038 7.1250 -0.0000 -0.0000 10.6110 -23.8905 5.4956
4.4032 17.9720 8.0526 -0.9804 16.0945 -2.3186 0.0000 0.0000 0.0000 -20.2192 -2.9020 -11.0492 1.6739 8.1511 23.1738 0.1208 2.7331 -8.1635 0.0375 1.2496 3.4358 0.0000 0.0000 0.0000 14.7641 2.2519 -14.2338 -3.3923 -11.3046 33.3140 -0.7037 -0.2041 -15.9283 -0.0020 0.2912 -0.8002 -5.0774 -1.9647 14.1385 0.9478 -3.3138 1.5295 4.4971 -1.4873 -5.9533 -17.7429 -18.0741 -4.1225 21.3808 -27.0898 13.2500 6.2006 -12.5605 10.4210 0.0000 -0.0000 0.0000 -80.4396 4.9011 60.4296 85.3051 -59.9165 -55.9352 -0.0000 0.0000 -20.8931 22.7720 36.1740 13.9161 -7.1250 0.0000 -0.0000 -15.2442 67.8173 -8.4373 0.0000 -0.0000 0.0000 80.3343 -5.6052 58.3395 -84.7928 59.8973 -55.4920 0.0000 -0.0000 -15.5491 -12.5407 5.7514 -1.2770 7.1250 -0.0000 -0.0000 10.4929 -24.0971 5.3814
4.3871 17.9798 8.0256 -1.1189 16.1678 -2.4093 0.0000 0.0000 0.0000 -20.0478 -2.8214 -11.0399 1.6338 8.0577 22.8894 0.0892 2.8022 -7.3916 0.0000 0.0408 0.1122 0.0000 0.0000 0.0000 14.9740 1.9072 -14.3828 -3.7182 -11.7756 34.9427 -0.7034 -0.1719 -15.9132 -0.0015 0.2505 -0.6884 -4.9213 -1.9807 14.0748 1.0234 -3.3004 1.6041 4.4806 -1.4891 -5.8441 -17.6906 -18.1811 -4.1770 21.3239 -27.2451 13.3274 6.1318 -12.6237 10.4732 0.0000 0.0000 0.0000 -80.2844 4.6564 60.3304 85.5844 -59.9262 -56.1769 -0.0000 0.0000 -18.1751 22.3855 35.8959 13.5763 -7.1250 0.0000 -0.0000 -15.4269 67.4356 -8.4068 0.0000 0.0000 0.0000 80.3205 -5.2550 58.4370 -84.7592 59.8960 -55.4629 0.0000 -0.0000 -15.0722 -12.8179 5.7370 -1.3029 7.1250 -0.0000 -0.0000 10.2898 -24.1053 5.2719
4.3601 17.9831 8.0142 -0.9157 15.7855 -2.2632 0.0000 0.0000 0.0000 -20.1297 -2.2421 -11.1903 1.5921 7.9590 22.5896 0.0891 2.5839 -7.2044 0.0145 0.7778 2.1375 0.0000 0.0000 0.0000 14.8941 1.8902 -14.5239 -4.0765 -12.2616 36.6637 -0.7071 -0.0578 -15.9145 -0.0032 0.3670 -1.0084 -5.2652 -1.8185 13.7179 1.0038 -3.1235 1.5478 4.6058 -1.3992 -5.7087 -17.6666 -18.1780 -4.0056 21.2801 -27.2836 13.4524 6.1226 -12.6506 10.4830 -0.0000 0.0000 0.0000 -80.0116 4.8118 60.2271 86.0242 -59.9402 -56.5575 -0.0000 0.0000 -15.3799 21.5930 35.4297 12.9222 -7.1250 0.0000 -0.0000 -15.9120 66.7560 -8.4303 -0.0000 0.0000 0.0000 80.3652 -5.1375 58.6814 -85.0526 59.9073 -55.7168 0.0000 -0.0000 -14.6922 -13.2530 5.2472 -1.2339 7.1250 -0.0000 -0.0000 10.0005 -24.5902 5.0052
4.3399 17.9867 7.9900 -0.9250 16.2943 -2.5141 0.0000 0.0000 0.0000 -20.1366 -2.2587 -10.8513 1.5464 7.8495 22.2579 0.0875 2.2685 -6.9045 0.0299 1.1155 3.0667 0.0000 0.0000 0.0000 14.9110 1.0471 -14.3073 -4.4320 -12.7141 38.3074 -0.7031 0.1782 -15.7880 -0.0007 0.1648 -0.4529 -5.1690 -1.9756 13.8914 1.0304 -3.3250 1.5181 4.6251 -1.4951 -5.8171 -17.6377 -18.1700 -3.7139 21.0510 -27.2930 13.6244 6.0697 -12.6824 10.4460 0.0000 0.0000 0.0000 -79.9537 4.7353 60.1377 86.0718 -59.9416 -56.5988 -0.0000 0.0000 -12.6867 20.8627 34.8628 12.2900 -7.1250 0.0000 -0.0000 -16.2204 66.0043 -8.3182 0.0000 0.0000 0.0000 80.3622 -5.1197 58.9610 -85.4351 59.9211 -56.0477 0.0000 -0.0000 -14.4787 -13.4805 4.9379 -1.1821 7.1250 -0.0000 -0.0000 9.8522 -24.8985 4.8572
4.3111 17.9975 7.9750 -1.0944 16.7164 -2.7167 0.0000 0.0000 0.0000 -19.8922 -2.3017 -10.6085 1.5010 7.7386 21.9229 0.0751 1.9692 -6.2949 0.0040 0.4082 1.1217 0.0000 0.0000 0.0000 15.1754 0.6375 -13.9340 -4.7865 -13.1392 39.8919 -0.6904 0.0618 -15.6832 -0.0002 -0.0829 0.2279 -4.9858 -2.0613 13.8192 1.1023 -3.4016 1.5392 4.6063 -1.5391 -5.7520 -17.8348 -18.2315 -3.4147 21.3103 -27.4550 13.5421 6.1683 -12.7747 10.4749 0.0000 0.0000 0.0000 -79.6533 4.5780 60.2573 86.3431 -59.9494 -56.8336 -0.0000 0.0000 -10.1113 19.6892 34.7326 11.5234 -7.1250 0.0000 -0.0000 -17.4807 65.5463 -8.7973 0.0000 0.0000 0.0000 80.4800 -5.0765 58.9701 -86.0625 59.9413 -56.5907 0.0000 -0.0000 -13.8525 -13.8448 4.5478 -1.1195 7.1250 -0.0000 -0.0000 9.6070 -25.2872 4.6449
4.2751 18.0042 7.9625 -0.9087 17.1968 -2.9008 0.0000 0.0000 0.0000 -20.0467 -2.0788 -10.3633 1.4433 7.5950 21.4905 0.0635 1.5638 -5.6071 0.0021 -0.2927 -0.8043 0.0000 0.0000 0.0000 15.0265 0.0588 -13.3982 -5.1511 -13.5520 41.4715 -0.6610 0.0878 -15.3357 -0.0235 0.9889 -2.7182 -5.1962 -2.0751 13.7220 1.0506 -3.4470 1.6290 4.6688 -1.5650 -5.5882 -17.6717 -18.3351 -3.3102 21.1902 -27.6156 13.6067 6.0799 -12.8521 10.4658 0.0000 0.0000 0.0000 -79.4033 4.1555 60.4496 86.2562 -59.9470 -56.7584 -0.0000 0.0000 -7.9460 19.2008 33.6904 10.9336 -7.1250 0.0000 -0.0000 -17.0549 64.4246 -8.1346 0.0000 0.0000 0.0000 80.6575 -4.8219 58.8996 -86.2985 59.9482 -56.7949 0.0000 -0.0000 -13.2471 -14.1596 4.4021 -1.1094 7.1250 -0.0000 -0.0000 9.3814 -25.4298 4.5014
4.2356 18.0152 7.9485 -0.8802 17.6687 -2.9415 0.0000 0.0000 0.0000 -19.9951 -2.0104 -10.2972 1.3876 7.4532 21.0651 0.0542 1.1387 -4.9719 0.0059 -0.4977 -1.3677 0.0000 0.0000 0.0000 15.0378 -0.0218 -12.8987 -5.5189 -13.9453 43.0189 -0.6339 0.2926 -14.9477 -0.0375 1.2498 -3.4365 -5.2037 -2.1586 13.5214 1.0968 -3.5464 1.6027 4.7278 -1.6168 -5.4904 -17.7897 -18.3798 -3.2559 21.1109 -27.6859 13.7261 6.0556 -12.8917 10.5167 -0.0000 0.0000 0.0000 -79.1977 3.6132 60.7670 85.7732 -59.9324 -56.3403 -0.0000 0.0000 -6.1366 17.9068 33.5596 10.1276 -7.1250 0.0000 -0.0000 -18.4140 63.9505 -8.6002 -0.0000 0.0000 0.0000 80.7239 -4.5600 59.0789 -86.3675 59.9501 -56.8546 0.0000 -0.0000 -12.6601 -14.5311 4.2926 -1.1114 7.1250 -0.0000 -0.0000 9.1106 -25.5348 4.3456
4.1849 18.0146 7.9293 -0.8891 18.2114 -3.2155 0.0000 0.0000 0.0000 -19.8784 -1.9208 -10.0573 1.3502 7.3560 20.7744 0.0478 0.6984 -4.4487 0.0223 -0.9644 -2.6510 0.0000 0.0000 0.0000 15.1387 -0.2106 -12.0124 -5.8760 -14.3071 44.4820 -0.6034 0.5039 -14.5122 -0.0531 1.4877 -4.0918 -5.2361 -2.1416 13.6009 1.1027 -3.5306 1.6472 4.7528 -1.6091 -5.4864 -17.6305 -18.4532 -3.1110 21.1243 -27.8148 13.6770 6.0241 -12.9545 10.4783 -0.0000 -0.0000 0.0000 -78.6861 2.4206 61.7137 84.5565 -59.8877 -55.2876 -0.0000 0.0000 -4.6893 15.9772 34.9509 9.3148 -7.1250 0.0000 -0.0000 -21.9594 64.7127 -10.7180 -0.0000 -0.0000 0.0000 80.8910 -4.5760 59.0098 -86.8600 59.9627 -57.2810 0.0000 -0.0000 -12.2538 -14.9110 4.3669 -1.1616 7.1250 -0.0000 -0.0000 8.8216 -25.4520 4.2218
4.1330 18.0139 7.9158 -0.7556 18.9070 -3.3764 0.0000 0.0000 0.0000 -19.8971 -1.9484 -9.9522 1.3398 7.3288 20.6932 0.0403 0.0846 -3.8217 0.0788 -1.8103 -4.9817 0.0000 0.0000 0.0000 15.0388 -0.4159 -11.1220 -6.1882 -14.6083 45.7324 -0.5845 0.8745 -14.1685 -0.0859 1.8901 -5.2021 -5.3711 -2.2209 13.5050 1.1005 -3.6519 1.6023 4.8426 -1.6661 -5.4587 -17.9475 -18.4500 -2.7072 21.3723 -27.8890 13.6065 6.1649 -13.0206 10.4914 -0.0000 0.0000 0.0000 -78.4562 1.9551 62.2909 84.2164 -59.8732 -54.9934 -0.0000 0.0000 -3.7827 15.2995 35.5991 9.0479 -7.1250 0.0000 -0.0000 -23.4159 65.1106 -11.6800 -0.0000 0.0000 0.0000 81.0078 -4.6938 58.9562 -87.2977 59.9724 -57.6600 0.0000 -0.0000 -11.6363 -14.6308 4.2247 -1.1017 7.1250 -0.0000 -0.0000 9.0401 -25.6023 4.2968
4.0616 18.0125 7.8894 -0.9073 19.4551 -3.6616 0.0000 0.0000 0.0000 -19.5286 -2.0725 -10.0964 1.3822 7.4393 21.0235 0.0344 -0.5637 -3.3492 0.1103 -2.1415 -5.8969 0.0000 0.0000 0.0000 15.3397 -0.3552 -10.0844 -6.4599 -14.8597 46.8007 -0.5238 1.9251 -13.1444 -0.0055 0.4793 -1.3170 -5.3299 -2.2089 13.6200 1.1216 -3.6367 1.5316 4.8492 -1.6521 -5.6005 -17.6794 -18.5467 -2.5497 20.9576 -28.0051 13.7915 5.9844 -13.0895 10.4334 -0.0000 0.0000 0.0000 -78.1600 1.5356 62.8767 83.9281 -59.8602 -54.7440 -0.0000 0.0000 -3.4054 14.5453 35.4642 8.5609 -7.1250 0.0000 -0.0000 -24.1050 64.7808 -11.8587 -0.0000 0.0000 0.0000 81.2303 -4.7453 59.1645 -87.7493 59.9809 -58.0509 0.0000 -0.0000 -11.8079 -15.3000 3.9630 -1.0832 7.1250 -0.0000 -0.0000 8.5542 -25.8586 4.0090
3.9791 18.0056 7.8651 -1.0192 19.7235 -3.9198 0.0000 0.0000 0.0000 -19.1066 -1.8037 -10.5606 1.4599 7.6364 21.6152 0.0285 -1.4592 -3.0151 0.1679 -2.6394 -7.2763 0.0000 0.0000 0.0000 15.6570 -0.0070 -8.9572 -6.7024 -15.0761 47.7397 -0.5400 2.3833 -13.2675 -0.0230 0.9782 -2.6888 -5.5266 -2.0697 13.5578 1.2689 -3.4681 1.5680 5.0839 -1.5676 -5.5261 -17.8925 -18.6034 -2.1478 21.1320 -28.1001 13.4896 6.0817 -13.1742 10.3388 0.0000 -0.0000 0.0000 -78.0073 0.9286 63.5420 83.7158 -59.8502 -54.5604 -0.0000 0.0000 -3.1119 14.9787 35.8395 8.9033 -7.1250 0.0000 -0.0000 -24.0422 65.2358 -12.0784 0.0000 -0.0000 0.0000 81.3126 -4.5979 58.9310 -88.0729 59.9860 -58.3312 0.0000 -0.0000 -10.6772 -15.2627 3.9758 -1.0839 7.1250 -0.0000 -0.0000 8.5814 -25.8461 4.0245
3.8981 17.9943 7.8361 -0.9943 20.1651 -4.0456 0.0000 0.0000 0.0000 -18.8548 -1.8150 -11.0333 1.5326 7.8159 22.1564 0.0177 -2.1871 -2.6294 0.1165 -2.2003 -6.0595 0.0000 0.0000 0.0000 15.8051 0.2678 -7.8397 -6.8904 -15.2389 48.4587 -0.5755 2.4810 -13.6955 -0.0712 1.7220 -4.7380 -5.6602 -1.9830 13.4551 1.2789 -3.3668 1.5607 5.1478 -1.5165 -5.4812 -17.9283 -18.6486 -1.9398 21.2285 -28.1844 13.3584 6.1174 -13.2290 10.2963 0.0000 0.0000 0.0000 -77.6722 0.5554 64.1699 83.8224 -59.8553 -54.6526 -0.0000 0.0000 -2.1608 14.6872 35.7700 8.7105 -7.1250 0.0000 -0.0000 -24.2880 65.0926 -12.1285 0.0000 0.0000 0.0000 81.4074 -4.5960 59.1236 -89.0275 59.9964 -59.1578 0.0000 -0.0000 -11.0198 -16.0803 3.6091 -1.0396 7.1250 -0.0000 -0.0000 7.9871 -26.2096 3.6719
3.8041 17.9814 7.7973 -1.2445 20.6204 -4.4474 0.0000 0.0000 0.0000 -18.3111 -1.9325 -11.3544 1.6161 8.0161 22.7629 0.0052 -2.7271 -2.2119 0.1540 -2.5286 -6.9690 0.0000 0.0000 0.0000 16.3464 0.7138 -6.4577 -7.0054 -15.3364 48.8946 -0.5667 2.5769 -13.5720 -0.1472 2.4728 -6.8142 -5.5804 -1.8771 13.6097 1.3934 -3.2130 1.6492 5.2047 -1.4429 -5.4896 -17.8452 -18.8060 -2.1645 21.0359 -28.3635 13.4703 5.9769 -13.2933 10.3652 0.0000 -0.0000 0.0000 -77.5370 -0.2632 64.8185 83.5164 -59.8406 -54.3881 -0.0000 0.0000 -0.8028 15.1943 35.2479 8.9079 -7.1250 0.0000 -0.0000 -23.1493 64.7658 -11.3562 0.0000 -0.0000 0.0000 81.5657 -4.3795 59.1513 -89.3472 59.9984 -59.4347 0.0000 -0.0000 -10.8072 -14.4747 3.5081 -0.9050 7.1250 -0.0000 -0.0000 9.2052 -26.3354 4.2173
3.7185 17.9695 7.7539 -1.3915 20.6261 -4.5291 0.0000 0.0000 0.0000 -17.8545 -2.1629 -11.8889 1.7094 8.2325 23.4225 0.0015 -2.8121 -2.0595 0.2144 -2.9812 -8.2265 0.0000 0.0000 0.0000 16.7499 1.5265 -5.2629 -7.0540 -15.3772 49.0782 -0.4829 3.4807 -12.3983 -0.1138 2.1748 -5.9890 -5.5063 -1.6835 13.1531 1.4755 -2.9127 1.7794 5.1713 -1.3132 -5.1362 -17.8508 -18.9410 -2.1839 20.9544 -28.5273 13.4480 5.9072 -13.3704 10.3805 0.0000 -0.0000 0.0000 -77.4544 -1.0500 65.2135 83.2374 -59.8265 -54.1469 -0.0000 -0.0000 1.1417 15.6768 34.8650 9.1144 -7.1250 0.0000 -0.0000 -22.2057 64.5522 -10.7614 0.0000 -0.0000 0.0000 81.4262 -3.7173 59.5305 -89.4832 59.9990 -59.5524 0.0000 -0.0000 -10.5195 -16.4455 3.7480 -1.1054 7.1250 -0.0000 -0.0000 7.7036 -26.0603 3.5664
3.6249 17.9525 7.7137 -1.2919 20.9535 -4.6947 0.0000 0.0000 0.0000 -17.6828 -2.2187 -12.3401 1.7850 8.4032 23.9455 -0.0108 -3.3359 -1.7446 0.2332 -3.1080 -8.5796 0.0000 0.0000 0.0000 16.8769 1.9573 -3.9617 -7.0423 -15.3674 49.0339 -0.4481 4.3367 -11.9078 -0.1024 2.0636 -5.6814 -5.6061 -1.5533 12.9787 1.4195 -2.7469 1.8155 5.1318 -1.2354 -5.0206 -17.9201 -18.9563 -1.8320 21.1212 -28.6087 13.3478 5.9858 -13.4314 10.3417 -0.0000 0.0000 0.0000 -77.2822 -1.5411 65.6071 83.2826 -59.8288 -54.1859 -0.0000 -0.0000 2.8473 16.0220 34.9614 9.3443 -7.1250 0.0000 -0.0000 -21.9202 64.7346 -10.7091 -0.0000 0.0000 0.0000 81.3167 -3.0582 60.0886 -89.2278 59.9977 -59.3313 0.0000 -0.0000 -9.8877 -15.6850 3.2933 -0.9242 7.1250 -0.0000 -0.0000 8.3049 -26.5402 3.7559
3.5206 17.9212 7.6523 -1.3309 21.3561 -5.0981 0.0000 0.0000 0.0000 -17.3628 -2.3114 -12.5079 1.8424 8.5298 24.3352 -0.0240 -3.8587 -1.4803 0.2261 -3.0607 -8.4478 0.0000 0.0000 0.0000 17.1661 2.2408 -2.6008 -6.9542 -15.2932 48.7011 -0.4162 5.5476 -11.5465 -0.1329 2.3497 -6.4731 -5.5168 -1.4692 13.1995 1.3850 -2.6357 1.8385 5.0365 -1.1780 -5.1382 -17.9584 -19.0300 -1.4511 21.1340 -28.7480 13.2707 5.9991 -13.5278 10.2839 0.0000 -0.0000 0.0000 -77.2284 -1.9650 65.7601 83.1385 -59.8214 -54.0613 -0.0000 -0.0000 4.0641 15.5964 34.9127 9.0767 -7.1250 0.0000 -0.0000 -22.3452 64.5735 -10.8432 0.0000 -0.0000 0.0000 81.2263 -2.5102 60.5340 -89.0661 59.9967 -59.1912 0.0000 -0.0000 -9.2295 -15.7040 3.3436 -0.9395 7.1250 -0.0000 -0.0000 8.2873 -26.4882 3.7580
3.4192 17.9030 7.6015 -1.2928 21.3484 -5.2361 0.0000 0.0000 0.0000 -17.0873 -2.1168 -12.8766 1.8814 8.6146 24.5969 -0.0338 -4.2059 -1.2968 0.2342 -3.1147 -8.5983 0.0000 0.0000 0.0000 17.4287 2.8969 -1.2426 -6.7695 -15.1347 47.9972 -0.3620 6.8825 -11.0364 -0.1564 2.5484 -7.0239 -5.5041 -1.2919 12.9857 1.3511 -2.3928 1.7285 4.9474 -1.0556 -5.1691 -18.0072 -19.0741 -1.1741 20.8562 -28.8597 13.6378 5.9163 -13.6009 10.3431 -0.0000 0.0000 0.0000 -77.2730 -1.8635 65.6645 83.3030 -59.8298 -54.2035 -0.0000 -0.0000 4.8583 15.7233 35.3024 9.2406 -7.1250 0.0000 -0.0000 -22.6175 64.9613 -11.1846 -0.0000 0.0000 0.0000 81.0558 -2.0502 61.2236 -88.8381 59.9949 -58.9938 0.0000 -0.0000 -8.6175 -15.8575 3.3113 -0.9400 7.1250 -0.0000 -0.0000 8.1732 -26.5195 3.6992
3.3098 17.8700 7.5390 -0.8968 21.5745 -5.1906 0.0000 0.0000 0.0000 -17.2454 -2.0670 -13.2502 1.8983 8.6509 24.7092 -0.0418 -4.3852 -1.0330 0.2770 -3.3852 -9.3531 0.0000 0.0000 0.0000 17.2340 3.1630 -0.0667 -6.4987 -14.8948 46.9517 -0.2939 8.1061 -10.4541 -0.1597 2.5745 -7.0964 -5.8068 -1.1979 12.6393 1.2560 -2.2961 1.7343 4.9875 -1.0108 -4.9751 -18.0889 -19.1356 -1.0459 20.6568 -28.9597 13.8570 5.8488 -13.6605 10.3942 0.0000 -0.0000 0.0000 -77.4096 -1.9532 65.2402 83.2438 -59.8268 -54.1523 -0.0000 -0.0000 5.9743 15.9529 35.1152 9.3376 -7.1250 0.0000 -0.0000 -22.1599 64.8553 -10.8935 0.0000 -0.0000 0.0000 80.7754 -1.2781 61.9420 -88.6670 59.9933 -58.8456 0.0000 -0.0000 -8.2581 -16.0428 3.4477 -0.9907 7.1250 -0.0000 -0.0000 8.0247 -26.3765 3.6579
3.1830 17.8376 7.4683 -0.7552 21.6540 -5.4152 0.0000 0.0000 0.0000 -17.0558 -1.9334 -13.5140 1.9026 8.6602 24.7381 -0.0514 -4.5102 -0.5383 0.2619 -3.2925 -9.0941 0.0000 0.0000 0.0000 17.4369 3.5179 1.3024 -6.1189 -14.5425 45.4569 -0.2100 8.7316 -9.5299 -0.1963 2.8531 -7.8702 -5.8435 -1.0348 12.7568 1.1304 -2.1029 1.6090 4.8524 -0.9044 -5.2012 -17.9758 -19.1947 -0.6095 20.3779 -29.0920 14.0970 5.7610 -13.7550 10.3581 0.0000 -0.0000 0.0000 -77.4778 -1.5817 64.5878 83.5830 -59.8438 -54.4456 -0.0000 -0.0000 7.5171 14.9047 35.9993 8.8916 -7.1250 0.0000 -0.0000 -24.3062 65.3572 -12.2861 0.0000 -0.0000 0.0000 80.7226 -0.8557 62.6678 -88.3449 59.9896 -58.5667 0.0000 -0.0000 -7.3548 -16.5571 3.5327 -1.0495 7.1250 -0.0000 -0.0000 7.6310 -26.2809 3.4925
3.0392 17.8164 7.3810 -0.4314 21.6311 -5.3533 0.0000 0.0000 0.0000 -16.9939 -1.8495 -13.9294 1.8811 8.6139 24.5947 -0.0574 -4.5527 -0.0875 0.2467 -3.1961 -8.8251 0.0000 0.0000 0.0000 17.5269 4.0304 2.5602 -5.5471 -13.9746 43.1356 -0.1146 8.8356 -8.1599 -0.2201 3.0201 -8.3346 -6.2773 -0.8800 12.7303 1.1093 -1.9605 1.5241 5.0547 -0.8208 -5.2804 -17.9511 -19.3215 -0.7598 20.0157 -29.2777 14.5961 5.5782 -13.8250 10.5295 0.0000 -0.0000 0.0000 -77.8782 -1.2624 63.6743 83.6888 -59.8490 -54.5371 -0.0000 -0.0000 8.1573 15.4649 35.2865 9.0802 -7.1250 0.0000 -0.0000 -22.8894 64.8754 -11.2802 0.0000 -0.0000 0.0000 80.5224 -0.0301 63.4852 -87.7059 59.9801 -58.0134 0.0000 -0.0000 -6.4152 -16.8110 3.5418 -1.0693 7.1250 -0.0000 -0.0000 7.4385 -26.2674 3.4053
2.9179 17.7902 7.3144 -0.1740 22.0958 -5.2028 0.0000 0.0000 0.0000 -16.9973 -2.0346 -14.4077 1.8852 8.6228 24.6223 -0.0677 -4.7947 0.3410 0.2219 -3.0325 -8.3692 0.0000 0.0000 0.0000 17.4780 3.7721 4.0102 -4.7799 -13.1316 39.8630 -0.0276 9.9195 -7.4098 -0.1786 2.7219 -7.5053 -6.2066 -0.9153 12.1569 0.9296 -1.9712 1.5081 4.8040 -0.8404 -4.9867 -17.9083 -19.4243 -0.6642 19.9857 -29.4591 14.7026 5.5293 -13.9088 10.5760 -0.0000 -0.0000 0.0000 -78.1655 -0.9388 62.8995 83.7451 -59.8516 -54.5858 -0.0000 -0.0000 8.4821 17.1957 34.7063 9.9931 -7.1250 0.0000 -0.0000 -20.3321 64.8245 -9.9439 -0.0000 -0.0000 0.0000 80.6662 0.7466 63.8251 -87.5555 59.9774 -57.8832 0.0000 -0.0000 -6.6752 -15.7808 3.5382 -0.9992 7.1250 -0.0000 -0.0000 8.2175 -26.2871 3.7648
2.7567 17.7730 7.2613 -1.6885 21.9735 -5.7891 0.0000 0.0000 0.0000 -14.9111 -1.4317 -15.2358 1.9217 8.7011 24.8646 -0.0978 -5.6774 0.7326 0.2804 -3.4058 -9.4106 0.0000 0.0000 0.0000 19.6768 3.8317 5.8185 -4.0494 -12.2259 36.5358 -0.1349 10.2803 -9.2208 -0.1881 2.7934 -7.7041 -5.0352 -0.8505 11.4789 1.4012 -1.6684 1.6248 4.5671 -0.7271 -4.5450 -18.0262 -19.5468 -0.5715 20.0807 -29.6510 14.6241 5.5338 -14.0039 10.6087 0.0000 -0.0000 0.0000 -78.5918 -0.5545 61.9964 84.2501 -59.8747 -55.0225 -0.0000 -0.0000 8.6157 18.1264 35.6773 10.8090 -7.1250 0.0000 -0.0000 -20.2874 65.9808 -10.4613 0.0000 -0.0000 0.0000 80.6146 1.2925 64.1284 -87.4565 59.9755 -57.7974 0.0000 -0.0000 -5.9407 -15.9218 3.4040 -0.9704 7.1250 -0.0000 -0.0000 8.1188 -26.4232 3.6926
2.6184 17.7619 7.1514 -1.4985 22.1352 -5.6838 0.0000 0.0000 0.0000 -14.8251 -1.8849 -15.6335 1.9055 8.6663 24.7570 -0.0895 -5.3602 1.0875 0.2619 -3.2927 -9.0947 0.0000 0.0000 0.0000 19.5885 3.0719 6.9089 -3.5097 -11.4776 33.9082 -0.3051 9.8628 -11.2267 -0.5690 4.8310 -13.4273 -4.7758 -0.7914 11.2894 1.1790 -1.5615 1.5720 4.1647 -0.6798 -4.5213 -17.8614 -19.6461 -0.2544 20.1925 -29.8296 14.4336 5.5443 -14.1036 10.5155 -0.0000 0.0000 0.0000 -78.7416 -0.0789 60.8616 84.9930 -59.9051 -55.6652 -0.0000 -0.0000 8.8761 17.1941 35.5330 10.1950 -7.1250 0.0000 -0.0000 -21.2031 65.5829 -10.7584 -0.0000 0.0000 0.0000 80.9062 1.8201 64.4762 -87.1689 59.9697 -57.5485 0.0000 -0.0000 -5.5328 -16.3028 3.4438 -1.0065 7.1250 -0.0000 -0.0000 7.8283 -26.3767 3.5667
2.4928 17.7514 7.0106 -1.3215 22.6290 -5.6018 0.0000 0.0000 0.0000 -14.8731 -2.6949 -15.6214 1.7803 8.3926 23.9131 -0.0687 -4.6499 1.9805 0.1781 -2.7183 -7.4955 0.0000 0.0000 0.0000 19.2983 1.8051 7.4334 -3.0668 -10.8024 31.6163 -0.3161 11.2257 -11.9175 -0.3166 3.6172 -10.0020 -4.2905 -0.8129 11.5311 1.0142 -1.5516 1.4525 3.7239 -0.6741 -4.8002 -18.0423 -19.8773 -0.1641 20.4297 -30.2252 14.3938 5.5478 -14.2827 10.6453 0.0000 -0.0000 0.0000 -79.1163 0.2634 60.0620 85.4064 -59.9201 -56.0229 -0.0000 -0.0000 8.3757 17.3997 35.2170 10.2437 -7.1250 0.0000 -0.0000 -20.6294 65.3515 -10.3461 0.0000 -0.0000 0.0000 80.9382 2.1575 64.6660 -87.4315 59.9751 -57.7758 0.0000 -0.0000 -5.6125 -15.9223 3.1602 -0.9010 7.1250 -0.0000 -0.0000 8.1334 -26.6741 3.6510
2.3583 17.7444 6.8708 -0.8196 23.0887 -5.3736 0.0000 0.0000 0.0000 -15.2245 -3.5383 -15.4041 1.6060 7.9921 22.6900 -0.0382 -3.7683 2.9451 0.2047 -2.9130 -8.0367 0.0000 0.0000 0.0000 18.7235 0.4587 7.7687 -2.6522 -10.1095 29.3321 -0.4797 11.0750 -13.6107 -0.3025 3.5361 -9.7749 -4.1450 -0.8205 11.6262 0.7887 -1.5594 1.4276 3.4085 -0.6794 -4.8889 -18.0285 -20.0669 -0.1861 20.4379 -30.4702 14.2654 5.4835 -14.3945 10.6531 -0.0000 0.0000 0.0000 -79.6407 0.7274 59.0008 86.0593 -59.9412 -56.5879 -0.0000 -0.0000 8.2744 17.2512 34.9050 10.0758 -7.1250 0.0000 -0.0000 -20.4728 65.0230 -10.1094 -0.0000 0.0000 0.0000 80.8943 2.5098 64.8371 -87.7307 59.9805 -58.0348 0.0000 -0.0000 -5.7186 -15.7046 3.7835 -1.0629 7.1250 -0.0000 -0.0000 8.2603 -26.0361 3.8338
2.1708 17.7447 6.7437 -0.8935 23.0736 -5.3950 0.0000 0.0000 0.0000 -14.6770 -3.7063 -15.5501 1.4693 7.6601 21.6864 -0.0114 -3.2269 3.9542 0.2497 -3.2154 -8.8790 0.0000 0.0000 0.0000 19.2390 -0.0604 8.2819 -2.2519 -9.3721 26.9664 -0.5209 10.9601 -13.9904 -0.1376 2.3905 -6.5861 -4.1818 -0.5984 11.6590 0.8188 -1.2685 1.4501 3.4173 -0.5347 -4.9075 -17.9804 -20.1519 0.0182 20.8429 -30.6377 13.8966 5.5893 -14.4763 10.5931 -0.0000 0.0000 0.0000 -80.0296 1.1467 58.2130 86.7867 -59.9609 -57.2176 -0.0000 -0.0000 7.9697 18.6129 34.5000 10.7999 -7.1250 0.0000 -0.0000 -18.5031 65.0257 -9.1051 -0.0000 0.0000 0.0000 81.0114 2.7806 64.9045 -87.7133 59.9802 -58.0198 0.0000 -0.0000 -5.3316 -16.0421 3.9375 -1.1311 7.1250 -0.0000 -0.0000 7.9973 -25.8720 3.7404
1.9743 17.7412 6.6398 -2.2163 22.9229 -5.8795 0.0000 0.0000 0.0000 -12.7411 -3.7644 -15.7785 1.3552 7.3692 20.8138 0.0185 -2.6395 4.7635 0.1121 -2.1592 -5.9459 0.0000 0.0000 0.0000 21.3015 -0.3483 8.9585 -1.8986 -8.6516 24.7115 -0.6523 9.7040 -14.9433 -0.1435 2.4410 -6.7261 -3.3372 -0.4098 11.4572 1.2703 -0.8786 1.5572 3.3487 -0.3601 -4.7230 -17.7812 -20.3584 -0.0494 20.7996 -30.8596 13.6336 5.4920 -14.5761 10.5136 0.0000 0.0000 0.0000 -80.5381 1.3254 57.4734 87.1691 -59.9697 -57.5486 -0.0000 -0.0000 7.4556 18.9606 33.9873 10.8714 -7.1250 0.0000 -0.0000 -17.6078 64.6398 -8.4941 0.0000 0.0000 0.0000 81.0385 3.0382 64.9237 -87.6997 59.9800 -58.0080 0.0000 -0.0000 -4.6864 -15.8080 3.9475 -1.1166 7.1250 -0.0000 -0.0000 8.1729 -25.8658 3.8253
1.8197 17.7499 6.5033 -2.6795 22.8883 -6.0658 0.0000 0.0000 0.0000 -11.8682 -4.3497 -15.7412 1.2531 7.0968 20.0025 0.0516 -1.6242 5.2146 0.0758 -1.7756 -4.8858 0.0000 0.0000 0.0000 22.0512 -0.7031 9.2579 -1.6217 -8.0291 22.8026 -0.6627 9.8354 -15.0757 -0.0020 0.2900 -0.7968 -2.6222 -0.3079 11.5427 1.3431 -0.6521 1.5723 2.9869 -0.2591 -4.7806 -17.8343 -20.4326 0.0324 21.1554 -31.0022 13.3668 5.5825 -14.6400 10.5153 0.0000 0.0000 0.0000 -80.9644 1.7762 56.9021 87.6260 -59.9787 -57.9442 -0.0000 -0.0000 6.2811 19.5790 31.9294 10.6532 -7.1250 0.0000 -0.0000 -15.1208 62.8380 -6.6296 0.0000 0.0000 0.0000 80.9911 3.0604 65.0943 -87.8116 59.9819 -58.1049 0.0000 -0.0000 -4.0214 -15.3794 4.1910 -1.1516 7.1250 -0.0000 -0.0000 8.4809 -25.6234 4.0210
1.6755 17.7373 6.3672 -3.1487 22.7846 -6.2410 0.0000 0.0000 0.0000 -10.9406 -5.3503 -15.4702 1.1592 6.8353 19.2283 0.0506 -0.0991 4.2861 0.0913 -1.9483 -5.3627 0.0000 0.0000 0.0000 22.8101 -0.7536 9.2850 -1.4447 -7.5983 21.5006 -0.6986 9.8973 -15.4353 -0.0000 0.0271 -0.0745 -1.8596 -0.2545 11.6211 1.4137 -0.4828 1.5497 2.6044 -0.1869 -4.8658 -17.9369 -20.4673 0.0520 21.4780 -31.0913 13.1838 5.6733 -14.6751 10.5495 0.0000 0.0000 0.0000 -81.3496 2.3440 56.1353 88.3961 -59.9903 -58.6110 -0.0000 -0.0000 5.5742 19.8092 31.0195 10.5157 -7.1250 0.0000 -0.0000 -14.1671 62.0131 -5.9269 0.0000 0.0000 0.0000 80.8684 3.0243 65.4140 -88.2390 59.9883 -58.4750 0.0000 -0.0000 -3.5884 -15.4614 4.3783 -1.2097 7.1250 -0.0000 -0.0000 8.4087 -25.4297 4.0244
1.5344 17.7208 6.2268 -3.1722 22.6626 -6.2542 0.0000 0.0000 0.0000 -10.4493 -6.4950 -15.0662 1.1077 6.6870 18.7914 0.0116 0.8005 1.9120 0.1333 -2.3535 -6.4837 0.0000 0.0000 0.0000 23.1143 -0.6710 9.2768 -1.3092 -7.2479 20.4519 -0.7475 10.0633 -15.9324 -0.0000 0.0261 -0.0716 -1.5320 -0.1461 11.7544 1.2954 -0.3055 1.4843 2.2692 -0.1040 -5.0213 -17.8084 -20.5032 -0.0009 21.6630 -31.2006 13.2304 5.6855 -14.7014 10.6165 0.0000 -0.0000 0.0000 -81.4437 3.1831 55.6405 89.8828 -59.9999 -59.8985 -0.0000 -0.0000 4.7599 20.1122 31.2494 10.7561 -7.1250 0.0000 -0.0000 -13.9943 62.3148 -5.9527 0.0000 -0.0000 0.0000 80.6615 2.8231 65.8065 -89.0103 59.9963 -59.1429 0.0000 -0.0000 -2.9818 -15.8423 4.8213 -1.3663 7.1250 -0.0000 -0.0000 8.1004 -24.9664 3.9621
1.3978 17.7096 6.0850 -3.0889 22.5859 -6.2129 0.0000 0.0000 0.0000 -10.1626 -7.0564 -14.8633 1.0577 6.5391 18.3569 -0.0020 0.8127 -0.4852 0.0798 -1.8223 -5.0147 0.0000 0.0000 0.0000 23.2920 -0.5671 8.9874 -1.2384 -7.0566 19.8831 -0.7890 10.3233 -16.3694 -0.0002 -0.0850 0.2335 -1.3534 -0.1748 11.9957 1.2359 -0.3260 1.4083 2.1123 -0.1152 -5.2356 -17.7296 -20.4389 0.0213 21.9283 -31.1437 13.0768 5.7807 -14.6667 10.5876 -0.0000 0.0000 0.0000 -81.7049 3.9067 54.9450 91.0849 -59.9956 -60.9395 -0.0000 -0.0000 3.6514 19.2965 30.5146 10.0807 -7.1250 0.0000 -0.0000 -14.3764 61.3922 -5.8050 -0.0000 0.0000 0.0000 80.4041 2.8775 66.4750 -89.2210 59.9977 -59.3254 0.0000 -0.0000 -1.9963 -16.3898 5.2204 -1.5330 7.1250 -0.0000 -0.0000 7.6737 -24.5411 3.8261
1.2656 17.7053 5.9461 -2.7137 22.5898 -6.0718 0.0000 0.0000 0.0000 -10.4340 -6.4679 -14.9136 0.9984 6.3589 17.8293 0.0132 0.0643 -2.1958 0.2270 -3.0667 -8.4645 0.0000 0.0000 0.0000 23.2383 -0.2181 8.5084 -1.2309 -7.0360 19.8219 -0.8341 10.2864 -16.7656 -0.0024 -0.3141 0.8630 -1.5809 -0.2274 12.1109 1.1803 -0.4301 1.4091 2.2010 -0.1616 -5.2926 -17.6533 -20.4900 -0.1293 21.9639 -31.2035 13.0382 5.7516 -14.6773 10.6077 0.0000 -0.0000 0.0000 -82.0151 4.4996 54.2995 92.3636 -59.9789 -62.0468 -0.0000 -0.0000 2.1323 18.4407 31.7115 9.9414 -7.1250 0.0000 -0.0000 -16.2314 62.3351 -6.9374 0.0000 -0.0000 0.0000 79.9749 3.0503 67.0771 -89.6790 59.9996 -59.7220 0.0000 -0.0000 -1.1477 -16.3137 5.6691 -1.6561 7.1250 -0.0000 -0.0000 7.7113 -24.0803 3.9281
1.1354 17.7139 5.7992 -2.2948 22.5518 -5.8919 0.0000 0.0000 0.0000 -10.6184 -6.6174 -14.6567 0.9405 6.1770 17.2989 0.0365 0.7877 -3.9912 0.2106 -2.9545 -8.1522 0.0000 0.0000 0.0000 23.1263 0.3750 7.7585 -1.2858 -7.1855 20.2662 -0.8261 10.2977 -16.6965 -0.0048 -0.4453 1.2237 -1.8670 -0.2934 12.4644 1.0660 -0.5683 1.2894 2.2716 -0.2195 -5.6068 -17.6571 -20.4920 -0.3768 22.2062 -31.3080 13.2911 5.7736 -14.6756 10.8194 -0.0000 -0.0000 0.0000 -82.0676 5.1453 53.9733 93.1644 -59.9621 -62.7401 -0.0000 -0.0000 0.3942 18.5898 32.4496 10.2298 -7.1250 0.0000 -0.0000 -16.6651 63.0801 -7.4204 -0.0000 -0.0000 0.0000 79.4827 3.3483 67.9738 -89.5490 59.9992 -59.6094 0.0000 -0.0000 -0.1111 -15.5969 6.6768 -1.8589 7.1250 -0.0000 -0.0000 8.1989 -23.0671 4.3745
1.0090 17.7343 5.6635 -2.2127 22.5531 -5.8669 0.0000 0.0000 0.0000 -10.5843 -6.1950 -14.7435 0.9566 6.2280 17.4474 0.0570 1.2853 -5.1781 0.3228 -3.6517 -10.0987 0.0000 0.0000 0.0000 23.3362 0.9528 6.9126 -1.3592 -7.3796 20.8448 -0.7919 10.2374 -16.3766 -0.0103 -0.6551 1.8002 -1.9043 -0.4027 12.6071 1.0616 -0.7213 1.2406 2.3170 -0.2917 -5.7294 -17.7101 -20.4638 -0.2384 22.5170 -31.3376 13.1755 5.8867 -14.6909 10.8356 0.0000 0.0000 0.0000 -82.1592 5.6475 53.8174 93.2881 -59.9591 -62.8472 -0.0000 0.0000 -1.2933 17.8175 33.3711 10.0257 -7.1250 0.0000 -0.0000 -18.3425 63.7495 -8.4797 0.0000 0.0000 0.0000 79.0704 3.4517 68.6383 -89.5126 59.9991 -59.5779 0.0000 0.0000 0.6962 -16.6503 7.0250 -2.0948 7.1250 -0.0000 -0.0000 7.4160 -22.6682 4.0178
0.9149 17.7642 5.5196 -2.6764 22.7836 -6.0107 0.0000 0.0000 0.0000 -10.1453 -6.1644 -15.0941 1.0939 6.6466 18.6725 0.0734 2.0226 -6.2836 0.1911 -2.8156 -7.7657 0.0000 0.0000 0.0000 23.7853 0.9094 5.9689 -1.4055 -7.4990 21.2025 -0.7099 10.6288 -15.7174 -0.0337 -1.1841 3.2555 -1.1935 -0.7223 12.6020 1.2207 -1.0360 1.2508 2.1360 -0.4613 -5.7085 -17.5916 -20.5016 0.1489 22.6324 -31.3550 12.7135 5.9515 -14.7453 10.6063 0.0000 -0.0000 0.0000 -82.4350 5.8845 53.6529 92.5324 -59.9758 -62.1929 -0.0000 0.0000 -2.6646 16.8524 33.0852 9.3893 -7.1250 0.0000 -0.0000 -19.1672 63.2262 -8.6401 0.0000 -0.0000 0.0000 78.5679 3.5252 69.2428 -89.2344 59.9978 -59.3370 0.0000 0.0000 1.7346 -18.2291 7.4334 -2.4398 7.1250 -0.0000 -0.0000 6.2541 -22.1742 3.4512
0.8027 17.7859 5.3899 -2.6492 22.8961 -5.9960 0.0000 0.0000 0.0000 -10.1855 -5.5137 -15.6812 1.3253 7.2907 20.5796 0.1141 1.7818 -7.2978 0.2730 -3.3608 -9.2849 0.0000 0.0000 0.0000 23.9928 1.4958 5.3274 -1.4493 -7.6100 21.5355 -0.6420 10.3422 -15.0011 -0.0829 -1.8572 5.1113 -1.3494 -0.8389 12.4947 1.3115 -1.2056 1.3399 2.3448 -0.5427 -5.5419 -17.4248 -20.6603 0.2782 22.6591 -31.5410 12.4277 5.9092 -14.8474 10.4972 -0.0000 0.0000 0.0000 -82.5103 6.0950 53.7982 91.5487 -59.9909 -61.3412 -0.0000 0.0000 -3.8106 16.1903 33.5837 9.1240 -7.1250 0.0000 -0.0000 -20.3631 63.5156 -9.3397 -0.0000 0.0000 0.0000 78.1581 3.5286 69.4474 -88.6822 59.9934 -58.8588 0.0000 0.0000 2.4913 -18.7188 7.9231 -2.6742 7.1250 -0.0000 -0.0000 5.8919 -21.6373 3.3214
0.6814 17.8064 5.2607 -2.6958 22.8859 -5.9903 0.0000 0.0000 0.0000 -10.1950 -4.2450 -16.4219 1.6055 7.9909 22.6863 0.1673 1.2080 -8.2663 0.2995 -3.5188 -9.7266 0.0000 0.0000 0.0000 24.4073 2.0983 4.5675 -1.5196 -7.7843 22.0607 -0.6393 9.5249 -14.7734 -0.0530 -1.4862 4.0877 -1.7391 -0.9922 12.3738 1.5614 -1.4462 1.4202 2.8639 -0.6535 -5.3619 -17.4291 -20.6647 0.1633 22.6457 -31.5300 12.4250 5.8947 -14.8332 10.5119 0.0000 0.0000 0.0000 -82.8447 6.1774 53.8869 90.4308 -59.9993 -60.3731 -0.0000 0.0000 -4.2115 14.9984 34.8664 8.7078 -7.1250 0.0000 -0.0000 -22.9612 64.3684 -11.0479 0.0000 0.0000 0.0000 77.5824 3.5318 69.7797 -88.4805 59.9913 -58.6841 0.0000 0.0000 2.7089 -18.2484 8.1687 -2.6823 7.1250 -0.0000 -0.0000 6.2305 -21.4052 3.5475
0.5625 17.8208 5.1367 -2.6304 22.7190 -5.9814 0.0000 0.0000 0.0000 -10.3044 -2.7061 -17.0335 1.9420 8.7442 24.9983 0.2052 0.4543 -8.7331 0.3891 -4.0057 -11.0928 0.0000 0.0000 0.0000 24.8813 3.2194 4.0636 -1.5938 -7.9630 22.6019 -0.6759 8.2527 -14.8921 -0.0156 -0.8052 2.2130 -2.2094 -1.0162 12.3369 1.7197 -1.5322 1.4400 3.3099 -0.6860 -5.2984 -17.2719 -20.7749 0.1394 22.3688 -31.6617 12.5853 5.7552 -14.8909 10.5155 0.0000 0.0000 0.0000 -82.7646 6.5404 54.3961 90.1474 -59.9999 -60.1277 -0.0000 0.0000 -3.6989 12.7615 36.4471 7.6632 -7.1250 0.0000 -0.0000 -27.1885 65.1493 -13.7074 0.0000 0.0000 0.0000 77.2296 3.2527 69.7700 -88.2706 59.9887 -58.5023 0.0000 0.0000 3.0470 -17.8857 8.2370 -2.6472 7.1250 -0.0000 -0.0000 6.4921 -21.3532 3.7060
